{
  "type": "FeatureCollection",
  "features": [
    {
      "type": "Feature",
      "properties": {
        "id": "atlas-parque-alian",
        "name": "Parque Alian"
      },
      "geometry": {
        "type": "Polygon",
        "coordinates": [
          [
            [
              1498.0023353343945,
              922.9984395794452
            ],
            [
              1514.002299047957,
              938.9977009520428
            ],
            [
              1521.414213562373,
              941.5857864376269
            ],
            [
              1523.002299047957,
              947.9977009520428
            ],
            [
              1567.0015604205548,
              995.9976646656054
            ],
            [
              1572.4484941659027,
              996.6209189105257
            ],
            [
              1572.002299047957,
              1001.9977009520428
            ],
            [
              1597.0022990479572,
              1027.9977009520428
            ],
            [
              1602.4392305818303,
              1029.340808299621
            ],
            [
              1604.0023353343945,
              1034.998439579445
            ],
            [
              1621.48190225071,
              1051.656882090306
            ],
            [
              1632.0022990479572,
              1067.9977009520428
            ],
            [
              1639.9985956586022,
              1066.997656997928
            ],
            [
              1891.9984395794452,
              948.9976646656054
            ],
            [
              1895.9976569979283,
              942.0014043413976
            ],
            [
              1882.1730405427274,
              919.1141792342393
            ],
            [
              1882.0948761286847,
              913.1208646515861
            ],
            [
              1921.997700952043,
              890.9977009520428
            ],
            [
              1908.0090384890161,
              862.1899269906593
            ],
            [
              1918.8263478345903,
              853.2155622286848
            ],
            [
              1932.825341820633,
              849.0785187110586
            ],
            [
              1942.0015604205548,
              860.9976646656054
            ],
            [
              1944.9984395794452,
              860.9976646656054
            ],
            [
              1964.3667183771593,
              840.536210955637
            ],
            [
              1969.6431041039225,
              839.0350252555005
            ],
            [
              2007.9984395794452,
              866.9976646656054
            ],
            [
              2022.3667183771593,
              847.536210955637
            ],
            [
              2030.4081191880132,
              845.6819772463572
            ],
            [
              2045.490327474495,
              851.415106135176
            ],
            [
              2060.950902755782,
              869.0
            ],
            [
              2101.9977009520426,
              851.9977009520428
            ],
            [
              2102.9976646656055,
              848.0015604205547
            ],
            [
              2088.2155622286846,
              833.1736521654097
            ],
            [
              2084.0350252555004,
              819.6431041039224
            ],
            [
              2090.415106135176,
              802.509672525505
            ],
            [
              2146.998439579446,
              799.9976646656054
            ],
            [
              2158.214888102244,
              779.6299045562189
            ],
            [
              2171.9976646656055,
              766.9984395794453
            ],
            [
              2183.9976646656055,
              750.0015604205547
            ],
            [
              2134.6209189105252,
              709.4484941659024
            ],
            [
              2094.998439579446,
              672.0023353343946
            ],
            [
              2075.47818525551,
              661.6605990855049
            ],
            [
              2071.9976646656055,
              652.0015604205547
            ],
            [
              2052.3079096562483,
              634.3366681728771
            ],
            [
              2047.9977009520428,
              620.0022990479572
            ],
            [
              2029.0014043413978,
              622.0023430020719
            ],
            [
              1982.6431041039225,
              633.9649747444995
            ],
            [
              1930.0014043413978,
              634.0023430020719
            ],
            [
              1774.0015604205548,
              660.0023353343946
            ],
            [
              1745.002299047957,
              682.0022990479572
            ],
            [
              1601.002299047957,
              809.0022990479572
            ],
            [
              1556.002299047957,
              854.0022990479572
            ],
            [
              1539.5015198988854,
              877.5915959975036
            ],
            [
              1498.0023353343945,
              922.9984395794452
            ]
          ]
        ]
      }
    },
    {
      "type": "Feature",
      "properties": {
        "id": "atlas-vila-norma",
        "name": "Vila Norma"
      },
      "geometry": {
        "type": "Polygon",
        "coordinates": [
          [
            [
              683.0022990479572,
              1751.002299047957
            ],
            [
              774.9977009520428,
              1853.997700952043
            ],
            [
              830.9976569979281,
              1774.9985956586022
            ],
            [
              830.0785187110586,
              1719.174658179367
            ],
            [
              834.5180977492896,
              1710.6568820903065
            ],
            [
              859.549532343637,
              1684.3746040660128
            ],
            [
              872.1208646515861,
              1677.0948761286847
            ],
            [
              951.1208646515861,
              1655.0948761286847
            ],
            [
              958.9984395794452,
              1655.9976646656055
            ],
            [
              1056.174658179367,
              1629.0785187110587
            ],
            [
              1083.9977009520428,
              1624.9977009520428
            ],
            [
              1083.997656997928,
              1613.0014043413978
            ],
            [
              1033.997656997928,
              1397.0014043413978
            ],
            [
              1027.997656997928,
              1372.0014043413978
            ],
            [
              1023.998439579445,
              1367.0023353343945
            ],
            [
              1020.0015604205548,
              1366.0023353343945
            ],
            [
              1015.0023353343946,
              1370.0015604205548
            ],
            [
              1005.9214812889414,
              1426.825341820633
            ],
            [
              987.5165531679136,
              1455.303865978117
            ],
            [
              959.2562421281117,
              1479.7401739822176
            ],
            [
              932.8791353484139,
              1491.9051238713153
            ],
            [
              879.0015604205548,
              1510.0023353343945
            ],
            [
              852.0022990479572,
              1529.002299047957
            ],
            [
              832.0023430020719,
              1563.0014043413978
            ],
            [
              803.7844377713152,
              1632.1736521654097
            ],
            [
              779.584893864824,
              1664.490327474495
            ],
            [
              771.0719434098584,
              1672.8323759142343
            ],
            [
              726.0022990479572,
              1690.002299047957
            ],
            [
              711.0023353343946,
              1710.0015604205548
            ],
            [
              690.6253959339873,
              1747.4504676563631
            ],
            [
              683.0022990479572,
              1751.002299047957
            ]
          ]
        ]
      }
    },
    {
      "type": "Feature",
      "properties": {
        "id": "atlas-parque-tiete",
        "name": "Parque Tietê"
      },
      "geometry": {
        "type": "Polygon",
        "coordinates": [
          [
            [
              3809.0022990495304,
              1516.9977009504694
            ],
            [
              3837.521814750356,
              1540.3394009289536
            ],
            [
              3840.0022990495304,
              1547.9977009504694
            ],
            [
              3860.9984395854963,
              1548.9976646636446
            ],
            [
              3882.2845427858892,
              1503.9717945017871
            ],
            [
              3916.1448897986406,
              1462.1920214206107
            ],
            [
              3925.5525301101607,
              1461.0026661265729
            ],
            [
              3956.5993305474344,
              1468.0919111931275
            ],
            [
              3987.256242090575,
              1479.259825998587
            ],
            [
              3998.0022990495304,
              1489.9977009504694
            ],
            [
              4011.998595661984,
              1489.9976569960959
            ],
            [
              4024.9976646636446,
              1481.0015604145037
            ],
            [
              4000.743757909425,
              1471.740174001413
            ],
            [
              3979.408404047081,
              1458.5015199349007
            ],
            [
              3975.7765223850074,
              1454.7864229980185
            ],
            [
              3976.656882088608,
              1451.5180977508287
            ],
            [
              4029.7065390216253,
              1437.021646984441
            ],
            [
              4072.998595661984,
              1435.9976569960959
            ],
            [
              4147.998439585496,
              1401.9976646636446
            ],
            [
              4185.320135069831,
              1381.0423544941127
            ],
            [
              4216.001404338015,
              1395.9976569960959
            ],
            [
              4218.997664663644,
              1393.9984395854965
            ],
            [
              4214.997700950469,
              1332.0022990495306
            ],
            [
              4206.401864643323,
              1334.0635286720162
            ],
            [
              4201.623290835317,
              1331.450748729407
            ],
            [
              4199.997664663644,
              1317.0015604145035
            ],
            [
              4197.010616802653,
              1313.4762478150933
            ],
            [
              4204.259546889289,
              1302.8523522242137
            ],
            [
              4209.002299049531,
              1307.9977009504694
            ],
            [
              4211.997700950469,
              1306.9977009504694
            ],
            [
              4212.0,
              1296.0490972614198
            ],
            [
              4205.010616802653,
              1219.4762478150933
            ],
            [
              4196.997700950469,
              1030.0022990495306
            ],
            [
              4154.001404338015,
              1020.0023430039042
            ],
            [
              4140.002343003905,
              1038.0014043380158
            ],
            [
              4152.989383197347,
              1160.4762478150933
            ],
            [
              4150.76536686473,
              1167.8477590650225
            ],
            [
              4134.523752184907,
              1168.9893831973473
            ],
            [
              4126.001404338015,
              1166.0023430039041
            ],
            [
              4119.002335336356,
              1173.0015604145035
            ],
            [
              4119.002335336356,
              1198.9984395854965
            ],
            [
              4128.660599071049,
              1205.4781852496465
            ],
            [
              4129.501519934904,
              1209.5915959529154
            ],
            [
              4101.071943377659,
              1222.8323759267207
            ],
            [
              4091.5237521849062,
              1223.989383197347
            ],
            [
              4040.998595661984,
              1198.0023430039041
            ],
            [
              4035.001404338016,
              1197.0023430039041
            ],
            [
              4030.0022990495304,
              1200.0022990495306
            ],
            [
              4006.0023353363554,
              1230.0015604145037
            ],
            [
              4007.0015604145037,
              1233.9976646636446
            ],
            [
              4019.6294969921523,
              1243.569925201824
            ],
            [
              4022.9576455058873,
              1252.3201350698296
            ],
            [
              4019.002343003904,
              1282.998595661984
            ],
            [
              4033.65879020286,
              1296.2065390708444
            ],
            [
              4030.2872745910136,
              1301.734438058457
            ],
            [
              4016.0023353363554,
              1308.0015604145037
            ],
            [
              4016.662939224605,
              1333.1111404660392
            ],
            [
              4000.5699252018226,
              1333.6294969921512
            ],
            [
              3995.0919111931275,
              1324.4006694525654
            ],
            [
              4005.9976646636446,
              1316.0015604145037
            ],
            [
              3994.0015604145037,
              1318.0023353363554
            ],
            [
              3984.0015604145037,
              1324.0023353363554
            ],
            [
              3957.141435993097,
              1354.0559819044229
            ],
            [
              3934.0015604145037,
              1355.0023353363554
            ],
            [
              3909.0015604145037,
              1371.0023353363554
            ],
            [
              3896.501519934902,
              1391.5915959529175
            ],
            [
              3863.0023353363554,
              1424.0015604145037
            ],
            [
              3854.0023353363554,
              1441.0015604145037
            ],
            [
              3851.7401740014134,
              1456.2562420905736
            ],
            [
              3836.0023353363554,
              1473.0015604145037
            ],
            [
              3826.7481806888186,
              1492.9715267774188
            ],
            [
              3809.0023353363554,
              1513.0015604145037
            ],
            [
              3809.0022990495304,
              1516.9977009504694
            ]
          ]
        ]
      }
    },
    {
      "type": "Feature",
      "properties": {
        "id": "atlas-parque-novo-rio",
        "name": "Parque Novo Rio"
      },
      "geometry": {
        "type": "Polygon",
        "coordinates": [
          [
            [
              3418.0015604145037,
              2283.9976646636446
            ],
            [
              3480.0,
              2277.0
            ],
            [
              3580.0,
              2273.0
            ],
            [
              3740.0,
              2261.0
            ],
            [
              3830.0,
              2257.0
            ],
            [
              3938.0,
              2251.0
            ],
            [
              3855.9976646636446,
              2145.0015604145037
            ],
            [
              3837.3705030078486,
              2125.4300747981774
            ],
            [
              3835.34120979714,
              2119.2065390708444
            ],
            [
              3850.9977009504696,
              2097.9977009504696
            ],
            [
              3849.0106168026527,
              2091.5237521849062
            ],
            [
              3853.0,
              2084.0490972614107
            ],
            [
              3850.78949174072,
              2080.514039691655
            ],
            [
              3856.997656996096,
              2071.9985956619835
            ],
            [
              3861.777241917201,
              2047.2115626469263
            ],
            [
              3882.9976646636446,
              2016.9984395854963
            ],
            [
              3894.997656996096,
              1992.998595661984
            ],
            [
              3908.656882088608,
              1952.5180977508287
            ],
            [
              3933.5237521849062,
              1943.010616802653
            ],
            [
              3998.998595661984,
              1941.9976569960959
            ],
            [
              4022.9984395854963,
              1932.9976646636446
            ],
            [
              4056.9976646636446,
              1912.9984395854963
            ],
            [
              4036.3705030078477,
              1896.430074798176
            ],
            [
              4030.16762407328,
              1887.0719433776612
            ],
            [
              4022.094876121573,
              1861.879135322503
            ],
            [
              4015.0423544941127,
              1833.6798649301704
            ],
            [
              4015.997656996096,
              1816.001404338016
            ],
            [
              4013.321971907263,
              1810.5981353420057
            ],
            [
              4013.997656996096,
              1747.001404338016
            ],
            [
              4007.9976646636446,
              1729.0015604145037
            ],
            [
              3871.998595661984,
              1616.0023430039041
            ],
            [
              3841.9509027385893,
              1610.0
            ],
            [
              3802.0015604145037,
              1613.0023353363554
            ],
            [
              3757.4300747981774,
              1671.6294969921512
            ],
            [
              3729.679864930171,
              1682.957645505887
            ],
            [
              3702.72955426,
              1685.0
            ],
            [
              3672.998595661984,
              1676.0023430039041
            ],
            [
              3633.498480065098,
              1674.5915959529175
            ],
            [
              3639.997656996096,
              1618.998595661984
            ],
            [
              3638.0015604145037,
              1616.0023353363554
            ],
            [
              3603.7344380584595,
              1684.2872745910101
            ],
            [
              3594.0023353363554,
              1688.0015604145037
            ],
            [
              3596.002343003904,
              1773.998595661984
            ],
            [
              3607.0023353363554,
              1802.9984395854963
            ],
            [
              3669.7481806888186,
              1885.0284732225812
            ],
            [
              3669.9893831973473,
              1907.4762478150938
            ],
            [
              3652.563525326065,
              1970.1737796629086
            ],
            [
              3645.002343003904,
              1985.001404338016
            ],
            [
              3610.606415058867,
              2091.191398614506
            ],
            [
              3577.0022990495304,
              2113.0022990495304
            ],
            [
              3554.4300747981774,
              2135.6294969921514
            ],
            [
              3539.679864930171,
              2140.957645505887
            ],
            [
              3482.5981353420057,
              2148.678028092737
            ],
            [
              3429.0490972614107,
              2146.0
            ],
            [
              3377.0015604145037,
              2149.0023353363554
            ],
            [
              3341.0014043380165,
              2157.002343003904
            ],
            [
              3294.4762478150938,
              2174.9893831973473
            ],
            [
              3245.9985956619835,
              2166.002343003904
            ],
            [
              3218.0015604145037,
              2166.0023353363554
            ],
            [
              3212.0022990495304,
              2169.0022990495304
            ],
            [
              3249.0015604145037,
              2191.9976646636446
            ],
            [
              3418.0015604145037,
              2283.9976646636446
            ]
          ]
        ]
      }
    },
    {
      "type": "Feature",
      "properties": {
        "id": "atlas-parque-analandia",
        "name": "Parque Analândia"
      },
      "geometry": {
        "type": "Polygon",
        "coordinates": [
          [
            [
              3887.6294969921514,
              2179.5699252018226
            ],
            [
              3938.0,
              2251.0
            ],
            [
              4050.0,
              2239.0
            ],
            [
              4151.0,
              2225.0
            ],
            [
              4149.997700950469,
              2211.9977009504696
            ],
            [
              4161.997664663644,
              2102.0015604145037
            ],
            [
              4152.998595661985,
              2098.002343003904
            ],
            [
              4144.408404047084,
              2098.5015199349036
            ],
            [
              4140.094876121573,
              2093.879135322503
            ],
            [
              4139.010616802653,
              2082.5237521849062
            ],
            [
              4144.928056622341,
              2074.1676240732795
            ],
            [
              4154.997700950469,
              2074.9977009504696
            ],
            [
              4155.236157471303,
              2068.057206526348
            ],
            [
              4159.523752184907,
              2066.0106168026527
            ],
            [
              4163.15353389539,
              2069.326220363153
            ],
            [
              4163.997700950469,
              2079.9977009504696
            ],
            [
              4171.997656996095,
              2028.9985956619842
            ],
            [
              4182.997664663644,
              1915.0015604145035
            ],
            [
              4177.001404338015,
              1913.0023430039041
            ],
            [
              4148.071943377659,
              1927.8323759267207
            ],
            [
              4134.72955426,
              1929.0
            ],
            [
              4093.9984395854963,
              1915.0023353363554
            ],
            [
              4074.001404338016,
              1913.0023430039041
            ],
            [
              4063.0015604145037,
              1915.0023353363554
            ],
            [
              4020.071943377662,
              1939.8323759267196
            ],
            [
              3999.679864930171,
              1945.957645505887
            ],
            [
              3946.001404338016,
              1946.0023430039041
            ],
            [
              3916.0015604145037,
              1953.0023353363554
            ],
            [
              3908.002343003904,
              1961.001404338016
            ],
            [
              3902.905123878427,
              1984.879135322503
            ],
            [
              3887.7401740014134,
              2016.2562420905736
            ],
            [
              3865.002343003904,
              2051.0014043380165
            ],
            [
              3861.0023353363554,
              2072.9984395854963
            ],
            [
              3870.488415791863,
              2078.644889867301
            ],
            [
              3871.8477590650227,
              2098.7653668647304
            ],
            [
              3854.0015604145037,
              2100.0023353363554
            ],
            [
              3841.0023353363554,
              2118.0015604145037
            ],
            [
              3844.0023353363554,
              2126.9984395854963
            ],
            [
              3887.6294969921514,
              2179.5699252018226
            ]
          ]
        ]
      }
    }
  ]
}
