{"type":"FeatureCollection","features":[{"type":"Feature","id":3564,"geometry":{"type":"LineString","coordinates":[[-43.367779794301953,-22.758241779859894],[-43.367668033752636,-22.758591587357461],[-43.367555018649064,-22.75894029768223],[-43.367444645753665,-22.75928795220284],[-43.367314388847831,-22.759628899579635],[-43.367206448618617,-22.759976578381988],[-43.367107027667089,-22.760328407555537],[-43.366996628691368,-22.76067804777923],[-43.366901746618169,-22.761032994003028],[-43.366797105102187,-22.761381518168104],[-43.366664520750923,-22.761721267647943],[-43.366542480950613,-22.762066904089917],[-43.366341772954343,-22.762771265706849],[-43.366290007977348,-22.762915052912859],[-43.366281973434184,-22.763009811778911]]},"properties":{"objectid":3564,"nome":" ","geometriaa":"Não","tipoaltera":"Canal","operaciona":"Desconhecido","situacaofi":"Desconhecida","matconstr":" ","usoprincip":"Desconhecido","finalidade":"Desconhecida","codmun":"330045","municn":"Belford Roxo","reggov":"Região Metropolitana","rh":"RH-V","nome_rh":"Baia de Guanabara","id_rh":5,"Shape__Length":0.0050027168944129898}},{"type":"Feature","id":3596,"geometry":{"type":"LineString","coordinates":[[-43.372572634919038,-22.764160961984324],[-43.372508197595096,-22.764607789243534],[-43.372408047293447,-22.76478368854184],[-43.372359988422602,-22.765067782577574]]},"properties":{"objectid":3596,"nome":" ","geometriaa":"Não","tipoaltera":"Canal","operaciona":"Desconhecido","situacaofi":"Desconhecida","matconstr":" ","usoprincip":"Desconhecido","finalidade":"Desconhecida","codmun":"330510","municn":"São João de Meriti","reggov":"Região Metropolitana","rh":"RH-V","nome_rh":"Baia de Guanabara","id_rh":5,"Shape__Length":0.00094199201102247926}},{"type":"Feature","id":3616,"geometry":{"type":"LineString","coordinates":[[-43.367345319230985,-22.766928264952913],[-43.366972664456796,-22.764078738768259]]},"properties":{"objectid":3616,"nome":" ","geometriaa":"Não","tipoaltera":"Canal","operaciona":"Desconhecido","situacaofi":"Desconhecida","matconstr":" ","usoprincip":"Desconhecido","finalidade":"Desconhecida","codmun":"330510","municn":"São João de Meriti","reggov":"Região Metropolitana","rh":"RH-V","nome_rh":"Baia de Guanabara","id_rh":5,"Shape__Length":0.0028737903642997715}},{"type":"Feature","id":3622,"geometry":{"type":"LineString","coordinates":[[-43.35373756493658,-22.767877999395555],[-43.353714627727761,-22.767695516160561],[-43.353628437602197,-22.767492962755437],[-43.353517969378686,-22.767309124242079],[-43.353046870316689,-22.76669665265382],[-43.35141057184029,-22.764544723385765],[-43.350025688734434,-22.762739010622372],[-43.348456877183033,-22.760648187589336]]},"properties":{"objectid":3622,"nome":" ","geometriaa":"Não","tipoaltera":"Canal","operaciona":"Desconhecido","situacaofi":"Desconhecida","matconstr":" ","usoprincip":"Desconhecido","finalidade":"Desconhecida","codmun":"330510","municn":"São João de Meriti","reggov":"Região Metropolitana","rh":"RH-V","nome_rh":"Baia de Guanabara","id_rh":5,"Shape__Length":0.0089841761096985974}},{"type":"Feature","id":3645,"geometry":{"type":"LineString","coordinates":[[-43.371920366531583,-22.767530526537985],[-43.371955204468975,-22.76735484217766],[-43.372056575150687,-22.766862775422162],[-43.372182112414457,-22.766443204815467],[-43.372254653529296,-22.766066262073782],[-43.372257516071379,-22.765570210422336],[-43.372359988422602,-22.765067782577574]]},"properties":{"objectid":3645,"nome":" ","geometriaa":"Não","tipoaltera":"Canal","operaciona":"Desconhecido","situacaofi":"Desconhecida","matconstr":" ","usoprincip":"Desconhecido","finalidade":"Desconhecida","codmun":"330510","municn":"São João de Meriti","reggov":"Região Metropolitana","rh":"RH-V","nome_rh":"Baia de Guanabara","id_rh":5,"Shape__Length":0.0025121444322993005}},{"type":"Feature","id":3704,"geometry":{"type":"LineString","coordinates":[[-43.377524446895563,-22.783332926098716],[-43.375473715639366,-22.777078944362977],[-43.375472101356252,-22.777074237311396]]},"properties":{"objectid":3704,"nome":" ","geometriaa":"Não","tipoaltera":"Canal","operaciona":"Desconhecido","situacaofi":"Desconhecida","matconstr":" ","usoprincip":"Desconhecido","finalidade":"Desconhecida","codmun":"330510","municn":"São João de Meriti","reggov":"Região Metropolitana","rh":"RH-V","nome_rh":"Baia de Guanabara","id_rh":5,"Shape__Length":0.0065866010610887982}},{"type":"Feature","id":3749,"geometry":{"type":"LineString","coordinates":[[-43.32131095903344,-22.795906937579847],[-43.319755532092017,-22.798012103900213],[-43.319667276223697,-22.798680095134955],[-43.319325675939069,-22.800038269275351],[-43.31932567503975,-22.800038360106868],[-43.319328102309953,-22.800428160455862],[-43.319208405243621,-22.801126546977169],[-43.319208309915439,-22.80112710365756]]},"properties":{"objectid":3749,"nome":" ","geometriaa":"Não","tipoaltera":"Canal","operaciona":"Desconhecido","situacaofi":"Desconhecida","matconstr":" ","usoprincip":"Desconhecido","finalidade":"Desconhecida","codmun":"330170","municn":"Duque de Caxias","reggov":"Região Metropolitana","rh":"RH-V","nome_rh":"Baia de Guanabara","id_rh":5,"Shape__Length":0.0057907601027371094}},{"type":"Feature","id":4255,"geometry":{"type":"LineString","coordinates":[[-43.306873899410789,-22.749570806273528],[-43.306735616955052,-22.749718048674822],[-43.306680112597007,-22.749797384167771],[-43.306632256972996,-22.749864337794794],[-43.306651124749465,-22.749881968104138],[-43.306731867681435,-22.749951188022735],[-43.306824382738967,-22.750012134178455],[-43.307044014269707,-22.750150468794892],[-43.307337430677762,-22.750392176883267],[-43.307664177759477,-22.750607867584812],[-43.307967874317853,-22.750853115404738],[-43.308270864009039,-22.751084717811253],[-43.308605118631192,-22.7512761025359],[-43.308963443607922,-22.751434326558705],[-43.309325098774195,-22.751591049613019],[-43.309707176644785,-22.751726224011811],[-43.310069669079837,-22.751862454214681],[-43.310449670415835,-22.751968615584932],[-43.310540053180766,-22.751990613901455],[-43.310914154964166,-22.752101497611815],[-43.311308365588502,-22.752176650357896],[-43.311695663124226,-22.752243871982895],[-43.312074084351366,-22.752336195484798],[-43.31245302898401,-22.752441437747887],[-43.312839311185144,-22.752520114937099],[-43.313218574177704,-22.752662927278013],[-43.313612478133223,-22.75277130547714],[-43.313996486848282,-22.752852846107682],[-43.314389540045106,-22.752959226013193],[-43.314775355498107,-22.753052343616535],[-43.315151416904257,-22.753154840249433],[-43.315534781704692,-22.753225623189699],[-43.315928066027318,-22.753297413370682],[-43.31630400692427,-22.753409840317637],[-43.316681719485643,-22.753504944523311],[-43.317057469726308,-22.753617187109249],[-43.317449325026189,-22.753726346819192],[-43.317834081077876,-22.753803009526973],[-43.318213697504007,-22.753909780637574],[-43.318590007123028,-22.75401633591088],[-43.318973435775327,-22.754090181942047],[-43.319365371114884,-22.754169174793276],[-43.319756404434372,-22.7542582715277],[-43.320132777905258,-22.754359766315865],[-43.320514978083679,-22.754446601255378],[-43.320886163365621,-22.754558425656512],[-43.321272258507797,-22.754645389199066],[-43.321657890499125,-22.754730541506987],[-43.32203725241714,-22.754834682100618],[-43.322407980843543,-22.754952187519148],[-43.322813424000174,-22.755017857813563],[-43.323212573701198,-22.755112540237214],[-43.323609359084514,-22.755195965846813]]},"properties":{"objectid":4255,"nome":" ","geometriaa":"Não","tipoaltera":"Canal","operaciona":"Desconhecido","situacaofi":"Desconhecida","matconstr":" ","usoprincip":"Desconhecido","finalidade":"Desconhecida","codmun":"330170","municn":"Duque de Caxias","reggov":"Região Metropolitana","rh":"RH-V","nome_rh":"Baia de Guanabara","id_rh":5,"Shape__Length":0.018348412599387017}},{"type":"Feature","id":4270,"geometry":{"type":"LineString","coordinates":[[-43.320057730379865,-22.827741392075616],[-43.320870975614923,-22.827080428143262],[-43.321418539533852,-22.826623585134413],[-43.321684220849995,-22.826409744338299],[-43.321794381505349,-22.826364383433596],[-43.32211704206771,-22.82632564873375],[-43.324167356038515,-22.826062579048809],[-43.324262962065916,-22.825988357101032],[-43.324332698195356,-22.825870605268282],[-43.324719286165987,-22.825145695041858],[-43.325146213227015,-22.824611128125156],[-43.326790225188631,-22.822882815513662],[-43.327361262312301,-22.82222548933899],[-43.327544002753427,-22.821988178935467],[-43.327615673324544,-22.821759545190993],[-43.327733336124425,-22.821410560573092],[-43.327856609794594,-22.821056667455423],[-43.32795306298334,-22.820705201607964],[-43.328001474388437,-22.820594087671179],[-43.328126762539966,-22.820250691440453],[-43.328263200486219,-22.819903618781172],[-43.3284120697611,-22.819567604185778],[-43.328549762261616,-22.819229395244616],[-43.328664839510623,-22.818884265120968],[-43.328739806097069,-22.818744439428588],[-43.328787439588552,-22.81838568817318],[-43.328795258294406,-22.818215988801057],[-43.32860024390601,-22.817895150265215],[-43.32834333817442,-22.817616830776352],[-43.328335753292265,-22.817599773335157],[-43.328206169978671,-22.817369659306593],[-43.328017642400141,-22.817052410864314],[-43.327810877469922,-22.816744813946269],[-43.327610370921775,-22.816427349666743],[-43.327405845303417,-22.816112009585868],[-43.327161027359409,-22.815809521716343],[-43.326995552102915,-22.815479600027807],[-43.326804576569828,-22.815163768917127],[-43.326602525885733,-22.814853420972916],[-43.326565151860166,-22.814778884262445],[-43.324640653043559,-22.810887188617244],[-43.324401336252556,-22.810351305093054],[-43.324317529330415,-22.810122933950666],[-43.324236792693682,-22.809786947234247],[-43.323979706198372,-22.808458411151214],[-43.323923030023707,-22.808114639003872],[-43.323951793940012,-22.807801838608452],[-43.324034813056073,-22.807568990640867],[-43.324553584280352,-22.806831739917342],[-43.327517587866282,-22.802615007701064],[-43.327517720965943,-22.802614818843395]]},"properties":{"objectid":4270,"nome":"Rio dos Cachorros","geometriaa":"Não","tipoaltera":"Canal","operaciona":"Desconhecido","situacaofi":"Desconhecida","matconstr":" ","usoprincip":"Desconhecido","finalidade":"Desconhecida","codmun":"330455","municn":"Rio de Janeiro","reggov":"Região Metropolitana","rh":"RH-V","nome_rh":"Baia de Guanabara","id_rh":5,"Shape__Length":0.031871333541553741}},{"type":"Feature","id":4271,"geometry":{"type":"LineString","coordinates":[[-43.332372563542833,-22.814076246645797],[-43.33237274520593,-22.814077687359699],[-43.333122483016041,-22.820028496841832],[-43.333657740612125,-22.824404177934564],[-43.333718741626512,-22.825002880002973],[-43.333907074052092,-22.826254362173117],[-43.333943736713927,-22.826766078215968],[-43.334159261040952,-22.828492817913229],[-43.334385698640972,-22.830373749073214],[-43.334676687778831,-22.832729439535935],[-43.334728883531056,-22.833168513739793],[-43.335060115531803,-22.833794214355397],[-43.335095387841761,-22.833996754270675],[-43.335109348017845,-22.83414663348422],[-43.335134024515533,-22.834328594213137],[-43.335165601511164,-22.834640131960413],[-43.335187357910115,-22.834893948520762],[-43.33519684755634,-22.834922766396428],[-43.335179361138508,-22.835028082403955],[-43.335204210305967,-22.835087602234939],[-43.335241556452551,-22.835170957697361],[-43.335282971132067,-22.835241646208836],[-43.335507622678506,-22.835511349293199],[-43.335587292719254,-22.835601629535407],[-43.335619468663424,-22.835647752165869],[-43.335637178113188,-22.835697697814336],[-43.335654726584259,-22.835792977387836],[-43.335683537265311,-22.836099699265553],[-43.335720502998697,-22.836360810227045],[-43.335741712609831,-22.836475454002812],[-43.335891304040331,-22.836689064572496],[-43.335971906678026,-22.836799091228869],[-43.336049070308199,-22.836903482733334],[-43.336095862933632,-22.836973600175295],[-43.336102756237096,-22.836999591481771],[-43.336105085481158,-22.837008375160192],[-43.33613321177819,-22.837187211644306],[-43.336137729972165,-22.837216248055224]]},"properties":{"objectid":4271,"nome":"Rio dos Cachorros","geometriaa":"Não","tipoaltera":"Canal","operaciona":"Desconhecido","situacaofi":"Desconhecida","matconstr":" ","usoprincip":"Desconhecido","finalidade":"Desconhecida","codmun":"330455","municn":"Rio de Janeiro","reggov":"Região Metropolitana","rh":"RH-V","nome_rh":"Baia de Guanabara","id_rh":5,"Shape__Length":0.023652456161575075}},{"type":"Feature","id":4471,"geometry":{"type":"LineString","coordinates":[[-43.319992982789813,-22.753362558461021],[-43.319919373280356,-22.753509552649469]]},"properties":{"objectid":4471,"nome":" ","geometriaa":"Não","tipoaltera":"Canal","operaciona":"Desconhecido","situacaofi":"Desconhecida","matconstr":" ","usoprincip":"Desconhecido","finalidade":"Desconhecida","codmun":"330170","municn":"Duque de Caxias","reggov":"Região Metropolitana","rh":"RH-V","nome_rh":"Baia de Guanabara","id_rh":5,"Shape__Length":0.00016439480319373423}},{"type":"Feature","id":4472,"geometry":{"type":"LineString","coordinates":[[-43.333726352588997,-22.756776858890593],[-43.333700003352362,-22.756832600669668]]},"properties":{"objectid":4472,"nome":" ","geometriaa":"Não","tipoaltera":"Canal","operaciona":"Desconhecido","situacaofi":"Desconhecida","matconstr":" ","usoprincip":"Desconhecido","finalidade":"Desconhecida","codmun":"330045","municn":"Belford Roxo","reggov":"Região Metropolitana","rh":"RH-V","nome_rh":"Baia de Guanabara","id_rh":5,"Shape__Length":6.1655723202590226e-05}},{"type":"Feature","id":4473,"geometry":{"type":"LineString","coordinates":[[-43.350440679093929,-22.760134381522075],[-43.350404973310731,-22.760252190911476]]},"properties":{"objectid":4473,"nome":" ","geometriaa":"Não","tipoaltera":"Canal","operaciona":"Desconhecido","situacaofi":"Desconhecida","matconstr":" ","usoprincip":"Desconhecido","finalidade":"Desconhecida","codmun":"330045","municn":"Belford Roxo","reggov":"Região Metropolitana","rh":"RH-V","nome_rh":"Baia de Guanabara","id_rh":5,"Shape__Length":0.00012310140203288872}},{"type":"Feature","id":4485,"geometry":{"type":"LineString","coordinates":[[-43.371920366531583,-22.767530526537985],[-43.371990807729439,-22.767547026399569],[-43.373483181403572,-22.769071526555081],[-43.373899527041431,-22.769308139984044],[-43.374416057155202,-22.769530691613497],[-43.375041091373127,-22.770253769021597],[-43.37503383564291,-22.770422396401813],[-43.374951844451914,-22.771663615508761],[-43.375478154692985,-22.7725498713048]]},"properties":{"objectid":4485,"nome":" ","geometriaa":"Não","tipoaltera":"Canal","operaciona":"Desconhecido","situacaofi":"Desconhecida","matconstr":" ","usoprincip":"Desconhecido","finalidade":"Desconhecida","codmun":"330510","municn":"São João de Meriti","reggov":"Região Metropolitana","rh":"RH-V","nome_rh":"Baia de Guanabara","id_rh":5,"Shape__Length":0.006646276082504521}},{"type":"Feature","id":4486,"geometry":{"type":"LineString","coordinates":[[-43.371920366531583,-22.767530526537985],[-43.371223906358068,-22.771042559891562],[-43.37123696091691,-22.77141965282005],[-43.371444483076289,-22.771757006505926],[-43.374673243475286,-22.774744822340931],[-43.375472101356252,-22.777074237311396]]},"properties":{"objectid":4486,"nome":" ","geometriaa":"Não","tipoaltera":"Canal","operaciona":"Desconhecido","situacaofi":"Desconhecida","matconstr":" ","usoprincip":"Desconhecido","finalidade":"Desconhecida","codmun":"330510","municn":"São João de Meriti","reggov":"Região Metropolitana","rh":"RH-V","nome_rh":"Baia de Guanabara","id_rh":5,"Shape__Length":0.0112154879731289}},{"type":"Feature","id":4487,"geometry":{"type":"LineString","coordinates":[[-43.375472101356252,-22.777074237311396],[-43.375523193640333,-22.777037544072577],[-43.376915292007027,-22.777409615186777],[-43.37999096441137,-22.778215204493243],[-43.380463492496062,-22.778349057787938],[-43.380614156817785,-22.77845652227581],[-43.381300817978229,-22.779542532786802],[-43.381608264709548,-22.779965690789126],[-43.38183687147432,-22.78029403416744],[-43.382121872026623,-22.780836898229392]]},"properties":{"objectid":4487,"nome":" ","geometriaa":"Não","tipoaltera":"Canal","operaciona":"Desconhecido","situacaofi":"Desconhecida","matconstr":" ","usoprincip":"Desconhecido","finalidade":"Desconhecida","codmun":"330510","municn":"São João de Meriti","reggov":"Região Metropolitana","rh":"RH-V","nome_rh":"Baia de Guanabara","id_rh":5,"Shape__Length":0.0081806273505177583}},{"type":"Feature","id":6301,"geometry":{"type":"LineString","coordinates":[[-43.370595509574976,-22.746617096327842],[-43.372021597818389,-22.745670327849243],[-43.372754714358457,-22.746021477135372],[-43.372853771983891,-22.746100876480185],[-43.372959492686334,-22.746242659097348],[-43.373161779892087,-22.746583749466371],[-43.373215305741667,-22.746643719857673],[-43.373306881007636,-22.7467383959861],[-43.373573261996341,-22.747036518546395],[-43.37379232965219,-22.747342196311173],[-43.374023633483773,-22.747634270930728],[-43.374261682230717,-22.747973647191909],[-43.374486484863269,-22.748288684201299],[-43.374563127786018,-22.748394677398288],[-43.374644166594912,-22.748515888023643],[-43.374733966599138,-22.748637367546291],[-43.374787711883293,-22.748711790042947],[-43.374855259062826,-22.748796557441],[-43.374875109798381,-22.748929336945199],[-43.374897580259017,-22.749301649976992],[-43.374902344867223,-22.749664480557147],[-43.374911643857153,-22.750000033800333],[-43.374939211675155,-22.750433136505855],[-43.375110945313736,-22.753119487899792],[-43.37512595320004,-22.753332505816246],[-43.373684554898141,-22.756453991484204],[-43.370263912449502,-22.763923597621446]]},"properties":{"objectid":6301,"nome":" ","geometriaa":"Não","tipoaltera":"Canal","operaciona":"Desconhecido","situacaofi":"Desconhecida","matconstr":" ","usoprincip":"Desconhecido","finalidade":"Desconhecida","codmun":"330045","municn":"Belford Roxo","reggov":"Região Metropolitana","rh":"RH-V","nome_rh":"Baia de Guanabara","id_rh":5,"Shape__Length":0.022213907694548448}},{"type":"Feature","id":6302,"geometry":{"type":"LineString","coordinates":[[-43.341672197413857,-22.743381707026138],[-43.341613319698808,-22.743451899111815],[-43.341591342966019,-22.74361097928923],[-43.341561737284223,-22.743877720006719],[-43.34146782827753,-22.744091413314052],[-43.341216106238221,-22.744408319114598],[-43.341188144517155,-22.744433947994249],[-43.34107868083634,-22.744605213985373],[-43.340953416966499,-22.744923793424274],[-43.340929324128865,-22.745120871756789],[-43.340787953401218,-22.745313841986142],[-43.340683758848286,-22.745443710384823],[-43.340673391463724,-22.745576539351735],[-43.340801383876617,-22.745798136800452],[-43.340829934653641,-22.745852800292397],[-43.340875787487505,-22.7459824204782],[-43.340971815296939,-22.746077341222215],[-43.341015863191387,-22.746162962076951],[-43.341182119958773,-22.74627188706382],[-43.341212380346974,-22.746281684278205],[-43.341300089427477,-22.746307520901283],[-43.341374957987796,-22.746364652132865],[-43.341422145415549,-22.746496724769958],[-43.341487982983885,-22.746640641478276],[-43.341563223863545,-22.746787906362677],[-43.341788575981866,-22.747083123213425],[-43.341846404188061,-22.747140348873863],[-43.341919126066671,-22.747214074395906],[-43.34207480680675,-22.747368406152916],[-43.342171900312849,-22.747480044394418],[-43.342278097655935,-22.747555382400872],[-43.342387103581871,-22.747656216187281],[-43.342420631207055,-22.747823007151954],[-43.342415389958155,-22.74784589130072],[-43.342389848312727,-22.747953366580454],[-43.342432951019767,-22.748036719344974],[-43.342554901787196,-22.748081514576118],[-43.342685506730625,-22.748095061963369],[-43.342719059536876,-22.748106428494705],[-43.342730196741059,-22.748119457872541],[-43.342804191160383,-22.748257317646924]]},"properties":{"objectid":6302,"nome":" ","geometriaa":"Não","tipoaltera":"Canal","operaciona":"Desconhecido","situacaofi":"Desconhecida","matconstr":" ","usoprincip":"Desconhecido","finalidade":"Desconhecida","codmun":"330045","municn":"Belford Roxo","reggov":"Região Metropolitana","rh":"RH-V","nome_rh":"Baia de Guanabara","id_rh":5,"Shape__Length":0.0061164997274000439}},{"type":"Feature","id":6369,"geometry":{"type":"LineString","coordinates":[[-43.368332102144677,-22.777741023454634],[-43.367545744840122,-22.77709565376658],[-43.367086172388845,-22.77664409157677],[-43.366444070837076,-22.775908076521723],[-43.366308013304028,-22.775851051410111],[-43.365764286792285,-22.775981491777618],[-43.365560956372917,-22.776020591602222],[-43.365278892107085,-22.77596514030423],[-43.364881491587425,-22.775674873321996],[-43.364675662851425,-22.775474169822331],[-43.36446671706522,-22.774489262894402],[-43.36439245914454,-22.774346080932148],[-43.36433439441663,-22.774274320428777],[-43.364195694675452,-22.774153236607837],[-43.363964278428568,-22.773794865765698],[-43.364031205975273,-22.773453006476309],[-43.36335222412572,-22.772887470505651],[-43.36285248255593,-22.77253367361542],[-43.362545007046322,-22.771831813013076],[-43.361767624076492,-22.770576936801515],[-43.36172289449587,-22.770440739873571],[-43.361722273963672,-22.770443713931598],[-43.36164129181202,-22.768783959337625],[-43.36159844900908,-22.768603980714506],[-43.361540423851352,-22.768056010302047],[-43.361541178382538,-22.76769089004793],[-43.361516202410712,-22.767327582827122],[-43.361414135653717,-22.766977483049843],[-43.361356371299401,-22.766611672116436],[-43.361347425742963,-22.766243472583604],[-43.361328495913256,-22.765871286356251],[-43.361340456896471,-22.765505649891306],[-43.36130825936857,-22.765143623305018],[-43.36125459592273,-22.7647851697253],[-43.361240324581217,-22.764414386440237],[-43.361180813743424,-22.76405632406556],[-43.361144535092073,-22.7636936238871],[-43.361134567905872,-22.763329386767314],[-43.361111611811346,-22.762968267596957],[-43.361095729783983,-22.762936405516236],[-43.361000987105733,-22.762903010990687],[-43.360677920049852,-22.762980883286652],[-43.360300646357643,-22.762884620754139],[-43.3599255310383,-22.762787114459265],[-43.359540283956846,-22.76272255752551],[-43.35915739579707,-22.762648089163495],[-43.358771601927742,-22.762596709995687],[-43.358384547208971,-22.762528699665303],[-43.357997500584077,-22.762460056212131],[-43.357603655084517,-22.762398114506922],[-43.357234453706944,-22.762278627881912],[-43.356846794643729,-22.762228759575109],[-43.356453877244519,-22.762162581163736],[-43.356049343302466,-22.762098810237422],[-43.355669774540331,-22.761999532278139],[-43.355276077428925,-22.761949779084599],[-43.354882637523588,-22.761837984361019],[-43.354498147671279,-22.761743259669231],[-43.354114958238597,-22.761678168538207],[-43.353719231357324,-22.761611051234588],[-43.353328827563246,-22.761603502325332],[-43.352943800815638,-22.761504974400562],[-43.352553204566618,-22.761432398212165],[-43.352170793946868,-22.761343198055677],[-43.351775900737096,-22.761271659684894],[-43.351385706485075,-22.761214436722423],[-43.35099986225373,-22.761135494233216],[-43.350605214558868,-22.761076147072067],[-43.350369554411316,-22.760995231470325],[-43.35025864731859,-22.761002665266361],[-43.349867022245178,-22.760926820941588],[-43.349478490839545,-22.760844775791345],[-43.349086431393573,-22.760756552298599],[-43.348710871809146,-22.760656758128476],[-43.348456877183033,-22.760648187589336]]},"properties":{"objectid":6369,"nome":" ","geometriaa":"Não","tipoaltera":"Canal","operaciona":"Desconhecido","situacaofi":"Desconhecida","matconstr":" ","usoprincip":"Desconhecido","finalidade":"Desconhecida","codmun":"330510","municn":"São João de Meriti","reggov":"Região Metropolitana","rh":"RH-V","nome_rh":"Baia de Guanabara","id_rh":5,"Shape__Length":0.031181380653988098}},{"type":"Feature","id":6413,"geometry":{"type":"LineString","coordinates":[[-43.326008557848532,-22.738043549896002],[-43.325760589579431,-22.738322177852321],[-43.32553401078588,-22.738619271588185],[-43.325267627099215,-22.738882894356163],[-43.325265144970324,-22.738886842379955],[-43.325024776871828,-22.73917277283125],[-43.324779052411202,-22.739458737456815],[-43.324531642621075,-22.739739084916881],[-43.324363488284234,-22.740067134216918],[-43.324344185235809,-22.740141075576197],[-43.324209841810614,-22.74063465678999],[-43.324104880135963,-22.741161959882575],[-43.324083040100106,-22.741300176687801],[-43.324061403311028,-22.74137382306948],[-43.32403108356754,-22.741512762929688],[-43.324018684614487,-22.741651259424099],[-43.324010059216732,-22.741775706709518],[-43.323983128118762,-22.742004088643789],[-43.323976251902366,-22.742072923652522],[-43.323962636166584,-22.742207342620752],[-43.323946651616552,-22.742344446065314],[-43.323866526518884,-22.742679198012571],[-43.323821291519266,-22.742875509223367],[-43.323797763455907,-22.743032311418041],[-43.323729273786846,-22.743482781830853],[-43.323682018010629,-22.743876579666349],[-43.323669580386699,-22.744002251828434],[-43.323664834664264,-22.744095943199177],[-43.323613347577805,-22.744421513068289],[-43.323506669097362,-22.744897501744269],[-43.323491092839568,-22.744961096403404],[-43.323450942606769,-22.745107609454568],[-43.323450909331882,-22.74524605468762],[-43.323484682471985,-22.745342860410613],[-43.32350049884883,-22.745379240685313],[-43.323480502423138,-22.745493995977061],[-43.323433075775711,-22.745678181628676],[-43.323407873174688,-22.745812570019979],[-43.323368301206017,-22.746023389094056],[-43.323334847325214,-22.746219552816026],[-43.323259047966587,-22.746781930367664],[-43.323144753127735,-22.747370997099708],[-43.323115592610414,-22.747534422801259],[-43.323061412953727,-22.747745360585768],[-43.32299085034736,-22.748038036851792],[-43.322947251214543,-22.748147937603076],[-43.322902682612614,-22.748241482384373],[-43.322760110390675,-22.748442730873155],[-43.322697826043736,-22.74855180424824],[-43.322589566555109,-22.748741943411815],[-43.322434311194399,-22.749016931811816],[-43.322232840573008,-22.74930498196516],[-43.322177854224492,-22.749406364338082],[-43.322101894786499,-22.749566679284666],[-43.321870738443693,-22.750011959709965],[-43.32186504663445,-22.750024590688138],[-43.321688909015847,-22.750358873189242],[-43.321489359346344,-22.750672679926055],[-43.321304180843129,-22.750997655343291],[-43.321117058005704,-22.751322249448052],[-43.320909205795083,-22.751637954653642],[-43.320758527983571,-22.751976025998538],[-43.32056651912945,-22.752293884181181],[-43.320362016893448,-22.752622087265298],[-43.320201198326515,-22.752953187965012],[-43.320031501652359,-22.753285639446428],[-43.319992982789813,-22.753362558461021]]},"properties":{"objectid":6413,"nome":" ","geometriaa":"Não","tipoaltera":"Canal","operaciona":"Desconhecido","situacaofi":"Desconhecida","matconstr":" ","usoprincip":"Desconhecido","finalidade":"Desconhecida","codmun":"330170","municn":"Duque de Caxias","reggov":"Região Metropolitana","rh":"RH-V","nome_rh":"Baia de Guanabara","id_rh":5,"Shape__Length":0.016861528562374422}},{"type":"Feature","id":9296,"geometry":{"type":"LineString","coordinates":[[-43.394427556386511,-22.815105911932584],[-43.39443298469439,-22.815103949611874]]},"properties":{"objectid":9296,"nome":" ","geometriaa":"Não","tipoaltera":"Canal","operaciona":"Desconhecido","situacaofi":"Desconhecida","matconstr":" ","usoprincip":"Desconhecido","finalidade":"Desconhecida","codmun":"330320","municn":"Nilópolis","reggov":"Região Metropolitana","rh":"RH-V","nome_rh":"Baia de Guanabara","id_rh":5,"Shape__Length":5.7721078368456771e-06}},{"type":"Feature","id":9297,"geometry":{"type":"LineString","coordinates":[[-43.394379076632958,-22.815123439719301],[-43.394427556386511,-22.815105911932584]]},"properties":{"objectid":9297,"nome":" ","geometriaa":"Não","tipoaltera":"Canal","operaciona":"Desconhecido","situacaofi":"Desconhecida","matconstr":" ","usoprincip":"Desconhecido","finalidade":"Desconhecida","codmun":"330455","municn":"Rio de Janeiro","reggov":"Região Metropolitana","rh":"RH-V","nome_rh":"Baia de Guanabara","id_rh":5,"Shape__Length":5.1551040813113768e-05}},{"type":"Feature","id":9613,"geometry":{"type":"LineString","coordinates":[[-43.342804191160383,-22.748257317646924],[-43.342841603856812,-22.748400757714684],[-43.342900026514883,-22.748537914219199],[-43.342999357534218,-22.748657883780162],[-43.343081988143126,-22.748765940021954],[-43.343161274173319,-22.748884888852398],[-43.34324882317452,-22.749053322878357],[-43.343324567674529,-22.749191471335177],[-43.34339561141821,-22.749315663213121],[-43.343508604938052,-22.749433155141837],[-43.343623736146412,-22.749559158254378],[-43.343875124537249,-22.749851934345134],[-43.343998936001981,-22.750009126845551],[-43.344056897307837,-22.750083121264861],[-43.344271951289393,-22.750341463213754],[-43.34446403298864,-22.750574271611161],[-43.344531920111876,-22.750671299466681],[-43.344572373416156,-22.750791530730361],[-43.344279564949829,-22.751034772162789],[-43.343990023720487,-22.751281569514632],[-43.343748272464666,-22.751570313944626],[-43.343681553560714,-22.751927162234495],[-43.34363136869257,-22.752285626606174],[-43.343609914465844,-22.752651703738909],[-43.343535616975025,-22.75300711850943],[-43.343494519756177,-22.753370914961486],[-43.343336400054682,-22.753708751583375],[-43.343316282220542,-22.753975948257121]]},"properties":{"objectid":9613,"nome":" ","geometriaa":"Não","tipoaltera":"Canal","operaciona":"Desconhecido","situacaofi":"Desconhecida","matconstr":" ","usoprincip":"Desconhecido","finalidade":"Desconhecida","codmun":"330045","municn":"Belford Roxo","reggov":"Região Metropolitana","rh":"RH-V","nome_rh":"Baia de Guanabara","id_rh":5,"Shape__Length":0.0067189800598502951}},{"type":"Feature","id":11586,"geometry":{"type":"LineString","coordinates":[[-43.31661653482513,-22.819645288523454],[-43.314758223413151,-22.819674269176378],[-43.312986181267156,-22.819705269706649],[-43.312195119608987,-22.819666072755268],[-43.311626879376888,-22.819565243465409]]},"properties":{"objectid":11586,"nome":"Rio Lucas","geometriaa":"Não","tipoaltera":"Canal","operaciona":"Desconhecido","situacaofi":"Desconhecida","matconstr":" ","usoprincip":"Desconhecido","finalidade":"Desconhecida","codmun":"330455","municn":"Rio de Janeiro","reggov":"Região Metropolitana","rh":"RH-V","nome_rh":"Baia de Guanabara","id_rh":5,"Shape__Length":0.0049999993767012941}},{"type":"Feature","id":11703,"geometry":{"type":"LineString","coordinates":[[-43.337977365163169,-22.748707841119838],[-43.337840810305003,-22.749081570583829],[-43.337676535643482,-22.749468646886388],[-43.337496571409524,-22.749808508781467],[-43.337406650896128,-22.750010291467603],[-43.337307058174069,-22.750189091079488],[-43.337134288516495,-22.750513583560835],[-43.336966826657608,-22.75084192424119],[-43.336759865675162,-22.751151340487763],[-43.336572771615977,-22.751468458528347],[-43.336406678525293,-22.751796089643619],[-43.33623960067689,-22.75212461468498],[-43.336052535396057,-22.752447241073057],[-43.335884414334146,-22.752773315461905],[-43.335703218028982,-22.753093474110276],[-43.335679507403199,-22.753138902464137]]},"properties":{"objectid":11703,"nome":" ","geometriaa":"Não","tipoaltera":"Canal","operaciona":"Desconhecido","situacaofi":"Desconhecida","matconstr":" ","usoprincip":"Desconhecido","finalidade":"Desconhecida","codmun":"330045","municn":"Belford Roxo","reggov":"Região Metropolitana","rh":"RH-V","nome_rh":"Baia de Guanabara","id_rh":5,"Shape__Length":0.0049999997695543957}},{"type":"Feature","id":11704,"geometry":{"type":"LineString","coordinates":[[-43.335679507403199,-22.753138902464137],[-43.335528066966617,-22.753429048037855],[-43.335363044968403,-22.753756328417545],[-43.335189362498966,-22.754083067405368],[-43.33502995586764,-22.75441284430303],[-43.334826355651678,-22.754725271479789],[-43.334643845436972,-22.755057064657521],[-43.334475887152337,-22.755393254620714],[-43.334294232192917,-22.755726591035017],[-43.334096075573314,-22.756039526328742],[-43.333877808314071,-22.756509119925639],[-43.333726352588997,-22.756776858890593]]},"properties":{"objectid":11704,"nome":" ","geometriaa":"Não","tipoaltera":"Canal","operaciona":"Desconhecido","situacaofi":"Desconhecida","matconstr":" ","usoprincip":"Desconhecido","finalidade":"Desconhecida","codmun":"330045","municn":"Belford Roxo","reggov":"Região Metropolitana","rh":"RH-V","nome_rh":"Baia de Guanabara","id_rh":5,"Shape__Length":0.0041330040057579471}}]}