{"type":"FeatureCollection","features":[{"type":"Feature","id":253,"geometry":{"type":"Polygon","coordinates":[[[-43.429388778269413,-22.818772301324941],[-43.429887968554794,-22.818401467677862],[-43.43029901718586,-22.818077117289484],[-43.43068551612356,-22.817763038058118],[-43.431243408756188,-22.817334817771979],[-43.431556907924858,-22.81714483868771],[-43.431971859613611,-22.816789593888963],[-43.432914925583297,-22.816039716683964],[-43.433742915203247,-22.815460149490615],[-43.434331793977094,-22.815020872939293],[-43.434750850171554,-22.814661073973781],[-43.435331525329559,-22.814240640017861],[-43.437235542985889,-22.812732929305721],[-43.438882831177693,-22.811432564485745],[-43.439289042355377,-22.811860763188154],[-43.439547893320601,-22.812133626490063],[-43.439612845956049,-22.812202095474767],[-43.438832023079271,-22.812808257419615],[-43.435266021409745,-22.815553151980744],[-43.43314377066838,-22.81715724213737],[-43.430457326644273,-22.819290157039326],[-43.430459892409999,-22.819237588967809],[-43.429727295678106,-22.823173762383309],[-43.429713012645379,-22.823244196386728],[-43.425560656598925,-22.826580991443723],[-43.423290418817601,-22.830192095912494],[-43.42127717759962,-22.831388685263548],[-43.420912351423844,-22.830332688726529],[-43.420761973985854,-22.829706218291367],[-43.419489973783186,-22.82812805199206],[-43.421699956087991,-22.825133071258399],[-43.422174638049,-22.824441123882846],[-43.422958516822007,-22.823336799577817],[-43.423661041124042,-22.822289271057198],[-43.424189434194943,-22.821503079227945],[-43.424685083849511,-22.821026137270675],[-43.425137405067119,-22.820902370772046],[-43.426638743183389,-22.820380580523612],[-43.427536682971493,-22.820073938685557],[-43.427964798036946,-22.819901260758872],[-43.428669742414577,-22.819346252251961],[-43.429388778269413,-22.818772301324941]]]},"properties":{"objectid":253,"tipo":"PI","nome":"PARQUE NATURAL MUNICIPAL DO GERICINO","criacao":"2009","jurisdicao":"MUNICIPAL","rotulo":"PNM DO GERICINO","area_ha":77.061317000000003,"municipio":"NILOPOLIS","categoria":"PARQUE","gi_2024":4,"ato":"LEI N. 6.262 DE 20/08/2009","gi_2023":4,"priori":9,"ordem":30,"cd_cnuc":"Não consta no cnuc","nomeoficia":"Parque Natural Municipal do Gericinó","Shape__Area":6.77862510671732e-05,"Shape__Length":0.058595233177633821}},{"type":"Feature","id":177,"geometry":{"type":"Polygon","coordinates":[[[-43.35968699126159,-22.741440193935897],[-43.359824844740672,-22.741202514810329],[-43.359867627289141,-22.741397412286823],[-43.35993388663951,-22.741551014693599],[-43.359972205852557,-22.741639845228701],[-43.360034002766952,-22.741796713073885],[-43.360062523866304,-22.742100942930207],[-43.360043509500315,-22.742219782043371],[-43.363000701620933,-22.744272621310472],[-43.363404756224497,-22.744258360760689],[-43.363647189166386,-22.744253606944422],[-43.364141561783526,-22.744248854027433],[-43.364412516724144,-22.744291635676404],[-43.364830831877327,-22.744400968056251],[-43.36486410679305,-22.744396215139268],[-43.364925903707388,-22.74434867877455],[-43.365120800284672,-22.743854306157296],[-43.365121605177876,-22.74385226379691],[-43.365463058873054,-22.743944624171096],[-43.365854174030858,-22.744124800645018],[-43.365799658927024,-22.744345457402854],[-43.365723808306946,-22.744579509562641],[-43.365729122400978,-22.744584195030541],[-43.366233726605174,-22.745029113928457],[-43.366949937689405,-22.745696492724928],[-43.367093539635107,-22.745827041910406],[-43.367459564607152,-22.746159794664749],[-43.367816083745261,-22.746521067619145],[-43.367832894772221,-22.746531154415166],[-43.367839851028236,-22.746535328168758],[-43.368828597162008,-22.746763499661764],[-43.369050759384947,-22.746768226498435],[-43.369052015737907,-22.746768253478017],[-43.369052989703619,-22.746769050277354],[-43.371219246970611,-22.748542139234214],[-43.371439660911562,-22.748585100747743],[-43.37163963865828,-22.748617655306383],[-43.371689801043374,-22.748625478508885],[-43.372073727920167,-22.748685357169407],[-43.372146558616748,-22.748696716506185],[-43.372476754598495,-22.748771126412247],[-43.373132495268351,-22.748901344647276],[-43.373222150481752,-22.748919148525722],[-43.373207591357186,-22.748950036640803],[-43.372967149514295,-22.749494677763035],[-43.372803926160195,-22.749902736148258],[-43.372773126178686,-22.74999999872686],[-43.372759209170056,-22.750084959479167],[-43.372686294836569,-22.750402147666797],[-43.372122351565103,-22.750692321119601],[-43.372102875847013,-22.750695447163064],[-43.371613951322679,-22.750992272900948],[-43.371592999816983,-22.751013151561576],[-43.371543354542155,-22.751050169455617],[-43.371425204309617,-22.751136284937463],[-43.371425166538131,-22.75113626964891],[-43.368958211052473,-22.750043623040625],[-43.368839865667155,-22.750141433306379],[-43.368640214374352,-22.750250765686165],[-43.368354999783371,-22.750436155529968],[-43.368195897122916,-22.750506533775344],[-43.367904661570776,-22.750697844755532],[-43.367530307077971,-22.750950398667804],[-43.367313964367895,-22.751006585611279],[-43.367028749776921,-22.751025599977268],[-43.36674353428657,-22.75105887489304],[-43.366581912625122,-22.751049368159688],[-43.36634898641649,-22.750963803962193],[-43.365968699995449,-22.750806935217753],[-43.365683484505041,-22.750659574105867],[-43.36551710902728,-22.750559748459487],[-43.365396532423915,-22.750504867331674],[-43.365160420816665,-22.750206840998807],[-43.364953375298008,-22.750011055891306],[-43.364714482986983,-22.749780907688599],[-43.364498194236148,-22.749513497875455],[-43.364352213583629,-22.749314693744001],[-43.364335536555693,-22.749400461188262],[-43.364323206850422,-22.749463871486387],[-43.364277624712543,-22.74958818657149],[-43.364298344193173,-22.749733221137081],[-43.364327351825807,-22.749990139459253],[-43.36433235475431,-22.74999999962607],[-43.364447552512445,-22.750226997503812],[-43.364571146341234,-22.750379112432004],[-43.364737521818995,-22.750569256092177],[-43.364783735281087,-22.75061954797965],[-43.364552131975252,-22.750640559739889],[-43.364205119570556,-22.750683342288234],[-43.364000715360646,-22.750745138303294],[-43.363856566627184,-22.750776780949561],[-43.363805818783469,-22.750787920851756],[-43.363615674223922,-22.750863978315778],[-43.363435039095691,-22.750873485049144],[-43.363345486405024,-22.750877115612202],[-43.363083273773952,-22.750887746498133],[-43.362617422256164,-22.751058874893051],[-43.362500650684467,-22.751098494525777],[-43.362085020906932,-22.751239511819808],[-43.361338707715163,-22.75149620531143],[-43.360882363829887,-22.751648365205778],[-43.360787238040594,-22.751700636500974],[-43.360774230246477,-22.751838039419788],[-43.360565001173818,-22.751492147570342],[-43.359987917908029,-22.751795195717541],[-43.359900752917326,-22.751626776080634],[-43.359793198497186,-22.751418958943656],[-43.359403404443526,-22.750781979030904],[-43.358984090143622,-22.750124110565121],[-43.358904983078382,-22.749999998726864],[-43.358375997354358,-22.749192010029162],[-43.358059754354137,-22.748685090070705],[-43.357748160848928,-22.748359544483357],[-43.357338904566632,-22.748001445236387],[-43.357249039811279,-22.747918427019755],[-43.357298058258607,-22.747854002286296],[-43.357419741927508,-22.747694075846809],[-43.357478695185534,-22.747641913369577],[-43.357537694309087,-22.747541644357327],[-43.357538114292474,-22.747434604349387],[-43.357459680819545,-22.747316874100342],[-43.357198233511554,-22.747029809603927],[-43.357108944322249,-22.746933508400677],[-43.357112668414857,-22.746893778151332],[-43.357126929863853,-22.746741663223137],[-43.357122176047483,-22.746532875717559],[-43.357062756940593,-22.746364677313991],[-43.356903511287953,-22.746082023992209],[-43.356725251269204,-22.745820946305592],[-43.356506586509745,-22.745487825728535],[-43.356323665304728,-22.745165027569943],[-43.356280791025654,-22.745073154628336],[-43.356233255560262,-22.744921040599582],[-43.356236350127404,-22.744809776476007],[-43.356255364493393,-22.744633894264776],[-43.356269624143749,-22.744567343534008],[-43.356301381903215,-22.744527796746468],[-43.356521564718378,-22.744253606944429],[-43.356692694012565,-22.744025435451537],[-43.356925620221148,-22.743787755426535],[-43.357120516798318,-22.743602366482051],[-43.357296399908876,-22.743455004470853],[-43.357443761020704,-22.743317150991778],[-43.357591122132476,-22.743165036063619],[-43.35768144014628,-22.743060457500157],[-43.357786017810383,-22.742927356938004],[-43.357794971460748,-22.742916068647705],[-43.357895351089553,-22.742789503458798],[-43.358009437285652,-22.742670663446393],[-43.358228102045189,-22.742418723771145],[-43.358346942057608,-22.742261855026573],[-43.358522824268903,-22.742052697000474],[-43.358665431564354,-22.741886321522546],[-43.358774764843417,-22.741776989142814],[-43.358860329040851,-22.741715193127746],[-43.358922125955296,-22.741677164395639],[-43.359064733250769,-22.741615368380511],[-43.359164557997815,-22.74158209256559],[-43.359383222757451,-22.741501281285206],[-43.35968699126159,-22.741440193935897]]]},"properties":{"objectid":177,"tipo":"US","nome":"AREA DE PROTECAO AMBIENTAL PICO DA BANDEIRA MIRANTE BELFORD ROXO","criacao":"2011","jurisdicao":"MUNICIPAL","rotulo":"APA PICO DA BANDEIRA MIRANTE BELFORD ROXO","area_ha":102.05778599999999,"municipio":"BELFORD ROXO","categoria":"APA","gi_2024":1,"ato":"DECRETO N. 3164 DE 19 DE OUTUBRO DE 2011","gi_2023":1,"priori":1,"ordem":586,"cd_cnuc":"Não consta no cnuc","nomeoficia":"Área de Proteção Ambiental Pico da Bandeira - Mirande Belford Roxo","Shape__Area":8.9725762941222391e-05,"Shape__Length":0.049142240484962366}},{"type":"Feature","id":176,"geometry":{"type":"Polygon","coordinates":[[[-43.379225812221421,-22.743643034724258],[-43.379267795272483,-22.743550151844069],[-43.379548258745103,-22.743700688462035],[-43.379619285401589,-22.743740751460464],[-43.380063896731372,-22.743991532808941],[-43.380076190463804,-22.743998179698298],[-43.380369713891064,-22.744156890254203],[-43.380450283253879,-22.7442004543135],[-43.380819916306052,-22.74441080574007],[-43.380916631197522,-22.744465844249309],[-43.381071766048983,-22.744553575812915],[-43.381157434567903,-22.744600875655802],[-43.38116167487135,-22.744603216591141],[-43.381423911784054,-22.744748002943926],[-43.381500434197619,-22.744786853656407],[-43.38176301375205,-22.744920166458481],[-43.381901781841698,-22.74499760618049],[-43.381906511376307,-22.745000245690768],[-43.382147319243302,-22.745134629585479],[-43.382610990804551,-22.745368503679501],[-43.38281469983837,-22.74549727220737],[-43.382936323252629,-22.745569916744191],[-43.383007694349487,-22.745612544609259],[-43.383105418280316,-22.745689716333324],[-43.383011386066585,-22.745888229983812],[-43.382937574209571,-22.74602151670554],[-43.3828600562465,-22.74619836838594],[-43.382818143342604,-22.746367747599454],[-43.382790095286616,-22.74649729853741],[-43.382785881063462,-22.746542886970541],[-43.382745779394156,-22.746639104537],[-43.382666934931024,-22.746885284953919],[-43.3825439148697,-22.74721562392784],[-43.382458034110925,-22.747420477798688],[-43.382425289795215,-22.747522958243898],[-43.382347430089794,-22.747773561526547],[-43.382265612467954,-22.747958014276868],[-43.382206037778246,-22.748094355995679],[-43.382204652822445,-22.748098040518109],[-43.382177771187109,-22.748169590580087],[-43.382113529915443,-22.748340570586684],[-43.38205149018404,-22.748491631509545],[-43.382030526087817,-22.748543595236654],[-43.381968013313042,-22.748698553821107],[-43.381948574467117,-22.748751797283564],[-43.381913289566633,-22.748848446524516],[-43.381860502959796,-22.74898790079682],[-43.381830818137644,-22.749135885138916],[-43.381815819244594,-22.74929663086073],[-43.381815749097491,-22.749302667110335],[-43.381662074744774,-22.749405601713086],[-43.381548722395564,-22.749334059744971],[-43.381362592409687,-22.74923107657877],[-43.381354263788118,-22.749222905338744],[-43.381236428318395,-22.749107297489687],[-43.381109749814982,-22.749013782386054],[-43.380990296464923,-22.74892282855161],[-43.380960298678815,-22.748889759580678],[-43.380902560404813,-22.748826105566263],[-43.380778221937305,-22.748678277706187],[-43.380720602373856,-22.748608474127725],[-43.38062794252545,-22.748512418439262],[-43.380528891195297,-22.7484253541726],[-43.380412348051379,-22.748343678643799],[-43.38028247515598,-22.748250640180828],[-43.379948270895959,-22.748000049488525],[-43.37980704316044,-22.747883796825569],[-43.379460487611368,-22.747603824382821],[-43.379258382068656,-22.747449674288973],[-43.379034080358402,-22.747275749002537],[-43.378817127008745,-22.747104244691116],[-43.378617562950119,-22.746952437331057],[-43.378338979060572,-22.74673375638362],[-43.378323339850176,-22.74672268662864],[-43.378184416177824,-22.746624349360161],[-43.378151481205805,-22.746601037134059],[-43.377961386109064,-22.746414164308138],[-43.377902676567203,-22.746362560309898],[-43.378012515265247,-22.746166941577048],[-43.378128158187906,-22.745957574908072],[-43.378145316353084,-22.745915462354638],[-43.378166527763028,-22.745863403299346],[-43.378313936538916,-22.745544520789025],[-43.378451620945441,-22.745256340233855],[-43.378567056124723,-22.745010234460761],[-43.378638993794482,-22.744846311434166],[-43.37883220054556,-22.74444557173177],[-43.378969290500322,-22.744185194617053],[-43.379051144094944,-22.744011995982881],[-43.379117119259604,-22.743855827810261],[-43.379225812221421,-22.743643034724258]]]},"properties":{"objectid":176,"tipo":"US","nome":"ÁREA DE PROTEÇÃO AMBIENTAL DO LAGO DO BARRO VERMELHO","criacao":"2011","jurisdicao":"MUNICIPAL","rotulo":"APA DO LAGO DO BARRO VERMELHO","area_ha":18.374009439999998,"municipio":"BELFORD ROXO","categoria":"APA","gi_2024":1,"ato":"DECRETO N. 3164 DE 19 DE OUTUBRO DE 2011","gi_2023":1,"priori":1,"ordem":567,"cd_cnuc":"0456.33.5164","nomeoficia":"Área de Proteção Ambiental Lago do Barro Vermelho","Shape__Area":1.6153686734865926e-05,"Shape__Length":0.016414767456837839}},{"type":"Feature","id":178,"geometry":{"type":"Polygon","coordinates":[[[-43.347786591777663,-22.74987911365605],[-43.347851459876949,-22.749871004469117],[-43.347975098671775,-22.749879066891292],[-43.348042076580498,-22.749883436697065],[-43.348129096780269,-22.749904155278433],[-43.348269987270037,-22.749916586607004],[-43.348326874785357,-22.749924125623799],[-43.348475184682002,-22.749943780307078],[-43.348676083334453,-22.749972528035631],[-43.34873824177641,-22.749982888225578],[-43.348846526445975,-22.750000000525496],[-43.348917557599123,-22.750014929271398],[-43.348983345704823,-22.750028756347877],[-43.349204210206096,-22.75008397202355],[-43.349211518097029,-22.750085799445959],[-43.349412885296381,-22.750154760359781],[-43.349558529602405,-22.750204638559058],[-43.350083707596923,-22.750397808438017],[-43.35005555611901,-22.750455553906562],[-43.348047223400613,-22.754574999262609],[-43.347358333720024,-22.754052777339556],[-43.346744444800258,-22.755227777565636],[-43.342994445437228,-22.754605555527679],[-43.342499999974962,-22.756499999900832],[-43.347358333720024,-22.757519444392582],[-43.34684396917379,-22.759581260692233],[-43.344305784684188,-22.759064621760569],[-43.342450979728888,-22.758738916993035],[-43.340605186879827,-22.758351989078697],[-43.338743726941345,-22.75806190735679],[-43.338708734320569,-22.758056454767292],[-43.33862486174786,-22.758041220251776],[-43.338608887090345,-22.758038319038882],[-43.338984179576123,-22.757356406298857],[-43.339530841475096,-22.756919077679012],[-43.340429268695623,-22.756225053768908],[-43.340550258087887,-22.756120439232593],[-43.341061496590719,-22.755678392769283],[-43.341850592330957,-22.754998629408909],[-43.34226703959218,-22.754617176567187],[-43.342416266797215,-22.754480489508808],[-43.3427775406509,-22.754157244387102],[-43.342853599014354,-22.753900549996054],[-43.342839296196466,-22.753604966221996],[-43.342998952839309,-22.752976349105069],[-43.343037139852079,-22.752622883165358],[-43.343123026006708,-22.752266214739784],[-43.343167333805297,-22.751978809400384],[-43.34320926109848,-22.751722267894195],[-43.343312318908318,-22.751644974761579],[-43.343540491300587,-22.751440570551672],[-43.344001589002062,-22.751103064880354],[-43.344634188317116,-22.750667085243627],[-43.344705118746106,-22.750618199895847],[-43.344966221613781,-22.750438804033454],[-43.345403897371909,-22.750138090526363],[-43.345613053599436,-22.750371014036975],[-43.345812704892353,-22.750523128965114],[-43.34600284675389,-22.75062295461143],[-43.346292816959881,-22.75072753317502],[-43.346663595748282,-22.750846372288116],[-43.346834725042477,-22.75085587902149],[-43.346906028690171,-22.750846372288116],[-43.347020113987014,-22.750732286092024],[-43.347300576560258,-22.750371014036986],[-43.347564616613738,-22.74999999962607],[-43.347567756146987,-22.74999558845154],[-43.347573823872779,-22.749991175478257],[-43.347664988148665,-22.74992487296036],[-43.347669132224496,-22.749920730683005],[-43.347689849906537,-22.749912442531045],[-43.347718855740538,-22.749900011202367],[-43.347785159157695,-22.74987929172185],[-43.347786591777663,-22.74987911365605]]]},"properties":{"objectid":178,"tipo":"US","nome":"AREA DE PROTECAO AMBIENTAL SARAPUI","criacao":"2010","jurisdicao":"MUNICIPAL","rotulo":"APA SARAPUI","area_ha":51.39929411,"municipio":"BELFORD ROXO","categoria":"APA","gi_2024":0,"ato":"DECRETO N. 2789 DE 9 DE FEVEREIRO DE 2010","gi_2023":0,"priori":1,"ordem":653,"cd_cnuc":"Não consta no cnuc","nomeoficia":"Área de Proteção Ambiental Sarapuí","Shape__Area":4.5190844223909448e-05,"Shape__Length":0.044424226026754408}},{"type":"Feature","id":180,"geometry":{"type":"Polygon","coordinates":[[[-43.335395925981175,-22.742759449914722],[-43.335383499149088,-22.742676604367752],[-43.335632036689056,-22.74283401000757],[-43.335909570170493,-22.743041125673344],[-43.336174676819837,-22.743244098162656],[-43.336269949198716,-22.743322801432132],[-43.336373507031674,-22.743393220147055],[-43.336547482680146,-22.74349677708058],[-43.336729743782541,-22.743608619468279],[-43.336827113380529,-22.743641808048963],[-43.33687472259026,-22.743737029166613],[-43.336897205641492,-22.743785013393698],[-43.338986112219175,-22.74390000071044],[-43.339172222420018,-22.74383333216856],[-43.340750918420099,-22.743267816882302],[-43.340882390310014,-22.7434242872271],[-43.340944403061705,-22.743497926414218],[-43.341032489857469,-22.743416128577525],[-43.341052777663378,-22.743436111513368],[-43.341422221858011,-22.743799999696204],[-43.342747221806754,-22.743063890212373],[-43.342958957289966,-22.743441211568694],[-43.343258109574045,-22.743334341532623],[-43.343713713317129,-22.743130127979022],[-43.344160548670281,-22.742963753400577],[-43.3441945088694,-22.742951108033228],[-43.344323865553861,-22.743174543696256],[-43.344637602143557,-22.743664163396392],[-43.344679267733909,-22.743741937666268],[-43.34465661561029,-22.743759234327186],[-43.344323865553854,-22.743897088705651],[-43.34402439041326,-22.744030189267789],[-43.343705900007251,-22.744158536013636],[-43.343377901968545,-22.744301143309155],[-43.343221035022616,-22.744400968955517],[-43.34316470238906,-22.744481945711243],[-43.343163991025278,-22.744481779336692],[-43.343021383729827,-22.744448504420983],[-43.342912051350027,-22.744343926756759],[-43.342826486253166,-22.744267868393433],[-43.342707647140116,-22.744239346394707],[-43.34259831476033,-22.744282128943052],[-43.342360634735421,-22.744438997687613],[-43.34209443540982,-22.744600619349107],[-43.34165709599813,-22.744845406716184],[-43.341555712725835,-22.744927111922596],[-43.34096308018195,-22.745247106894428],[-43.340923134994519,-22.745269810279396],[-43.340630330125521,-22.744747980460939],[-43.340468707564753,-22.744619633715157],[-43.340466714667116,-22.744618049109643],[-43.340399812301428,-22.74473946388115],[-43.34024240576224,-22.74485544854609],[-43.339982719326933,-22.74499798299648],[-43.339898434864779,-22.745046392602941],[-43.339632886648303,-22.745184422349134],[-43.339559591901605,-22.745217949974435],[-43.339393236208828,-22.745248966692351],[-43.33914884094623,-22.74528624718856],[-43.339028714903243,-22.745282104011817],[-43.338908587960866,-22.745277962633885],[-43.338801935560817,-22.745263238034042],[-43.338718043203016,-22.745228254406349],[-43.338484920042958,-22.745126907107064],[-43.338414912318278,-22.745097875192787],[-43.338113268012819,-22.744946578647724],[-43.337765315816625,-22.744809883495336],[-43.337462927771867,-22.744689756553029],[-43.337365585153577,-22.744600697590155],[-43.337483030317571,-22.744831467224394],[-43.337582286693141,-22.74517964874779],[-43.337770503106064,-22.745870038497415],[-43.337801401113666,-22.745992918264527],[-43.337905980576465,-22.74626714763669],[-43.337963023674547,-22.746324191634145],[-43.338006258581913,-22.746367425642127],[-43.337996298590269,-22.746366973283163],[-43.337544706722781,-22.746385988548536],[-43.337088363736882,-22.746385987649152],[-43.336855439326996,-22.746290914919786],[-43.336813095647756,-22.746273633547339],[-43.336791877942744,-22.746209977734186],[-43.336655182790423,-22.745953155639569],[-43.336539198125422,-22.745704617200342],[-43.33642321615838,-22.745381519567424],[-43.336319657426209,-22.745074990144698],[-43.336170534542475,-22.744640049224802],[-43.336129851011776,-22.744545970246349],[-43.336104258104967,-22.744486784963165],[-43.335971704330639,-22.744064271774743],[-43.335810154614883,-22.743679038182975],[-43.335633141056576,-22.743255028522789],[-43.335632036689056,-22.743252383616635],[-43.335445632409915,-22.742900287344337],[-43.335423633194068,-22.742837953534764],[-43.335395925981175,-22.742759449914722]]]},"properties":{"objectid":180,"tipo":"US","nome":"AREA DE PROTECAO AMBIENTAL ENGENHO DE CALUNDU","criacao":"2010","jurisdicao":"MUNICIPAL","rotulo":"APA ENGENHO DE CALUNDU","area_ha":14.30425234,"municipio":"BELFORD ROXO","categoria":"APA","gi_2024":0,"ato":"DECRETO N. 2789 dDE 9 DE FEVEREIRO DE 2010","gi_2023":0,"priori":1,"ordem":650,"cd_cnuc":"Não consta no cnuc","nomeoficia":"Área de Proteção Ambiental Engenho do Calundu","Shape__Area":1.2575551233442254e-05,"Shape__Length":0.026607626332210713}},{"type":"Feature","id":312,"geometry":{"type":"Polygon","coordinates":[[[-43.338639172659668,-22.768761368367851],[-43.338838471418178,-22.768527483482004],[-43.339015770061678,-22.768248567742674],[-43.339139661566094,-22.768124409139563],[-43.339247198898988,-22.768020988902908],[-43.339366604585045,-22.768001323427796],[-43.339472914343389,-22.767999442945293],[-43.339782546427273,-22.76822966309393],[-43.33995496534925,-22.768353917924419],[-43.340191359343684,-22.768514678035356],[-43.340562361163961,-22.768730600762073],[-43.340809464285314,-22.768804854186101],[-43.341100600012567,-22.768700354762991],[-43.341159766410051,-22.768868232108623],[-43.341136943415165,-22.769157717580072],[-43.341100551449188,-22.769503810877595],[-43.341131607737395,-22.769865541586888],[-43.341143234172876,-22.770236029894214],[-43.341071779438998,-22.770551891581952],[-43.34080887343071,-22.770985236205046],[-43.340603673320693,-22.771174260209317],[-43.340337970420933,-22.771305904769015],[-43.340072948307863,-22.771532962001857],[-43.339817582215581,-22.771731378525594],[-43.339598753779391,-22.771896662226538],[-43.33918342077817,-22.771875583916415],[-43.338965605877945,-22.771957097567274],[-43.338728912409344,-22.772105438940219],[-43.33834541271051,-22.772239262557306],[-43.338037285192513,-22.771512046469184],[-43.337770500408226,-22.771201026731376],[-43.338383087109669,-22.770404546657943],[-43.338406232061857,-22.77017768817522],[-43.338448855430279,-22.769849581318493],[-43.338535441257534,-22.769614521918115],[-43.338936394998598,-22.769218460488958],[-43.338492157786789,-22.768933074127528],[-43.338639172659668,-22.768761368367851]]]},"properties":{"objectid":312,"tipo":"US","nome":"AREA DE PROTECAO AMBIENTAL LIMOEIRO","criacao":"2010","jurisdicao":"MUNICIPAL","rotulo":"APA LIMOEIRO","area_ha":10.05560889,"municipio":"SAO JOAO DE MERITI","categoria":"APA","gi_2024":1,"ato":"DECRETO N. 4.969 DE 20/04/2010","gi_2023":1,"priori":1,"ordem":560,"cd_cnuc":"Não consta no cnuc","nomeoficia":"Área de Proteção Ambiental Limoeiro","Shape__Area":8.8419929479033117e-06,"Shape__Length":0.012638876771837235}},{"type":"Feature","id":198,"geometry":{"type":"Polygon","coordinates":[[[-43.404426230586012,-22.768115028311357],[-43.404369046294391,-22.768164273388003],[-43.404302787843328,-22.768218891014406],[-43.404233342194971,-22.768277786715963],[-43.404169346438096,-22.768332594099387],[-43.404116337698667,-22.768377150110737],[-43.404038621884872,-22.768444455372791],[-43.403954749312163,-22.768516726690979],[-43.403890725676433,-22.768569416171044],[-43.403851801219616,-22.768600977878254],[-43.403801584875225,-22.768644085081934],[-43.403745828706917,-22.768686550169615],[-43.403682530824085,-22.768743716474738],[-43.40363537217462,-22.768702875562681],[-43.40357782275828,-22.768653018047832],[-43.403524295110117,-22.768605047310434],[-43.403469463444928,-22.768552109617602],[-43.403402690581686,-22.7684885725151],[-43.403363547589542,-22.768449836915931],[-43.403324687883988,-22.768413599633405],[-43.403372006612763,-22.768369183916167],[-43.403430780006431,-22.768313670564932],[-43.403508155876523,-22.768241398347318],[-43.403563554114662,-22.76818804606696],[-43.403627139780497,-22.768126780651887],[-43.403699801404684,-22.768062733633734],[-43.403771332580845,-22.767994131549329],[-43.403827184976535,-22.767943528496485],[-43.403902586834825,-22.767871671765612],[-43.403944096842508,-22.767834956043853],[-43.403982847730163,-22.767796327463973],[-43.404054594743627,-22.767732850616003],[-43.40411909771808,-22.767795938956883],[-43.404177227197188,-22.767860620896407],[-43.404230039884396,-22.767913027090028],[-43.404274711908322,-22.76796375245064],[-43.404329560660642,-22.768018871898867],[-43.404376437822229,-22.768069411999214],[-43.404426230586012,-22.768115028311357]]]},"properties":{"objectid":198,"tipo":"US","nome":"AREA DE PROTECAO AMBIENTAL DO RIO DA PRATA","criacao":"2019","jurisdicao":"MUNICIPAL","rotulo":"APA DO RIO DA PRATA","area_ha":0.57290161000000006,"municipio":"BELFORD ROXO","categoria":"APA","gi_2024":1,"ato":"LEI N. 1603 DE 19 DE DEZEMBRO DE 2019","gi_2023":1,"priori":1,"ordem":550,"cd_cnuc":"Não consta no cnuc","nomeoficia":"Área de Proteção Ambiental do Rio da Prata","Shape__Area":5.0375088492698764e-07,"Shape__Length":0.0029926663150214544}},{"type":"Feature","id":314,"geometry":{"type":"Polygon","coordinates":[[[-43.341657056427891,-22.784079622401688],[-43.342111362449316,-22.783860698637461],[-43.342226131230916,-22.783792131626686],[-43.342347813101014,-22.783783742750529],[-43.342475543811183,-22.783844629551087],[-43.343017772052519,-22.784169500647057],[-43.343379927241813,-22.783848415696923],[-43.343697205361707,-22.783841051148713],[-43.344010253070685,-22.783951826940381],[-43.34426704908492,-22.784026176591798],[-43.344482877382745,-22.784078595375945],[-43.344665182552099,-22.784133055621052],[-43.344852612058332,-22.784189958424975],[-43.345037061211372,-22.784280282733949],[-43.345196652203697,-22.784391452428672],[-43.34528219661604,-22.784466814716772],[-43.34532716271832,-22.784584365101388],[-43.345305108643799,-22.784703608909506],[-43.345238992285601,-22.784843902249271],[-43.345160742274345,-22.784921942718565],[-43.345005048943726,-22.785011126687188],[-43.344741051158501,-22.785106355898645],[-43.344570099930138,-22.785178655095962],[-43.344428722907196,-22.785222892747278],[-43.344321152299301,-22.785265453163184],[-43.34421786426293,-22.785308058545152],[-43.344087050676819,-22.785419733658753],[-43.344070079570372,-22.785489176609268],[-43.344073115681624,-22.785592445759804],[-43.344080624121489,-22.785679879647738],[-43.34418863899441,-22.785723423921883],[-43.34431001959166,-22.785781282705063],[-43.344446162560196,-22.785806001470878],[-43.3446010599909,-22.785764326887268],[-43.344774228947465,-22.785696209537452],[-43.344911455599124,-22.785631046460662],[-43.345045174894835,-22.785559189729856],[-43.345146502409136,-22.785493654333742],[-43.345261223526613,-22.785508161297653],[-43.345303020417987,-22.785615134755648],[-43.345327147429884,-22.785698617022618],[-43.3453473605922,-22.785808694041016],[-43.345320865665315,-22.785921615615059],[-43.34534834085315,-22.786025109596213],[-43.345429869792547,-22.786112517403751],[-43.345522932537278,-22.7861367883072],[-43.345637695023527,-22.786147966880101],[-43.345676704915945,-22.786188323057679],[-43.345639237360899,-22.786317777768208],[-43.345507542439009,-22.786519500199855],[-43.345427074699614,-22.786641850266101],[-43.345390127852056,-22.786728029599878],[-43.345416148836023,-22.78678965114652],[-43.345468278038474,-22.786836560683753],[-43.345555509579064,-22.786789581898621],[-43.345607931061124,-22.78685158925451],[-43.345785244093577,-22.786722007739456],[-43.345906186721038,-22.786635906646829],[-43.346075842925757,-22.786520851880816],[-43.346199250594907,-22.786631624075252],[-43.346328931035259,-22.786776336683648],[-43.34642288500811,-22.786892005686568],[-43.346536760762838,-22.787065227703106],[-43.346655416414251,-22.78726956266523],[-43.346725832431105,-22.787447948589005],[-43.346594273306884,-22.787491827410832],[-43.346409035448566,-22.787550410148338],[-43.346275930389716,-22.787649999273107],[-43.346202711186102,-22.787733915013145],[-43.346156409590485,-22.787875215593729],[-43.346116360981171,-22.788027830544952],[-43.346105765168772,-22.788083538149714],[-43.346086408161121,-22.788139377055543],[-43.34591007988621,-22.788137546935239],[-43.345880095589905,-22.788088911599029],[-43.345761144061385,-22.787915003399654],[-43.345655257883777,-22.787720358632697],[-43.345536889116083,-22.787658431316597],[-43.345386704132984,-22.787606933438184],[-43.345286059204227,-22.787615877196036],[-43.345222888125768,-22.787638266717657],[-43.345070209322614,-22.787764379547493],[-43.344874908050485,-22.787637736117649],[-43.344730189146787,-22.787564761529467],[-43.344551505547486,-22.787467610466916],[-43.344384898044495,-22.787434115217227],[-43.344282134313005,-22.787433048621356],[-43.344184133390968,-22.787392324621099],[-43.344095126588797,-22.787315956890918],[-43.343903453181781,-22.787230582450412],[-43.343754070393857,-22.787189324252932],[-43.343629802972941,-22.787195975638749],[-43.34347522660039,-22.787230104910449],[-43.343312327901565,-22.787244297111641],[-43.34319480539591,-22.787245599329971],[-43.343082534930886,-22.787226776519542],[-43.342996733312532,-22.787195921679469],[-43.34286111195064,-22.787127926637517],[-43.342725623688523,-22.786982415431147],[-43.342648708271213,-22.786880143628757],[-43.342601560413584,-22.786798261255782],[-43.342580179931304,-22.786693016294745],[-43.342542097239914,-22.786563968077576],[-43.342516998960207,-22.786437924495608],[-43.342471051697657,-22.786342150294967],[-43.342412019299218,-22.786266093730259],[-43.342352794445844,-22.786205917394167],[-43.342246038623735,-22.786180983690429],[-43.342142797352089,-22.786219617666287],[-43.342043933081015,-22.786250355594404],[-43.341941074920605,-22.786257228213579],[-43.341821521745715,-22.786228190003957],[-43.341706347370007,-22.786191256646251],[-43.341582897432716,-22.786130413013218],[-43.341502024098986,-22.786089865280132],[-43.341409657429722,-22.78600137019215],[-43.34131944643525,-22.785960904297337],[-43.341196044162018,-22.785896090157518],[-43.340989736986678,-22.785792108743813],[-43.340822369556641,-22.785674477420191],[-43.340700258709944,-22.785575478250813],[-43.340643960250468,-22.785500341692408],[-43.340568208555965,-22.785363657331889],[-43.340568799410505,-22.785267705065593],[-43.340678243306229,-22.785158765689541],[-43.340777333307251,-22.785109508022373],[-43.340887838402971,-22.785090202276113],[-43.34101035844111,-22.785046093227688],[-43.341116722158915,-22.784987463725571],[-43.341173427111926,-22.784922199025264],[-43.341312395750379,-22.784788781901778],[-43.341473074023035,-22.784588641377788],[-43.341518819837631,-22.784346904511022],[-43.341545949685781,-22.784228066297253],[-43.341592756700322,-22.784141236753715],[-43.341657056427891,-22.784079622401688]]]},"properties":{"objectid":314,"tipo":"PI","nome":"PARQUE NATURAL MUNICIPAL JARDIM JUREMA","criacao":"2004","jurisdicao":"MUNICIPAL","rotulo":"PNM JARDIM JUREMA","area_ha":14.82052884,"municipio":"SAO JOAO DE MERITI","categoria":"PARQUE","gi_2024":1,"ato":"DECRETO N. 4.220 DE 25/03/2004","gi_2023":1,"priori":9,"ordem":105,"cd_cnuc":"Não consta no cnuc","nomeoficia":"Parque Natural Municipal Jardim Jurema","Shape__Area":1.3033287285102185e-05,"Shape__Length":0.020614796886990069}},{"type":"Feature","id":315,"geometry":{"type":"Polygon","coordinates":[[[-43.342630694850577,-22.781507077514796],[-43.342399167087869,-22.781392965238357],[-43.342248662845471,-22.781220116440423],[-43.342155899575069,-22.780921267227836],[-43.342031016118483,-22.780622083467584],[-43.341884292625934,-22.780136493629502],[-43.342038463404329,-22.780052748760486],[-43.342181730802167,-22.779905543231315],[-43.342305821056755,-22.779784378471494],[-43.342853220399775,-22.779707179767723],[-43.343325740390576,-22.77981634757155],[-43.343871520953883,-22.77984435515803],[-43.343903642039322,-22.779844687907243],[-43.343901484565833,-22.780023397586923],[-43.343801615751893,-22.780312800320679],[-43.343830499278056,-22.78058119758937],[-43.34378936069038,-22.780662688757285],[-43.343537546920231,-22.780898383079045],[-43.343317763404002,-22.781141857435962],[-43.343073798017194,-22.781392526369128],[-43.342831360578721,-22.781516609429154],[-43.342630694850577,-22.781507077514796]]]},"properties":{"objectid":315,"tipo":"US","nome":"AREA DE PROTECAO AMBIENTAL DO PARQUE VITORIA","criacao":"2010","jurisdicao":"MUNICIPAL","rotulo":"APA DO PARQUE VITORIA","area_ha":2.9064972500000001,"municipio":"SAO JOAO DE MERITI","categoria":"APA","gi_2024":1,"ato":"DECRETO N. 4.969 DE 20/04/2010","gi_2023":1,"priori":1,"ordem":552,"cd_cnuc":"Não consta no cnuc","nomeoficia":"Área de Proteção Ambiental do Parque Vitória","Shape__Area":2.5559002639856772e-06,"Shape__Length":0.0061444462480017671}},{"type":"Feature","id":316,"geometry":{"type":"Polygon","coordinates":[[[-43.332213543620071,-22.775852169267477],[-43.332710660068869,-22.775656650359302],[-43.333522584199841,-22.775636457881458],[-43.333194825380815,-22.775280524202145],[-43.333700494382242,-22.774884442987943],[-43.333880076404284,-22.774949638440351],[-43.334053641062667,-22.775074183751922],[-43.334453940996525,-22.775435911763189],[-43.335241339715992,-22.775844363152164],[-43.335461545014248,-22.776145343757893],[-43.335375890884563,-22.77637842644851],[-43.335291608221041,-22.77655933676925],[-43.335484678275229,-22.776893485271387],[-43.335273355580853,-22.776963466016284],[-43.335428983260947,-22.777198062265981],[-43.335508923997615,-22.777299253083342],[-43.333568100687209,-22.778353296292796],[-43.333245571425955,-22.778117909539066],[-43.332894393361471,-22.778279233525051],[-43.332699565132714,-22.778265823734003],[-43.332578851832466,-22.778127167160239],[-43.332577920134845,-22.777885822398023],[-43.332286364424135,-22.777413180998764],[-43.332169998446489,-22.777250048476091],[-43.331510209928183,-22.777472538052429],[-43.330891699392389,-22.776484695737395],[-43.33049746628501,-22.775186297734791],[-43.330727931049069,-22.775119797366049],[-43.331139649675038,-22.775165919097201],[-43.331383248138366,-22.775264045024848],[-43.331638145683769,-22.775810312121529],[-43.331957082153508,-22.775964182526319],[-43.332213543620071,-22.775852169267477]]]},"properties":{"objectid":316,"tipo":"US","nome":"AREA DE PROTECAO AMBIENTAL AERONAUTICA","criacao":"2010","jurisdicao":"MUNICIPAL","rotulo":"APA AERONAUTICA","area_ha":11.63673816,"municipio":"SAO JOAO DE MERITI","categoria":"APA","gi_2024":1,"ato":"DECRETO N. 4.969 DE 20/04/2010","gi_2023":1,"priori":1,"ordem":562,"cd_cnuc":"Não consta no cnuc","nomeoficia":"Área de Proteção Ambiental Aeronáutica","Shape__Area":1.0232760086674236e-05,"Shape__Length":0.015886413085794689}},{"type":"Feature","id":319,"geometry":{"type":"Polygon","coordinates":[[[-43.345176868917292,-22.769009822270963],[-43.345223546429452,-22.768985215920349],[-43.345261162372708,-22.768932666734596],[-43.345324843366768,-22.768918166965307],[-43.345359839584887,-22.768900608601655],[-43.345405261643464,-22.768914701877463],[-43.345454036374633,-22.768965101683477],[-43.345492414043584,-22.769040385730648],[-43.345523444251519,-22.76910125634328],[-43.345558930600134,-22.769170870164935],[-43.345577436849169,-22.769207173098032],[-43.345603329230244,-22.769257965008535],[-43.345617484559227,-22.76932980015561],[-43.345636286685192,-22.769373005385305],[-43.345643283410716,-22.769434009996981],[-43.345522705908081,-22.7694972755043],[-43.345560357824127,-22.769580102165367],[-43.345625276285425,-22.76964529132259],[-43.345693550117169,-22.769697288324654],[-43.34572402544336,-22.769789683772316],[-43.345715561923505,-22.769850527405353],[-43.345822342926745,-22.769969912406889],[-43.345921697328436,-22.770064131679728],[-43.346032861627229,-22.77014055246994],[-43.34613703909303,-22.770194078319467],[-43.346231830334546,-22.770307487326111],[-43.346442846360162,-22.770462870390556],[-43.346563172052697,-22.770649819658871],[-43.346692552119521,-22.770777013473733],[-43.346801897089854,-22.770897619754763],[-43.346911126946907,-22.771027783131114],[-43.347001457551187,-22.771229434516229],[-43.347063969426586,-22.771387787141983],[-43.347153163287821,-22.77146995190213],[-43.347216651826898,-22.771547073264223],[-43.347287899716775,-22.771621885167299],[-43.347354194140671,-22.77167991841883],[-43.347387283796081,-22.771713714042043],[-43.347311532101465,-22.771798950886183],[-43.347217747201178,-22.771883999772168],[-43.347104041418341,-22.771911497443046],[-43.347036163288188,-22.771984867732826],[-43.347140556591341,-22.772088695362399],[-43.347064749138781,-22.772178710304605],[-43.34694893444572,-22.772222910184432],[-43.346824482663692,-22.77223117855139],[-43.346722795420654,-22.772330483490329],[-43.346630476415328,-22.77229368503092],[-43.346542648624222,-22.772311890906433],[-43.346415628378509,-22.772375090763131],[-43.346250279027061,-22.772411607734885],[-43.34613662990148,-22.772434324609751],[-43.345920442774165,-22.772412968409107],[-43.345676377562654,-22.772353091547338],[-43.345530012899701,-22.772310952913507],[-43.345373832136545,-22.7722280911788],[-43.345245588812759,-22.772178972007325],[-43.345119490372149,-22.772165716899721],[-43.345016289569976,-22.772176594199763],[-43.344918186125312,-22.772192303557336],[-43.344886306957449,-22.772058162479535],[-43.34482591478406,-22.771938062516931],[-43.34451890422401,-22.772183382282648],[-43.344255287751253,-22.772462604690805],[-43.344308069861484,-22.772501734193067],[-43.344337011843606,-22.772523189319124],[-43.344450414554956,-22.772621585942687],[-43.344548114204088,-22.772752379743881],[-43.344636993302572,-22.772860827190726],[-43.344717706556878,-22.773005032581548],[-43.344845696271811,-22.773175014340797],[-43.345012247117438,-22.773366507883409],[-43.345258053416323,-22.773543610474587],[-43.345431964313661,-22.773695344989513],[-43.345479461108141,-22.773736783950717],[-43.345403367671167,-22.773838900170453],[-43.345293861722325,-22.77394529176706],[-43.345119022724653,-22.774127467433974],[-43.345006709092331,-22.774252944443106],[-43.344937693319821,-22.774206828107992],[-43.344879357895877,-22.774129758906618],[-43.344804018090883,-22.77405903442218],[-43.34471882981012,-22.773979948041529],[-43.344642604172755,-22.773890746985678],[-43.344563744421237,-22.773806297048345],[-43.344497102858895,-22.773776932384813],[-43.344412283300194,-22.773759326357158],[-43.344249997939023,-22.773755252428323],[-43.344105487678007,-22.773772869247871],[-43.344017976448356,-22.773764792436584],[-43.343835396985867,-22.773734223580853],[-43.343691550424637,-22.773696889125407],[-43.343570891983006,-22.773659793889639],[-43.343460480416802,-22.773627585569901],[-43.34333901528322,-22.773599761445109],[-43.3432136354009,-22.773584401923941],[-43.343087392169309,-22.773583090712417],[-43.343002452101359,-22.772836870150819],[-43.342919336757859,-22.772731669256498],[-43.342805280239475,-22.772619595743127],[-43.342767327050467,-22.772561854771119],[-43.342719182743963,-22.772494447885816],[-43.342632480004916,-22.772419475004128],[-43.342734286857812,-22.772310616567022],[-43.342867067261295,-22.772197301089914],[-43.342970700637238,-22.772115035605715],[-43.343114304381572,-22.771994373566869],[-43.343239528681238,-22.771866643755967],[-43.343108571203565,-22.771746555484473],[-43.342803180322448,-22.771513249762002],[-43.342437753399501,-22.771212045225141],[-43.342472587739621,-22.771189519905768],[-43.342753502671997,-22.771007870342274],[-43.342722397820346,-22.770861927461429],[-43.342708121082865,-22.770794939660121],[-43.342678312154362,-22.770758075550162],[-43.342665621820963,-22.770542852496042],[-43.342777998405836,-22.77050463310777],[-43.342767788402682,-22.770389831950556],[-43.342764746895512,-22.770321701110976],[-43.342773860625137,-22.770207100502695],[-43.342794438012845,-22.770103372697957],[-43.342647124565076,-22.77004918674599],[-43.342706853938068,-22.769916320906862],[-43.342866713827668,-22.769740157207917],[-43.342970923669164,-22.769571159307024],[-43.343041176908734,-22.769514541588233],[-43.343118770414833,-22.769490257194992],[-43.343201900147498,-22.769452302207398],[-43.34318632658767,-22.769336838249892],[-43.343210853797807,-22.769225982418622],[-43.343335123916802,-22.769177093473555],[-43.343404901414942,-22.769159896637344],[-43.343523504905704,-22.769138753575984],[-43.343676107266504,-22.769105364446492],[-43.343781034766891,-22.769066541613093],[-43.343847009931494,-22.769035454747836],[-43.34392790484884,-22.769057798404098],[-43.344004805876978,-22.769090853885185],[-43.344101285146166,-22.769133776727813],[-43.344268522174502,-22.769184956246189],[-43.344388748042263,-22.769221751108379],[-43.344419532735174,-22.769313793122471],[-43.344476592920387,-22.76938965363501],[-43.34456122272212,-22.769422789155829],[-43.344634604703117,-22.769427134679972],[-43.344684929865593,-22.769420488690059],[-43.344727655756685,-22.76940301036603],[-43.344774505039254,-22.769364069721462],[-43.344798123934261,-22.769328472756275],[-43.344806371616698,-22.769285548115018],[-43.344795709254527,-22.769230039260318],[-43.34481597457745,-22.769180986638609],[-43.34480423572677,-22.769142157510032],[-43.344794771261668,-22.769036045602491],[-43.344825633296239,-22.768970337536476],[-43.344972526760671,-22.768968277189632],[-43.345029932285456,-22.769015467315402],[-43.345134187092988,-22.769023715897223],[-43.345176868917292,-22.769009822270963]]]},"properties":{"objectid":319,"tipo":"US","nome":"AREA DE PROTECAO AMBIENTAL ANDORINHAS","criacao":"2010","jurisdicao":"MUNICIPAL","rotulo":"APA ANDORINHAS","area_ha":16.22114195,"municipio":"SAO JOAO DE MERITI","categoria":"APA","gi_2024":1,"ato":"DECRETO N. 4.969 DE 20/04/2010","gi_2023":1,"priori":1,"ordem":565,"cd_cnuc":"Não consta no cnuc","nomeoficia":"Área de Proteção Ambiental Andorinhas","Shape__Area":1.4263521892112677e-05,"Shape__Length":0.020950837345642636}},{"type":"Feature","id":320,"geometry":{"type":"Polygon","coordinates":[[[-43.345496221773097,-22.782974123582029],[-43.345256299738423,-22.78288971591266],[-43.345056349870625,-22.782820617402727],[-43.344889689307593,-22.782655051314659],[-43.34477942163295,-22.782475175214273],[-43.344719222813865,-22.782139428616897],[-43.344697018552495,-22.78198280808526],[-43.3447229064368,-22.781834133963272],[-43.344772886259648,-22.781685708953479],[-43.344950809931902,-22.781583295058162],[-43.345072520580288,-22.78148029750286],[-43.345097959703033,-22.781368854414275],[-43.3450186457938,-22.781286113188745],[-43.345115997405287,-22.78120520388223],[-43.34535093989394,-22.781036356167995],[-43.345599786800676,-22.781046384508226],[-43.345759941667893,-22.781085281085954],[-43.346048312879248,-22.78114784692071],[-43.346248980406024,-22.78115737613707],[-43.346447709893816,-22.781270572903797],[-43.346598899419632,-22.781443994569884],[-43.346527639838648,-22.781682499273071],[-43.346591024955792,-22.78190182503425],[-43.346643819656492,-22.782217255047357],[-43.346707685910935,-22.782413252394779],[-43.346722399718949,-22.782525112768813],[-43.346689202144937,-22.782614133960266],[-43.346576508099247,-22.782635307598493],[-43.346471844100272,-22.782656563974371],[-43.346398224698248,-22.782767509737791],[-43.346340665389285,-22.782878619178085],[-43.346219493434774,-22.782936940212739],[-43.346041656996825,-22.783031909520119],[-43.345904512183381,-22.783082616894387],[-43.345679573753273,-22.783087732238201],[-43.345496221773097,-22.782974123582029]]]},"properties":{"objectid":320,"tipo":"US","nome":"AREA DE PROTECAO AMBIENTAL DO JARDIM SANTO ANTONIO","criacao":"2010","jurisdicao":"MUNICIPAL","rotulo":"APA DO JARDIM SANTO ANTONIO","area_ha":3.54283087,"municipio":"SAO JOAO DE MERITI","categoria":"APA","gi_2024":1,"ato":"DECRETO N. 4.969 DE 20/04/2010","gi_2023":1,"priori":1,"ordem":553,"cd_cnuc":"Não consta no cnuc","nomeoficia":"Área de Proteção Ambiental do Jardim Santo Antônio","Shape__Area":3.1155105524641476e-06,"Shape__Length":0.0067105488523594272}}]}