{
  "type": "FeatureCollection",
  "features": [
    {
      "type": "Feature",
      "properties": {
        "id": "3305109",
        "name": "São João de Meriti",
        "unitType": "municipality",
        "districtNames": "Coelho da Rocha / São João de Meriti / São Mateus",
        "neighborhoodName": null,
        "populationTotal": 440962,
        "areaKm2": 35.21189287846109,
        "populationDensity": 12523.09841797042
      },
      "geometry": {
        "type": "Polygon",
        "coordinates": [
          [
            [
              -43.396285199999966,
              -22.807532999999975
            ],
            [
              -43.396779299999935,
              -22.807023099999974
            ],
            [
              -43.39685209999993,
              -22.80694799999998
            ],
            [
              -43.39724339999998,
              -22.806544099999943
            ],
            [
              -43.39728279999997,
              -22.806503499999955
            ],
            [
              -43.39890209999993,
              -22.80483239999995
            ],
            [
              -43.39892649999996,
              -22.804804899999965
            ],
            [
              -43.40014789999998,
              -22.803424599999968
            ],
            [
              -43.40037879999994,
              -22.80316369999997
            ],
            [
              -43.40063559999993,
              -22.80287349999998
            ],
            [
              -43.40104759999997,
              -22.802407899999935
            ],
            [
              -43.401487299999985,
              -22.801911099999923
            ],
            [
              -43.40155249999998,
              -22.80183739999996
            ],
            [
              -43.40163449999994,
              -22.801744699999965
            ],
            [
              -43.40186719999997,
              -22.80148169999995
            ],
            [
              -43.40291399999995,
              -22.800304299999926
            ],
            [
              -43.40377179999996,
              -22.799348299999966
            ],
            [
              -43.404236899999944,
              -22.798841899999953
            ],
            [
              -43.40556479999998,
              -22.79739569999999
            ],
            [
              -43.40563029999999,
              -22.797324399999976
            ],
            [
              -43.40693189999996,
              -22.795906899999977
            ],
            [
              -43.40697669999997,
              -22.79585669999995
            ],
            [
              -43.40836859999996,
              -22.794296799999927
            ],
            [
              -43.40837369999997,
              -22.794290999999927
            ],
            [
              -43.410221999999976,
              -22.79221959999995
            ],
            [
              -43.41023919999998,
              -22.79220029999993
            ],
            [
              -43.41034229999997,
              -22.792084799999937
            ],
            [
              -43.410560499999974,
              -22.79184019999996
            ],
            [
              -43.41070799999995,
              -22.79167489999997
            ],
            [
              -43.410345699999944,
              -22.79147329999995
            ],
            [
              -43.41029229999998,
              -22.791419699999942
            ],
            [
              -43.41006729999998,
              -22.79136819999997
            ],
            [
              -43.40963389999997,
              -22.79065509999999
            ],
            [
              -43.40960739999997,
              -22.790611399999925
            ],
            [
              -43.40942449999994,
              -22.79031649999996
            ],
            [
              -43.40916189999996,
              -22.79000249999996
            ],
            [
              -43.408748499999945,
              -22.78983649999998
            ],
            [
              -43.408725499999946,
              -22.78982719999993
            ],
            [
              -43.40865919999993,
              -22.789802899999923
            ],
            [
              -43.40827209999998,
              -22.789660899999948
            ],
            [
              -43.40825449999994,
              -22.789651499999934
            ],
            [
              -43.408156599999984,
              -22.78959959999997
            ],
            [
              -43.408145099999956,
              -22.789593499999974
            ],
            [
              -43.40813849999995,
              -22.78958989999995
            ],
            [
              -43.40810099999993,
              -22.789541499999924
            ],
            [
              -43.407804699999986,
              -22.789158199999978
            ],
            [
              -43.40743939999993,
              -22.788685799999936
            ],
            [
              -43.40740779999993,
              -22.788607699999947
            ],
            [
              -43.40736049999998,
              -22.788497299999957
            ],
            [
              -43.40734749999996,
              -22.788466899999946
            ],
            [
              -43.40729619999996,
              -22.788347099999957
            ],
            [
              -43.40692789999997,
              -22.787476799999972
            ],
            [
              -43.406834999999944,
              -22.787257299999965
            ],
            [
              -43.40682129999993,
              -22.78722479999993
            ],
            [
              -43.40671509999999,
              -22.787032699999934
            ],
            [
              -43.40654559999996,
              -22.786725999999923
            ],
            [
              -43.40652819999997,
              -22.786694499999957
            ],
            [
              -43.40650709999994,
              -22.786659099999955
            ],
            [
              -43.406420399999945,
              -22.78651319999995
            ],
            [
              -43.40632459999995,
              -22.786351899999936
            ],
            [
              -43.40616279999995,
              -22.786237499999967
            ],
            [
              -43.40601269999996,
              -22.786131199999947
            ],
            [
              -43.405771899999934,
              -22.785960799999934
            ],
            [
              -43.40570369999995,
              -22.785912499999938
            ],
            [
              -43.40559579999996,
              -22.785873699999964
            ],
            [
              -43.405546399999935,
              -22.78585599999997
            ],
            [
              -43.40542269999998,
              -22.785811599999928
            ],
            [
              -43.405033499999945,
              -22.785671799999935
            ],
            [
              -43.40499179999995,
              -22.785656799999963
            ],
            [
              -43.40446749999995,
              -22.785468499999986
            ],
            [
              -43.40398749999997,
              -22.785246499999964
            ],
            [
              -43.40392349999996,
              -22.785216899999966
            ],
            [
              -43.40387369999996,
              -22.78519389999997
            ],
            [
              -43.403770999999956,
              -22.785146399999974
            ],
            [
              -43.403560899999945,
              -22.784972199999967
            ],
            [
              -43.403414099999964,
              -22.78485039999998
            ],
            [
              -43.40312679999994,
              -22.78451959999995
            ],
            [
              -43.403115199999945,
              -22.78450049999997
            ],
            [
              -43.40278729999994,
              -22.783962399999954
            ],
            [
              -43.40275249999996,
              -22.78350969999996
            ],
            [
              -43.40262459999997,
              -22.782795499999963
            ],
            [
              -43.402611399999955,
              -22.782721599999945
            ],
            [
              -43.402530499999955,
              -22.78260759999995
            ],
            [
              -43.40236919999995,
              -22.78262209999997
            ],
            [
              -43.402356699999984,
              -22.782618899999935
            ],
            [
              -43.40227749999997,
              -22.782598699999934
            ],
            [
              -43.40225469999996,
              -22.782592899999944
            ],
            [
              -43.40208919999998,
              -22.782445799999948
            ],
            [
              -43.401545899999974,
              -22.781868799999923
            ],
            [
              -43.40138829999995,
              -22.781711799999975
            ],
            [
              -43.40097359999993,
              -22.781298499999934
            ],
            [
              -43.40066779999995,
              -22.780993799999976
            ],
            [
              -43.40059979999995,
              -22.780925999999965
            ],
            [
              -43.40006489999996,
              -22.78039299999995
            ],
            [
              -43.39976479999996,
              -22.78009399999996
            ],
            [
              -43.399256899999955,
              -22.779587899999964
            ],
            [
              -43.399031699999966,
              -22.77936349999993
            ],
            [
              -43.39879899999994,
              -22.779131599999964
            ],
            [
              -43.398788699999955,
              -22.779122299999983
            ],
            [
              -43.39843539999998,
              -22.77880199999993
            ],
            [
              -43.398399799999936,
              -22.778769799999957
            ],
            [
              -43.398312199999964,
              -22.778690299999937
            ],
            [
              -43.39741499999997,
              -22.77784879999995
            ],
            [
              -43.39730799999995,
              -22.77774909999994
            ],
            [
              -43.397280999999964,
              -22.777723899999955
            ],
            [
              -43.39718689999995,
              -22.77763619999996
            ],
            [
              -43.397142299999985,
              -22.77759449999996
            ],
            [
              -43.39713169999993,
              -22.777584299999944
            ],
            [
              -43.395541299999934,
              -22.776041099999933
            ],
            [
              -43.39537439999998,
              -22.775907999999955
            ],
            [
              -43.395207599999935,
              -22.775774999999953
            ],
            [
              -43.394689699999965,
              -22.77549209999995
            ],
            [
              -43.394178899999986,
              -22.775047099999938
            ],
            [
              -43.39322859999993,
              -22.773964999999983
            ],
            [
              -43.392867799999976,
              -22.773594499999945
            ],
            [
              -43.392727399999956,
              -22.77345039999994
            ],
            [
              -43.392379699999935,
              -22.773157499999968
            ],
            [
              -43.39223809999993,
              -22.77303819999997
            ],
            [
              -43.39223629999998,
              -22.773036699999977
            ],
            [
              -43.39223459999994,
              -22.773035299999947
            ],
            [
              -43.392195699999945,
              -22.77300419999994
            ],
            [
              -43.39192129999998,
              -22.772784899999973
            ],
            [
              -43.39178019999997,
              -22.77267219999993
            ],
            [
              -43.39176079999993,
              -22.772656999999985
            ],
            [
              -43.391706899999974,
              -22.77261369999996
            ],
            [
              -43.39111349999996,
              -22.771995999999945
            ],
            [
              -43.39085659999995,
              -22.771728599999953
            ],
            [
              -43.39057599999995,
              -22.771365599999967
            ],
            [
              -43.39052589999994,
              -22.77130079999995
            ],
            [
              -43.39026489999998,
              -22.770956699999946
            ],
            [
              -43.390002699999975,
              -22.770718799999944
            ],
            [
              -43.38913069999995,
              -22.76985059999992
            ],
            [
              -43.38838909999999,
              -22.769191399999944
            ],
            [
              -43.38705969999995,
              -22.767999399999947
            ],
            [
              -43.385630499999934,
              -22.76675829999994
            ],
            [
              -43.38559029999993,
              -22.76672689999998
            ],
            [
              -43.38538429999994,
              -22.766565699999944
            ],
            [
              -43.385188399999954,
              -22.766472399999937
            ],
            [
              -43.38515359999997,
              -22.76645579999996
            ],
            [
              -43.38483979999995,
              -22.766380799999983
            ],
            [
              -43.38400999999993,
              -22.76625089999993
            ],
            [
              -43.38387339999997,
              -22.76622959999998
            ],
            [
              -43.38270989999995,
              -22.766047499999956
            ],
            [
              -43.38177889999997,
              -22.765901799999927
            ],
            [
              -43.38144049999994,
              -22.765848599999973
            ],
            [
              -43.381154599999945,
              -22.765846099999973
            ],
            [
              -43.38098439999993,
              -22.765881499999978
            ],
            [
              -43.380821399999945,
              -22.765895499999946
            ],
            [
              -43.38062089999995,
              -22.765889699999946
            ],
            [
              -43.38045009999996,
              -22.765850099999966
            ],
            [
              -43.37913219999996,
              -22.765543899999958
            ],
            [
              -43.378966299999945,
              -22.76551009999997
            ],
            [
              -43.37789159999994,
              -22.765291299999944
            ],
            [
              -43.37716539999997,
              -22.76516959999998
            ],
            [
              -43.375949799999944,
              -22.764965799999963
            ],
            [
              -43.37564329999998,
              -22.76489789999994
            ],
            [
              -43.375596099999946,
              -22.76488739999996
            ],
            [
              -43.373998599999936,
              -22.76453329999997
            ],
            [
              -43.37396469999993,
              -22.764515999999947
            ],
            [
              -43.37385679999994,
              -22.76446059999995
            ],
            [
              -43.37370039999996,
              -22.76436289999998
            ],
            [
              -43.373414699999955,
              -22.764264099999934
            ],
            [
              -43.37319499999995,
              -22.764236599999943
            ],
            [
              -43.37294639999993,
              -22.764239299999932
            ],
            [
              -43.37266899999997,
              -22.764220199999947
            ],
            [
              -43.37256919999993,
              -22.764184499999942
            ],
            [
              -43.37253059999995,
              -22.76417069999996
            ],
            [
              -43.37245339999998,
              -22.764143199999975
            ],
            [
              -43.37213479999997,
              -22.764071799999947
            ],
            [
              -43.37189859999995,
              -22.764055299999935
            ],
            [
              -43.371618499999954,
              -22.764082799999986
            ],
            [
              -43.37150639999993,
              -22.764121899999964
            ],
            [
              -43.37139399999995,
              -22.764161199999933
            ],
            [
              -43.37128089999993,
              -22.764167299999944
            ],
            [
              -43.371205499999974,
              -22.764171399999952
            ],
            [
              -43.37048579999998,
              -22.76402079999997
            ],
            [
              -43.36953919999996,
              -22.76382279999996
            ],
            [
              -43.36840719999998,
              -22.763585999999968
            ],
            [
              -43.36741839999996,
              -22.763379199999974
            ],
            [
              -43.36667579999994,
              -22.763223799999935
            ],
            [
              -43.36581189999998,
              -22.76304309999994
            ],
            [
              -43.365608899999984,
              -22.763000599999934
            ],
            [
              -43.36555999999996,
              -22.76299239999997
            ],
            [
              -43.36498849999998,
              -22.762896699999946
            ],
            [
              -43.36360779999996,
              -22.762665199999955
            ],
            [
              -43.36317619999994,
              -22.762592899999955
            ],
            [
              -43.36235419999997,
              -22.762490799999966
            ],
            [
              -43.362302099999965,
              -22.76248429999998
            ],
            [
              -43.36219619999997,
              -22.762463499999967
            ],
            [
              -43.35845089999998,
              -22.76172769999993
            ],
            [
              -43.35547959999997,
              -22.76114399999995
            ],
            [
              -43.355470699999955,
              -22.761142399999986
            ],
            [
              -43.35351229999998,
              -22.760798999999956
            ],
            [
              -43.353459499999985,
              -22.760789699999982
            ],
            [
              -43.35331519999994,
              -22.760764399999964
            ],
            [
              -43.35125899999997,
              -22.76040379999995
            ],
            [
              -43.349621799999966,
              -22.760116699999966
            ],
            [
              -43.34959089999995,
              -22.760111199999976
            ],
            [
              -43.347371599999974,
              -22.759675099999978
            ],
            [
              -43.343547299999955,
              -22.758923499999984
            ],
            [
              -43.341988399999934,
              -22.75861709999998
            ],
            [
              -43.33833629999998,
              -22.757948899999974
            ],
            [
              -43.33701899999994,
              -22.75770779999993
            ],
            [
              -43.33616889999996,
              -22.757552299999926
            ],
            [
              -43.335330699999986,
              -22.757312299999956
            ],
            [
              -43.334336399999984,
              -22.75702409999997
            ],
            [
              -43.33383649999996,
              -22.75688519999994
            ],
            [
              -43.333743099999936,
              -22.756859299999967
            ],
            [
              -43.332132899999976,
              -22.756510899999963
            ],
            [
              -43.33125609999996,
              -22.75632119999994
            ],
            [
              -43.33007119999996,
              -22.75606889999995
            ],
            [
              -43.32929029999997,
              -22.755902599999953
            ],
            [
              -43.329290499999956,
              -22.75590709999994
            ],
            [
              -43.32929119999994,
              -22.755923899999978
            ],
            [
              -43.32930419999997,
              -22.756250499999968
            ],
            [
              -43.32930639999995,
              -22.756305199999925
            ],
            [
              -43.32930679999998,
              -22.75631499999997
            ],
            [
              -43.32930759999994,
              -22.756334099999954
            ],
            [
              -43.32930829999998,
              -22.75635319999998
            ],
            [
              -43.32930879999998,
              -22.756363899999936
            ],
            [
              -43.329309999999964,
              -22.756395299999948
            ],
            [
              -43.32931999999994,
              -22.756645999999932
            ],
            [
              -43.32932009999996,
              -22.756647399999963
            ],
            [
              -43.32932679999993,
              -22.75681419999995
            ],
            [
              -43.32932969999996,
              -22.756887899999985
            ],
            [
              -43.32946069999997,
              -22.760164099999947
            ],
            [
              -43.32959939999996,
              -22.763632399999953
            ],
            [
              -43.32960179999998,
              -22.763679999999965
            ],
            [
              -43.329601699999955,
              -22.763689499999938
            ],
            [
              -43.32960189999994,
              -22.763693599999954
            ],
            [
              -43.32960299999996,
              -22.763721199999956
            ],
            [
              -43.329638399999965,
              -22.76460729999997
            ],
            [
              -43.32966929999998,
              -22.765380099999955
            ],
            [
              -43.329670299999975,
              -22.765405599999948
            ],
            [
              -43.32967159999998,
              -22.76543879999997
            ],
            [
              -43.32967219999995,
              -22.765453099999945
            ],
            [
              -43.32967229999997,
              -22.765454499999976
            ],
            [
              -43.32968429999994,
              -22.765755699999946
            ],
            [
              -43.329701099999966,
              -22.76633979999997
            ],
            [
              -43.32976339999993,
              -22.76850429999996
            ],
            [
              -43.32981289999998,
              -22.77022349999993
            ],
            [
              -43.32981289999998,
              -22.770225899999957
            ],
            [
              -43.32984579999993,
              -22.771369399999973
            ],
            [
              -43.329874099999984,
              -22.77235059999998
            ],
            [
              -43.32982489999995,
              -22.77353629999993
            ],
            [
              -43.32977699999998,
              -22.77469029999998
            ],
            [
              -43.329767199999935,
              -22.77492729999994
            ],
            [
              -43.329623399999946,
              -22.77839179999995
            ],
            [
              -43.329615399999966,
              -22.778585699999947
            ],
            [
              -43.32960459999998,
              -22.778845699999977
            ],
            [
              -43.329566599999964,
              -22.779763299999956
            ],
            [
              -43.329542999999944,
              -22.78004229999993
            ],
            [
              -43.329310599999985,
              -22.782789599999937
            ],
            [
              -43.32930389999996,
              -22.782931199999943
            ],
            [
              -43.329301199999975,
              -22.78298959999994
            ],
            [
              -43.32929919999998,
              -22.783032399999968
            ],
            [
              -43.32929189999993,
              -22.78318739999997
            ],
            [
              -43.32928759999993,
              -22.783278999999947
            ],
            [
              -43.32928529999998,
              -22.783329299999934
            ],
            [
              -43.32928479999998,
              -22.78333929999997
            ],
            [
              -43.32928449999997,
              -22.783344999999937
            ],
            [
              -43.32928399999997,
              -22.783355899999943
            ],
            [
              -43.32928209999994,
              -22.783396999999976
            ],
            [
              -43.32928149999998,
              -22.783409499999948
            ],
            [
              -43.32928039999996,
              -22.783431899999982
            ],
            [
              -43.329273899999976,
              -22.78357079999995
            ],
            [
              -43.32927149999995,
              -22.783622399999956
            ],
            [
              -43.32926969999994,
              -22.78366079999995
            ],
            [
              -43.32926719999995,
              -22.783713399999954
            ],
            [
              -43.32926439999994,
              -22.783772899999974
            ],
            [
              -43.32924369999995,
              -22.784214299999977
            ],
            [
              -43.32924179999998,
              -22.784253799999934
            ],
            [
              -43.32924109999993,
              -22.784270399999965
            ],
            [
              -43.32924029999998,
              -22.784286999999942
            ],
            [
              -43.32924019999996,
              -22.784288599999968
            ],
            [
              -43.32923989999995,
              -22.784294899999956
            ],
            [
              -43.32923819999996,
              -22.784330899999933
            ],
            [
              -43.32923679999993,
              -22.784361599999954
            ],
            [
              -43.32920329999996,
              -22.785073999999952
            ],
            [
              -43.329201299999966,
              -22.785117799999963
            ],
            [
              -43.329200199999946,
              -22.78514119999994
            ],
            [
              -43.329200199999946,
              -22.78514799999994
            ],
            [
              -43.32920029999997,
              -22.785154799999933
            ],
            [
              -43.32920059999998,
              -22.78518039999994
            ],
            [
              -43.32920119999994,
              -22.785235699999923
            ],
            [
              -43.329213299999935,
              -22.786371199999962
            ],
            [
              -43.32925889999996,
              -22.786928599999953
            ],
            [
              -43.32926229999998,
              -22.786969199999927
            ],
            [
              -43.32926359999993,
              -22.786985499999954
            ],
            [
              -43.329264999999964,
              -22.78700219999996
            ],
            [
              -43.32926569999995,
              -22.78701069999994
            ],
            [
              -43.329268199999944,
              -22.78704199999993
            ],
            [
              -43.329270399999984,
              -22.78706879999993
            ],
            [
              -43.32927259999997,
              -22.787095599999926
            ],
            [
              -43.329435899999964,
              -22.789088399999965
            ],
            [
              -43.32943739999996,
              -22.789106299999958
            ],
            [
              -43.32944199999997,
              -22.789162399999952
            ],
            [
              -43.32944549999996,
              -22.789205499999976
            ],
            [
              -43.32945379999995,
              -22.78930649999996
            ],
            [
              -43.329481199999975,
              -22.789640599999927
            ],
            [
              -43.32948339999996,
              -22.789667799999965
            ],
            [
              -43.32948499999998,
              -22.789687699999938
            ],
            [
              -43.32948639999995,
              -22.78970409999993
            ],
            [
              -43.32948659999994,
              -22.78970639999994
            ],
            [
              -43.32948969999996,
              -22.789744299999935
            ],
            [
              -43.329566599999964,
              -22.790682699999934
            ],
            [
              -43.32975049999993,
              -22.792169099999967
            ],
            [
              -43.32975469999997,
              -22.792203399999945
            ],
            [
              -43.329755699999964,
              -22.792211199999944
            ],
            [
              -43.329758099999935,
              -22.792230299999975
            ],
            [
              -43.32975829999998,
              -22.792232499999955
            ],
            [
              -43.32976099999996,
              -22.792253699999943
            ],
            [
              -43.32976999999994,
              -22.79232629999996
            ],
            [
              -43.32977109999996,
              -22.792335899999944
            ],
            [
              -43.32986099999994,
              -22.793061799999972
            ],
            [
              -43.330094299999985,
              -22.79494679999993
            ],
            [
              -43.33009649999997,
              -22.79496479999994
            ],
            [
              -43.330097799999976,
              -22.794979899999923
            ],
            [
              -43.33010009999998,
              -22.795005599999968
            ],
            [
              -43.33014959999998,
              -22.795559899999944
            ],
            [
              -43.33023609999998,
              -22.796527899999937
            ],
            [
              -43.33028759999996,
              -22.797104999999927
            ],
            [
              -43.330514799999946,
              -22.798988299999955
            ],
            [
              -43.330686399999934,
              -22.80041069999993
            ],
            [
              -43.33080949999993,
              -22.801430799999935
            ],
            [
              -43.33086389999994,
              -22.802070499999953
            ],
            [
              -43.33087339999997,
              -22.802182699999953
            ],
            [
              -43.33087439999997,
              -22.802195099999945
            ],
            [
              -43.33091449999995,
              -22.80266579999995
            ],
            [
              -43.33166389999997,
              -22.80272069999995
            ],
            [
              -43.33221919999994,
              -22.802761299999933
            ],
            [
              -43.33383709999998,
              -22.802879599999976
            ],
            [
              -43.333920999999975,
              -22.802885799999952
            ],
            [
              -43.33444069999996,
              -22.80292379999997
            ],
            [
              -43.33479049999994,
              -22.802941199999967
            ],
            [
              -43.33732599999996,
              -22.803067699999925
            ],
            [
              -43.33810349999993,
              -22.80309949999997
            ],
            [
              -43.340035099999966,
              -22.80317849999994
            ],
            [
              -43.34153879999997,
              -22.803292299999956
            ],
            [
              -43.34250359999993,
              -22.803365399999965
            ],
            [
              -43.345240899999965,
              -22.80355519999995
            ],
            [
              -43.34541459999997,
              -22.803567299999937
            ],
            [
              -43.34544119999998,
              -22.803567599999948
            ],
            [
              -43.34629579999995,
              -22.803577999999955
            ],
            [
              -43.34674469999993,
              -22.803616299999934
            ],
            [
              -43.34681599999993,
              -22.803622299999976
            ],
            [
              -43.34690749999993,
              -22.80363009999996
            ],
            [
              -43.34696289999994,
              -22.80363479999994
            ],
            [
              -43.347009499999956,
              -22.803638799999934
            ],
            [
              -43.34707009999994,
              -22.803643899999944
            ],
            [
              -43.34721829999995,
              -22.803656599999957
            ],
            [
              -43.34740409999995,
              -22.803673399999976
            ],
            [
              -43.34763229999993,
              -22.80369399999995
            ],
            [
              -43.34824969999994,
              -22.803749799999938
            ],
            [
              -43.348357299999975,
              -22.803759599999974
            ],
            [
              -43.34841099999994,
              -22.80376439999997
            ],
            [
              -43.348458799999946,
              -22.80376869999998
            ],
            [
              -43.34846479999993,
              -22.80376929999994
            ],
            [
              -43.34856449999995,
              -22.803657299999934
            ],
            [
              -43.34866419999997,
              -22.80354529999994
            ],
            [
              -43.34871179999993,
              -22.80351559999997
            ],
            [
              -43.34892589999998,
              -22.803381799999958
            ],
            [
              -43.34903079999999,
              -22.803340699999975
            ],
            [
              -43.34922679999994,
              -22.803263999999956
            ],
            [
              -43.349586699999975,
              -22.80319199999997
            ],
            [
              -43.34986879999997,
              -22.803140099999954
            ],
            [
              -43.35004809999999,
              -22.803107199999946
            ],
            [
              -43.35015589999995,
              -22.80308739999999
            ],
            [
              -43.35021939999996,
              -22.80307959999993
            ],
            [
              -43.35087079999994,
              -22.80299989999997
            ],
            [
              -43.35114489999995,
              -22.80296639999994
            ],
            [
              -43.35165409999996,
              -22.80290419999995
            ],
            [
              -43.35209409999993,
              -22.802805299999935
            ],
            [
              -43.35224549999998,
              -22.802771299999957
            ],
            [
              -43.352396899999974,
              -22.80273719999997
            ],
            [
              -43.35281869999994,
              -22.802642499999934
            ],
            [
              -43.35356449999995,
              -22.80245929999995
            ],
            [
              -43.35375749999997,
              -22.80242659999993
            ],
            [
              -43.35395049999994,
              -22.802393799999944
            ],
            [
              -43.35401009999998,
              -22.802398299999933
            ],
            [
              -43.35438889999995,
              -22.80242659999994
            ],
            [
              -43.35469379999995,
              -22.802491899999954
            ],
            [
              -43.354755299999965,
              -22.802505099999962
            ],
            [
              -43.35475789999998,
              -22.802505399999973
            ],
            [
              -43.35480689999997,
              -22.802510999999974
            ],
            [
              -43.35510819999996,
              -22.80254569999994
            ],
            [
              -43.355404299999975,
              -22.80257969999997
            ],
            [
              -43.355409399999985,
              -22.802580299999935
            ],
            [
              -43.35541989999996,
              -22.802581699999966
            ],
            [
              -43.355884999999944,
              -22.802645399999957
            ],
            [
              -43.35595909999995,
              -22.802655499999954
            ],
            [
              -43.35599799999994,
              -22.802660499999945
            ],
            [
              -43.35618629999993,
              -22.802684699999926
            ],
            [
              -43.35631569999998,
              -22.80270129999996
            ],
            [
              -43.35652169999997,
              -22.802711199999976
            ],
            [
              -43.35668039999996,
              -22.802693199999965
            ],
            [
              -43.356839099999945,
              -22.80267519999995
            ],
            [
              -43.35708699999998,
              -22.802646499999977
            ],
            [
              -43.35740499999997,
              -22.802609799999967
            ],
            [
              -43.357614299999966,
              -22.802619599999954
            ],
            [
              -43.35795129999997,
              -22.802675199999957
            ],
            [
              -43.35828499999997,
              -22.802738999999967
            ],
            [
              -43.35852929999993,
              -22.802785699999955
            ],
            [
              -43.35861649999998,
              -22.802802399999962
            ],
            [
              -43.35861859999994,
              -22.802802799999938
            ],
            [
              -43.35863059999997,
              -22.80280519999997
            ],
            [
              -43.35906579999994,
              -22.80289249999992
            ],
            [
              -43.359300099999984,
              -22.80293939999996
            ],
            [
              -43.35930149999996,
              -22.802939899999956
            ],
            [
              -43.359511699999985,
              -22.80300559999995
            ],
            [
              -43.35969199999994,
              -22.803083999999956
            ],
            [
              -43.35973739999998,
              -22.803103699999944
            ],
            [
              -43.35993689999998,
              -22.80322149999995
            ],
            [
              -43.36049329999997,
              -22.803617199999966
            ],
            [
              -43.36056039999994,
              -22.80366489999994
            ],
            [
              -43.36097579999995,
              -22.803960399999937
            ],
            [
              -43.361477699999966,
              -22.804317399999942
            ],
            [
              -43.36150129999993,
              -22.804334499999985
            ],
            [
              -43.36161509999994,
              -22.80441759999996
            ],
            [
              -43.36163469999997,
              -22.804431799999975
            ],
            [
              -43.361739399999976,
              -22.804451499999967
            ],
            [
              -43.36190949999997,
              -22.804428599999937
            ],
            [
              -43.36199499999998,
              -22.804418099999957
            ],
            [
              -43.36251459999994,
              -22.804354299999936
            ],
            [
              -43.36311969999997,
              -22.80428009999997
            ],
            [
              -43.36366889999994,
              -22.804212699999937
            ],
            [
              -43.36379699999998,
              -22.804196999999927
            ],
            [
              -43.363877799999955,
              -22.804187099999968
            ],
            [
              -43.36396619999994,
              -22.80417619999997
            ],
            [
              -43.36421829999995,
              -22.804145299999952
            ],
            [
              -43.36436189999995,
              -22.80412769999998
            ],
            [
              -43.36446879999994,
              -22.804114599999938
            ],
            [
              -43.36457559999997,
              -22.804101399999972
            ],
            [
              -43.364859699999954,
              -22.804078199999932
            ],
            [
              -43.36492119999997,
              -22.80407319999995
            ],
            [
              -43.365055899999966,
              -22.80406209999995
            ],
            [
              -43.36513499999995,
              -22.804055599999973
            ],
            [
              -43.36515229999998,
              -22.804055599999963
            ],
            [
              -43.36531409999998,
              -22.804055599999963
            ],
            [
              -43.365318599999966,
              -22.804055599999966
            ],
            [
              -43.36532419999998,
              -22.804055599999963
            ],
            [
              -43.36532959999994,
              -22.804055599999966
            ],
            [
              -43.365331399999945,
              -22.80405569999993
            ],
            [
              -43.36533469999995,
              -22.804055899999987
            ],
            [
              -43.365364399999976,
              -22.80405789999998
            ],
            [
              -43.36539529999993,
              -22.80405999999994
            ],
            [
              -43.365435899999966,
              -22.804062799999937
            ],
            [
              -43.365439099999946,
              -22.804062999999932
            ],
            [
              -43.365475199999935,
              -22.80406549999998
            ],
            [
              -43.36550109999996,
              -22.804072099999928
            ],
            [
              -43.365512799999976,
              -22.80407509999998
            ],
            [
              -43.36555579999998,
              -22.804086099999946
            ],
            [
              -43.36555979999997,
              -22.80408709999994
            ],
            [
              -43.36557329999994,
              -22.80409059999993
            ],
            [
              -43.36558379999997,
              -22.80409319999995
            ],
            [
              -43.36559109999996,
              -22.804095099999927
            ],
            [
              -43.365601599999934,
              -22.804097799999965
            ],
            [
              -43.36560639999993,
              -22.80409899999995
            ],
            [
              -43.36560989999998,
              -22.80409989999999
            ],
            [
              -43.36561249999994,
              -22.80410059999997
            ],
            [
              -43.36561419999998,
              -22.804100999999953
            ],
            [
              -43.36561629999994,
              -22.804101599999967
            ],
            [
              -43.36562059999994,
              -22.80410309999997
            ],
            [
              -43.36566699999997,
              -22.80411889999994
            ],
            [
              -43.36571059999994,
              -22.804133699999955
            ],
            [
              -43.36574929999995,
              -22.80414689999997
            ],
            [
              -43.365769599999965,
              -22.80415379999994
            ],
            [
              -43.36578119999996,
              -22.80415899999997
            ],
            [
              -43.36581399999994,
              -22.80417349999994
            ],
            [
              -43.365881499999944,
              -22.804203499999968
            ],
            [
              -43.36601209999998,
              -22.80426159999996
            ],
            [
              -43.36629949999997,
              -22.80438929999996
            ],
            [
              -43.36632119999996,
              -22.804400199999975
            ],
            [
              -43.366877399999964,
              -22.804678199999955
            ],
            [
              -43.366924099999956,
              -22.804701599999934
            ],
            [
              -43.36724809999999,
              -22.804863599999972
            ],
            [
              -43.367327899999964,
              -22.804903499999966
            ],
            [
              -43.367352899999965,
              -22.80491599999993
            ],
            [
              -43.36744799999997,
              -22.80495439999992
            ],
            [
              -43.36747109999993,
              -22.804963799999936
            ],
            [
              -43.36754319999994,
              -22.804992899999938
            ],
            [
              -43.36763709999997,
              -22.805011499999978
            ],
            [
              -43.367776799999945,
              -22.80503919999995
            ],
            [
              -43.36778999999996,
              -22.805041799999962
            ],
            [
              -43.36781129999997,
              -22.805044299999963
            ],
            [
              -43.367817499999944,
              -22.805044999999943
            ],
            [
              -43.36806439999998,
              -22.80507419999998
            ],
            [
              -43.36864949999995,
              -22.80511259999997
            ],
            [
              -43.36892859999995,
              -22.805130999999957
            ],
            [
              -43.36963929999996,
              -22.80522199999995
            ],
            [
              -43.36992289999995,
              -22.80527159999997
            ],
            [
              -43.369986799999936,
              -22.805282799999933
            ],
            [
              -43.37020519999993,
              -22.805354799999975
            ],
            [
              -43.37024199999996,
              -22.80536699999993
            ],
            [
              -43.37027279999995,
              -22.805388499999932
            ],
            [
              -43.37030779999998,
              -22.805412999999938
            ],
            [
              -43.37041259999995,
              -22.80548639999995
            ],
            [
              -43.37043339999997,
              -22.805505499999985
            ],
            [
              -43.370685299999934,
              -22.805735999999968
            ],
            [
              -43.37085029999998,
              -22.80588719999997
            ],
            [
              -43.37091909999998,
              -22.805949099999964
            ],
            [
              -43.37094109999998,
              -22.805968899999982
            ],
            [
              -43.37100339999995,
              -22.806024999999977
            ],
            [
              -43.37118909999998,
              -22.806192299999967
            ],
            [
              -43.371342899999945,
              -22.80633079999996
            ],
            [
              -43.37162269999993,
              -22.80658279999994
            ],
            [
              -43.37173729999995,
              -22.80668599999996
            ],
            [
              -43.37187129999995,
              -22.806794799999974
            ],
            [
              -43.37198619999998,
              -22.80688809999998
            ],
            [
              -43.372064799999976,
              -22.806951899999945
            ],
            [
              -43.37218679999996,
              -22.807050899999975
            ],
            [
              -43.37226609999994,
              -22.807115299999968
            ],
            [
              -43.37233999999995,
              -22.80718349999995
            ],
            [
              -43.37257679999993,
              -22.807248299999966
            ],
            [
              -43.37260999999995,
              -22.807257399999973
            ],
            [
              -43.37261209999997,
              -22.80725769999998
            ],
            [
              -43.37281959999996,
              -22.807289699999952
            ],
            [
              -43.37302919999996,
              -22.807322099999965
            ],
            [
              -43.37321939999998,
              -22.807351399999952
            ],
            [
              -43.373292299999946,
              -22.80736259999997
            ],
            [
              -43.37337359999998,
              -22.807376899999944
            ],
            [
              -43.37368969999994,
              -22.807432599999974
            ],
            [
              -43.37370059999995,
              -22.80743419999993
            ],
            [
              -43.37383879999993,
              -22.80745469999994
            ],
            [
              -43.37396099999995,
              -22.807472699999952
            ],
            [
              -43.374129299999936,
              -22.807494799999965
            ],
            [
              -43.37421989999996,
              -22.80751889999993
            ],
            [
              -43.374284399999965,
              -22.807535999999963
            ],
            [
              -43.37450899999993,
              -22.80764119999997
            ],
            [
              -43.37457469999998,
              -22.807685899999964
            ],
            [
              -43.37484729999994,
              -22.807871499999976
            ],
            [
              -43.37485019999997,
              -22.807873599999937
            ],
            [
              -43.37510449999996,
              -22.808067299999948
            ],
            [
              -43.37514919999995,
              -22.808101199999953
            ],
            [
              -43.37535109999993,
              -22.80824759999996
            ],
            [
              -43.37535419999995,
              -22.80824959999995
            ],
            [
              -43.37553529999997,
              -22.808366099999947
            ],
            [
              -43.37560769999993,
              -22.808408099999948
            ],
            [
              -43.37576549999994,
              -22.808499699999974
            ],
            [
              -43.375845099999935,
              -22.808570799999927
            ],
            [
              -43.375924699999985,
              -22.808641899999934
            ],
            [
              -43.376129599999956,
              -22.808914099999978
            ],
            [
              -43.37618299999997,
              -22.808984899999928
            ],
            [
              -43.376266199999975,
              -22.80909549999996
            ],
            [
              -43.376322699999946,
              -22.809170599999963
            ],
            [
              -43.37635679999994,
              -22.809278699999933
            ],
            [
              -43.37644779999994,
              -22.80990689999993
            ],
            [
              -43.37651249999993,
              -22.81032289999996
            ],
            [
              -43.37651319999998,
              -22.810327599999933
            ],
            [
              -43.37654599999996,
              -22.810484899999953
            ],
            [
              -43.37663259999994,
              -22.81062329999998
            ],
            [
              -43.376734899999974,
              -22.810739799999965
            ],
            [
              -43.37676759999994,
              -22.81076369999993
            ],
            [
              -43.37677179999997,
              -22.810766799999953
            ],
            [
              -43.37684009999998,
              -22.810816599999946
            ],
            [
              -43.376886999999954,
              -22.81083789999996
            ],
            [
              -43.37693389999998,
              -22.810859199999975
            ],
            [
              -43.37699649999996,
              -22.810870599999927
            ],
            [
              -43.377169899999956,
              -22.810887699999963
            ],
            [
              -43.37786609999995,
              -22.81083429999995
            ],
            [
              -43.37795089999997,
              -22.810825799999975
            ],
            [
              -43.37854859999993,
              -22.810765399999983
            ],
            [
              -43.37866299999996,
              -22.810748999999934
            ],
            [
              -43.37943579999995,
              -22.81063799999998
            ],
            [
              -43.37951799999996,
              -22.81062609999998
            ],
            [
              -43.379606199999955,
              -22.810628999999942
            ],
            [
              -43.379654499999965,
              -22.810647499999956
            ],
            [
              -43.37971239999996,
              -22.810675799999956
            ],
            [
              -43.37981209999999,
              -22.810750499999973
            ],
            [
              -43.379852599999936,
              -22.81078369999994
            ],
            [
              -43.37993249999994,
              -22.810862699999973
            ],
            [
              -43.38001839999998,
              -22.810947399999975
            ],
            [
              -43.380089399999974,
              -22.810994299999948
            ],
            [
              -43.380124999999964,
              -22.811007799999977
            ],
            [
              -43.38016049999993,
              -22.81102129999993
            ],
            [
              -43.380302599999936,
              -22.81105539999993
            ],
            [
              -43.38057409999993,
              -22.811095199999954
            ],
            [
              -43.38076319999993,
              -22.811144099999975
            ],
            [
              -43.38095219999997,
              -22.81116059999994
            ],
            [
              -43.38109429999997,
              -22.81118099999998
            ],
            [
              -43.38126599999998,
              -22.811289799999937
            ],
            [
              -43.38143409999998,
              -22.811395999999945
            ],
            [
              -43.38163659999998,
              -22.811505999999948
            ],
            [
              -43.38203869999995,
              -22.811709399999927
            ],
            [
              -43.38206659999997,
              -22.81172349999997
            ],
            [
              -43.382147799999984,
              -22.81174199999998
            ],
            [
              -43.382187199999976,
              -22.811750999999955
            ],
            [
              -43.38222859999996,
              -22.811760399999955
            ],
            [
              -43.382352399999945,
              -22.811783599999952
            ],
            [
              -43.38259249999993,
              -22.811828599999952
            ],
            [
              -43.38284519999996,
              -22.811875099999945
            ],
            [
              -43.38287109999993,
              -22.811879799999932
            ],
            [
              -43.383001899999954,
              -22.81193379999996
            ],
            [
              -43.383158699999974,
              -22.812030799999942
            ],
            [
              -43.38325669999995,
              -22.81210359999994
            ],
            [
              -43.38342259999996,
              -22.81222659999998
            ],
            [
              -43.38357039999994,
              -22.81231759999998
            ],
            [
              -43.38370969999994,
              -22.812417099999955
            ],
            [
              -43.383721899999955,
              -22.812426899999927
            ],
            [
              -43.38377429999997,
              -22.812469099999934
            ],
            [
              -43.38382629999995,
              -22.81251089999995
            ],
            [
              -43.38397409999993,
              -22.812695699999953
            ],
            [
              -43.38407879999994,
              -22.81288669999997
            ],
            [
              -43.384087799999975,
              -22.81290319999994
            ],
            [
              -43.384292499999965,
              -22.81328129999997
            ],
            [
              -43.38430959999994,
              -22.813324299999973
            ],
            [
              -43.384391999999934,
              -22.813531499999947
            ],
            [
              -43.38448299999993,
              -22.81371339999998
            ],
            [
              -43.38448399999993,
              -22.81371469999993
            ],
            [
              -43.38451219999996,
              -22.813747999999972
            ],
            [
              -43.384559699999954,
              -22.813804099999967
            ],
            [
              -43.38460809999998,
              -22.813861199999955
            ],
            [
              -43.38471889999994,
              -22.81393799999995
            ],
            [
              -43.38478569999995,
              -22.813967799999936
            ],
            [
              -43.384852499999965,
              -22.813997699999952
            ],
            [
              -43.38485449999996,
              -22.81399799999997
            ],
            [
              -43.38494629999997,
              -22.814013799999938
            ],
            [
              -43.38503549999996,
              -22.814029099999964
            ],
            [
              -43.38516089999996,
              -22.81405069999994
            ],
            [
              -43.385180899999966,
              -22.81405409999996
            ],
            [
              -43.38524599999994,
              -22.81406529999998
            ],
            [
              -43.38527389999996,
              -22.81407009999998
            ],
            [
              -43.38543889999994,
              -22.814098499999933
            ],
            [
              -43.38564169999995,
              -22.814133399999942
            ],
            [
              -43.38568049999998,
              -22.81413999999995
            ],
            [
              -43.385842699999955,
              -22.81416789999997
            ],
            [
              -43.386013899999966,
              -22.814197299999933
            ],
            [
              -43.38608769999996,
              -22.81420999999994
            ],
            [
              -43.386208599999975,
              -22.81423079999996
            ],
            [
              -43.38624909999993,
              -22.814242499999974
            ],
            [
              -43.386272599999984,
              -22.81424929999997
            ],
            [
              -43.38632179999996,
              -22.814263499999985
            ],
            [
              -43.38633119999997,
              -22.814266299999925
            ],
            [
              -43.386347099999966,
              -22.81427089999994
            ],
            [
              -43.386359899999945,
              -22.814274599999973
            ],
            [
              -43.38636139999995,
              -22.814274999999952
            ],
            [
              -43.386364399999934,
              -22.814275899999924
            ],
            [
              -43.38636719999994,
              -22.814276799999952
            ],
            [
              -43.38659339999999,
              -22.81434809999996
            ],
            [
              -43.38700589999996,
              -22.814535799999938
            ],
            [
              -43.38719779999997,
              -22.81462309999994
            ],
            [
              -43.38738149999995,
              -22.81470279999996
            ],
            [
              -43.387584499999946,
              -22.81479079999997
            ],
            [
              -43.387700999999936,
              -22.814804999999968
            ],
            [
              -43.38780429999997,
              -22.81479949999993
            ],
            [
              -43.38780619999994,
              -22.814799399999963
            ],
            [
              -43.38783289999998,
              -22.814792499999946
            ],
            [
              -43.387905699999976,
              -22.81477379999996
            ],
            [
              -43.38798579999997,
              -22.814717399999953
            ],
            [
              -43.38826229999995,
              -22.81454059999993
            ],
            [
              -43.38835179999995,
              -22.81448339999997
            ],
            [
              -43.388369799999964,
              -22.814471899999944
            ],
            [
              -43.38851119999998,
              -22.814381499999968
            ],
            [
              -43.38854569999995,
              -22.81435889999994
            ],
            [
              -43.38865709999993,
              -22.81428589999996
            ],
            [
              -43.38884939999997,
              -22.81415979999997
            ],
            [
              -43.38885259999995,
              -22.81415739999994
            ],
            [
              -43.38886209999998,
              -22.81415049999998
            ],
            [
              -43.38911959999996,
              -22.813960699999935
            ],
            [
              -43.38918959999995,
              -22.813924599999947
            ],
            [
              -43.38925969999997,
              -22.81388839999994
            ],
            [
              -43.389382499999954,
              -22.813824299999958
            ],
            [
              -43.38965539999998,
              -22.81373619999994
            ],
            [
              -43.38986909999994,
              -22.813671899999978
            ],
            [
              -43.39000509999994,
              -22.813630999999923
            ],
            [
              -43.39012169999995,
              -22.813636699999954
            ],
            [
              -43.39023769999995,
              -22.81366099999996
            ],
            [
              -43.39045319999997,
              -22.81376889999996
            ],
            [
              -43.39055589999999,
              -22.813820399999933
            ],
            [
              -43.39103229999995,
              -22.813291899999964
            ],
            [
              -43.39120719999994,
              -22.813097199999962
            ],
            [
              -43.391233899999975,
              -22.81306829999994
            ],
            [
              -43.39202729999994,
              -22.812188199999973
            ],
            [
              -43.392095099999956,
              -22.81211289999993
            ],
            [
              -43.39349859999993,
              -22.810555999999956
            ],
            [
              -43.39473499999997,
              -22.809184499999954
            ],
            [
              -43.39481489999997,
              -22.80909589999993
            ],
            [
              -43.39540389999996,
              -22.808442399999926
            ],
            [
              -43.396285199999966,
              -22.807532999999975
            ]
          ]
        ]
      }
    }
  ]
}
