{
  "type": "FeatureCollection",
  "features": [
    {
      "type": "Feature",
      "properties": {
        "id": "inea-uc-312",
        "name": "Área de Proteção Ambiental Limoeiro",
        "category": "Área de proteção ambiental",
        "legalAct": "DECRETO N. 4.969 DE 20/04/2010",
        "registeredAreaHa": 10.05560889,
        "sourceUrl": "https://geoportal.inea.rj.gov.br/server/rest/services/Unidades_de_Conserva%C3%A7%C3%A3o/FeatureServer/11",
        "sourceDate": "Cadastro 2024, ICMS Ecológico 2025",
        "geometryMethod": "Polígono publicado pelo INEA. Marcador calculado como ponto interno do polígono.",
        "overlayColor": "#2f9966",
        "markerNumber": null
      },
      "geometry": {
        "type": "Polygon",
        "coordinates": [
          [
            [
              -43.33863917265967,
              -22.76876136836785
            ],
            [
              -43.338838471418185,
              -22.768527483481996
            ],
            [
              -43.339015770061685,
              -22.768248567742674
            ],
            [
              -43.339139661566094,
              -22.768124409139567
            ],
            [
              -43.33924719889899,
              -22.768020988902904
            ],
            [
              -43.339366604585045,
              -22.768001323427793
            ],
            [
              -43.33947291434339,
              -22.7679994429453
            ],
            [
              -43.33978254642727,
              -22.768229663093926
            ],
            [
              -43.33995496534925,
              -22.76835391792442
            ],
            [
              -43.340191359343684,
              -22.76851467803536
            ],
            [
              -43.34056236116396,
              -22.768730600762062
            ],
            [
              -43.340809464285314,
              -22.768804854186094
            ],
            [
              -43.34110060001257,
              -22.76870035476299
            ],
            [
              -43.34115976641005,
              -22.768868232108627
            ],
            [
              -43.341136943415165,
              -22.76915771758007
            ],
            [
              -43.34110055144919,
              -22.7695038108776
            ],
            [
              -43.341131607737395,
              -22.769865541586885
            ],
            [
              -43.341143234172876,
              -22.77023602989421
            ],
            [
              -43.341071779439,
              -22.77055189158195
            ],
            [
              -43.34080887343071,
              -22.77098523620505
            ],
            [
              -43.34060367332069,
              -22.77117426020931
            ],
            [
              -43.34033797042093,
              -22.77130590476901
            ],
            [
              -43.34007294830786,
              -22.771532962001853
            ],
            [
              -43.33981758221558,
              -22.771731378525597
            ],
            [
              -43.33959875377939,
              -22.77189666222654
            ],
            [
              -43.33918342077817,
              -22.77187558391642
            ],
            [
              -43.338965605877945,
              -22.771957097567274
            ],
            [
              -43.338728912409344,
              -22.77210543894022
            ],
            [
              -43.33834541271051,
              -22.772239262557303
            ],
            [
              -43.33803728519251,
              -22.771512046469184
            ],
            [
              -43.337770500408226,
              -22.77120102673137
            ],
            [
              -43.33838308710967,
              -22.77040454665794
            ],
            [
              -43.33840623206186,
              -22.77017768817522
            ],
            [
              -43.33844885543028,
              -22.769849581318496
            ],
            [
              -43.338535441257534,
              -22.76961452191812
            ],
            [
              -43.3389363949986,
              -22.769218460488947
            ],
            [
              -43.33849215778679,
              -22.768933074127528
            ],
            [
              -43.33863917265967,
              -22.76876136836785
            ]
          ]
        ]
      }
    },
    {
      "type": "Feature",
      "properties": {
        "id": "inea-uc-314",
        "name": "Parque Natural Municipal Jardim Jurema",
        "category": "Parque natural municipal",
        "legalAct": "DECRETO N. 4.220 DE 25/03/2004",
        "registeredAreaHa": 14.82052884,
        "sourceUrl": "https://geoportal.inea.rj.gov.br/server/rest/services/Unidades_de_Conserva%C3%A7%C3%A3o/FeatureServer/11",
        "sourceDate": "Cadastro 2024, ICMS Ecológico 2025",
        "geometryMethod": "Polígono publicado pelo INEA. Marcador calculado como ponto interno do polígono.",
        "overlayColor": "#dfb845",
        "markerNumber": null
      },
      "geometry": {
        "type": "Polygon",
        "coordinates": [
          [
            [
              -43.34165705642789,
              -22.784079622401688
            ],
            [
              -43.342111362449316,
              -22.78386069863746
            ],
            [
              -43.342226131230916,
              -22.78379213162668
            ],
            [
              -43.342347813101014,
              -22.78378374275053
            ],
            [
              -43.34247554381118,
              -22.783844629551094
            ],
            [
              -43.34301777205252,
              -22.78416950064706
            ],
            [
              -43.34337992724182,
              -22.78384841569693
            ],
            [
              -43.34369720536171,
              -22.783841051148706
            ],
            [
              -43.344010253070685,
              -22.783951826940378
            ],
            [
              -43.34426704908492,
              -22.784026176591798
            ],
            [
              -43.344482877382745,
              -22.784078595375952
            ],
            [
              -43.3446651825521,
              -22.78413305562105
            ],
            [
              -43.34485261205834,
              -22.78418995842497
            ],
            [
              -43.34503706121137,
              -22.78428028273395
            ],
            [
              -43.3451966522037,
              -22.784391452428668
            ],
            [
              -43.34528219661604,
              -22.784466814716776
            ],
            [
              -43.34532716271832,
              -22.784584365101384
            ],
            [
              -43.3453051086438,
              -22.7847036089095
            ],
            [
              -43.3452389922856,
              -22.784843902249275
            ],
            [
              -43.345160742274345,
              -22.784921942718572
            ],
            [
              -43.345005048943726,
              -22.78501112668719
            ],
            [
              -43.34474105115851,
              -22.785106355898648
            ],
            [
              -43.34457009993014,
              -22.78517865509596
            ],
            [
              -43.344428722907196,
              -22.785222892747267
            ],
            [
              -43.3443211522993,
              -22.78526545316318
            ],
            [
              -43.34421786426294,
              -22.785308058545137
            ],
            [
              -43.34408705067682,
              -22.785419733658756
            ],
            [
              -43.34407007957037,
              -22.785489176609264
            ],
            [
              -43.344073115681624,
              -22.785592445759807
            ],
            [
              -43.34408062412149,
              -22.785679879647738
            ],
            [
              -43.34418863899441,
              -22.785723423921883
            ],
            [
              -43.34431001959166,
              -22.78578128270507
            ],
            [
              -43.344446162560196,
              -22.78580600147088
            ],
            [
              -43.3446010599909,
              -22.785764326887257
            ],
            [
              -43.34477422894747,
              -22.785696209537456
            ],
            [
              -43.344911455599124,
              -22.785631046460665
            ],
            [
              -43.345045174894835,
              -22.785559189729856
            ],
            [
              -43.345146502409136,
              -22.78549365433374
            ],
            [
              -43.34526122352661,
              -22.785508161297653
            ],
            [
              -43.34530302041799,
              -22.78561513475564
            ],
            [
              -43.345327147429884,
              -22.78569861702261
            ],
            [
              -43.3453473605922,
              -22.78580869404102
            ],
            [
              -43.345320865665315,
              -22.785921615615063
            ],
            [
              -43.34534834085315,
              -22.786025109596217
            ],
            [
              -43.34542986979255,
              -22.786112517403748
            ],
            [
              -43.34552293253728,
              -22.786136788307196
            ],
            [
              -43.34563769502353,
              -22.786147966880094
            ],
            [
              -43.345676704915945,
              -22.786188323057672
            ],
            [
              -43.3456392373609,
              -22.786317777768208
            ],
            [
              -43.34550754243901,
              -22.786519500199855
            ],
            [
              -43.345427074699614,
              -22.786641850266093
            ],
            [
              -43.345390127852056,
              -22.78672802959988
            ],
            [
              -43.34541614883603,
              -22.78678965114651
            ],
            [
              -43.345468278038474,
              -22.78683656068375
            ],
            [
              -43.345555509579064,
              -22.78678958189862
            ],
            [
              -43.345607931061124,
              -22.786851589254507
            ],
            [
              -43.34578524409358,
              -22.78672200773945
            ],
            [
              -43.345906186721045,
              -22.78663590664683
            ],
            [
              -43.34607584292576,
              -22.78652085188081
            ],
            [
              -43.34619925059491,
              -22.78663162407524
            ],
            [
              -43.34632893103526,
              -22.78677633668364
            ],
            [
              -43.34642288500811,
              -22.786892005686568
            ],
            [
              -43.34653676076284,
              -22.7870652277031
            ],
            [
              -43.34665541641426,
              -22.787269562665234
            ],
            [
              -43.346725832431105,
              -22.787447948589
            ],
            [
              -43.346594273306884,
              -22.787491827410836
            ],
            [
              -43.346409035448566,
              -22.787550410148334
            ],
            [
              -43.346275930389716,
              -22.787649999273107
            ],
            [
              -43.34620271118611,
              -22.78773391501315
            ],
            [
              -43.346156409590485,
              -22.787875215593722
            ],
            [
              -43.34611636098117,
              -22.788027830544955
            ],
            [
              -43.34610576516877,
              -22.788083538149714
            ],
            [
              -43.34608640816113,
              -22.788139377055543
            ],
            [
              -43.34591007988622,
              -22.788137546935236
            ],
            [
              -43.345880095589905,
              -22.788088911599026
            ],
            [
              -43.345761144061385,
              -22.787915003399643
            ],
            [
              -43.34565525788378,
              -22.787720358632704
            ],
            [
              -43.34553688911608,
              -22.787658431316597
            ],
            [
              -43.345386704132984,
              -22.787606933438184
            ],
            [
              -43.34528605920423,
              -22.787615877196032
            ],
            [
              -43.34522288812577,
              -22.787638266717654
            ],
            [
              -43.345070209322614,
              -22.78776437954749
            ],
            [
              -43.344874908050485,
              -22.787637736117656
            ],
            [
              -43.34473018914679,
              -22.78756476152946
            ],
            [
              -43.344551505547486,
              -22.78746761046692
            ],
            [
              -43.344384898044495,
              -22.787434115217227
            ],
            [
              -43.344282134313005,
              -22.787433048621352
            ],
            [
              -43.34418413339097,
              -22.787392324621106
            ],
            [
              -43.3440951265888,
              -22.78731595689092
            ],
            [
              -43.34390345318178,
              -22.787230582450416
            ],
            [
              -43.34375407039386,
              -22.78718932425293
            ],
            [
              -43.34362980297294,
              -22.78719597563875
            ],
            [
              -43.34347522660039,
              -22.787230104910446
            ],
            [
              -43.343312327901565,
              -22.78724429711164
            ],
            [
              -43.34319480539591,
              -22.78724559932997
            ],
            [
              -43.343082534930886,
              -22.787226776519542
            ],
            [
              -43.34299673331253,
              -22.78719592167947
            ],
            [
              -43.34286111195064,
              -22.787127926637513
            ],
            [
              -43.34272562368852,
              -22.786982415431147
            ],
            [
              -43.34264870827121,
              -22.786880143628757
            ],
            [
              -43.342601560413584,
              -22.786798261255786
            ],
            [
              -43.3425801799313,
              -22.78669301629475
            ],
            [
              -43.342542097239914,
              -22.78656396807758
            ],
            [
              -43.34251699896021,
              -22.78643792449561
            ],
            [
              -43.34247105169766,
              -22.78634215029497
            ],
            [
              -43.34241201929922,
              -22.786266093730262
            ],
            [
              -43.342352794445844,
              -22.78620591739417
            ],
            [
              -43.342246038623735,
              -22.786180983690418
            ],
            [
              -43.34214279735209,
              -22.786219617666287
            ],
            [
              -43.342043933081015,
              -22.7862503555944
            ],
            [
              -43.341941074920605,
              -22.786257228213575
            ],
            [
              -43.341821521745715,
              -22.786228190003957
            ],
            [
              -43.34170634737001,
              -22.78619125664625
            ],
            [
              -43.341582897432716,
              -22.786130413013222
            ],
            [
              -43.341502024098986,
              -22.78608986528014
            ],
            [
              -43.34140965742972,
              -22.786001370192146
            ],
            [
              -43.34131944643525,
              -22.785960904297326
            ],
            [
              -43.34119604416202,
              -22.785896090157518
            ],
            [
              -43.34098973698668,
              -22.785792108743816
            ],
            [
              -43.34082236955664,
              -22.785674477420198
            ],
            [
              -43.340700258709944,
              -22.78557547825081
            ],
            [
              -43.34064396025047,
              -22.7855003416924
            ],
            [
              -43.340568208555965,
              -22.785363657331885
            ],
            [
              -43.340568799410505,
              -22.785267705065596
            ],
            [
              -43.34067824330623,
              -22.785158765689538
            ],
            [
              -43.34077733330725,
              -22.785109508022373
            ],
            [
              -43.34088783840297,
              -22.785090202276113
            ],
            [
              -43.34101035844111,
              -22.785046093227695
            ],
            [
              -43.341116722158915,
              -22.784987463725567
            ],
            [
              -43.341173427111926,
              -22.784922199025267
            ],
            [
              -43.34131239575038,
              -22.78478878190177
            ],
            [
              -43.341473074023035,
              -22.78458864137778
            ],
            [
              -43.34151881983764,
              -22.784346904511022
            ],
            [
              -43.34154594968578,
              -22.78422806629725
            ],
            [
              -43.34159275670032,
              -22.78414123675372
            ],
            [
              -43.34165705642789,
              -22.784079622401688
            ]
          ]
        ]
      }
    },
    {
      "type": "Feature",
      "properties": {
        "id": "inea-uc-315",
        "name": "Área de Proteção Ambiental do Parque Vitória",
        "category": "Área de proteção ambiental",
        "legalAct": "DECRETO N. 4.969 DE 20/04/2010",
        "registeredAreaHa": 2.90649725,
        "sourceUrl": "https://geoportal.inea.rj.gov.br/server/rest/services/Unidades_de_Conserva%C3%A7%C3%A3o/FeatureServer/11",
        "sourceDate": "Cadastro 2024, ICMS Ecológico 2025",
        "geometryMethod": "Polígono publicado pelo INEA. Marcador calculado como ponto interno do polígono.",
        "overlayColor": "#2f9966",
        "markerNumber": null
      },
      "geometry": {
        "type": "Polygon",
        "coordinates": [
          [
            [
              -43.34263069485058,
              -22.781507077514792
            ],
            [
              -43.342399167087876,
              -22.781392965238354
            ],
            [
              -43.34224866284547,
              -22.78122011644042
            ],
            [
              -43.34215589957507,
              -22.780921267227836
            ],
            [
              -43.34203101611848,
              -22.78062208346758
            ],
            [
              -43.341884292625934,
              -22.780136493629502
            ],
            [
              -43.34203846340433,
              -22.78005274876049
            ],
            [
              -43.34218173080217,
              -22.779905543231312
            ],
            [
              -43.342305821056755,
              -22.77978437847149
            ],
            [
              -43.342853220399775,
              -22.779707179767723
            ],
            [
              -43.343325740390576,
              -22.77981634757155
            ],
            [
              -43.34387152095389,
              -22.779844355158023
            ],
            [
              -43.34390364203932,
              -22.779844687907246
            ],
            [
              -43.34390148456583,
              -22.78002339758692
            ],
            [
              -43.34380161575189,
              -22.780312800320676
            ],
            [
              -43.343830499278056,
              -22.780581197589363
            ],
            [
              -43.34378936069038,
              -22.78066268875728
            ],
            [
              -43.34353754692023,
              -22.780898383079045
            ],
            [
              -43.343317763404,
              -22.781141857435962
            ],
            [
              -43.343073798017194,
              -22.781392526369135
            ],
            [
              -43.34283136057872,
              -22.781516609429158
            ],
            [
              -43.34263069485058,
              -22.781507077514792
            ]
          ]
        ]
      }
    },
    {
      "type": "Feature",
      "properties": {
        "id": "inea-uc-316",
        "name": "Área de Proteção Ambiental Aeronáutica",
        "category": "Área de proteção ambiental",
        "legalAct": "DECRETO N. 4.969 DE 20/04/2010",
        "registeredAreaHa": 11.63673816,
        "sourceUrl": "https://geoportal.inea.rj.gov.br/server/rest/services/Unidades_de_Conserva%C3%A7%C3%A3o/FeatureServer/11",
        "sourceDate": "Cadastro 2024, ICMS Ecológico 2025",
        "geometryMethod": "Polígono publicado pelo INEA. Marcador calculado como ponto interno do polígono.",
        "overlayColor": "#2f9966",
        "markerNumber": null
      },
      "geometry": {
        "type": "Polygon",
        "coordinates": [
          [
            [
              -43.33221354362008,
              -22.77585216926748
            ],
            [
              -43.33271066006887,
              -22.7756566503593
            ],
            [
              -43.33352258419984,
              -22.775636457881454
            ],
            [
              -43.333194825380815,
              -22.775280524202145
            ],
            [
              -43.33370049438224,
              -22.774884442987936
            ],
            [
              -43.333880076404284,
              -22.774949638440358
            ],
            [
              -43.33405364106267,
              -22.77507418375192
            ],
            [
              -43.334453940996525,
              -22.775435911763186
            ],
            [
              -43.33524133971599,
              -22.775844363152164
            ],
            [
              -43.335461545014255,
              -22.776145343757893
            ],
            [
              -43.33537589088456,
              -22.77637842644851
            ],
            [
              -43.33529160822104,
              -22.77655933676925
            ],
            [
              -43.33548467827523,
              -22.776893485271387
            ],
            [
              -43.33527335558085,
              -22.776963466016277
            ],
            [
              -43.33542898326095,
              -22.777198062265985
            ],
            [
              -43.335508923997615,
              -22.777299253083342
            ],
            [
              -43.33356810068721,
              -22.778353296292792
            ],
            [
              -43.333245571425955,
              -22.778117909539073
            ],
            [
              -43.33289439336147,
              -22.778279233525044
            ],
            [
              -43.332699565132714,
              -22.778265823733996
            ],
            [
              -43.33257885183247,
              -22.77812716716024
            ],
            [
              -43.332577920134845,
              -22.777885822398023
            ],
            [
              -43.332286364424135,
              -22.777413180998764
            ],
            [
              -43.33216999844649,
              -22.7772500484761
            ],
            [
              -43.33151020992818,
              -22.77747253805243
            ],
            [
              -43.33089169939239,
              -22.776484695737395
            ],
            [
              -43.33049746628501,
              -22.775186297734788
            ],
            [
              -43.33072793104907,
              -22.775119797366038
            ],
            [
              -43.33113964967504,
              -22.775165919097194
            ],
            [
              -43.331383248138366,
              -22.775264045024855
            ],
            [
              -43.33163814568377,
              -22.775810312121525
            ],
            [
              -43.33195708215351,
              -22.775964182526316
            ],
            [
              -43.33221354362008,
              -22.77585216926748
            ]
          ]
        ]
      }
    },
    {
      "type": "Feature",
      "properties": {
        "id": "inea-uc-319",
        "name": "Área de Proteção Ambiental Andorinhas",
        "category": "Área de proteção ambiental",
        "legalAct": "DECRETO N. 4.969 DE 20/04/2010",
        "registeredAreaHa": 16.22114195,
        "sourceUrl": "https://geoportal.inea.rj.gov.br/server/rest/services/Unidades_de_Conserva%C3%A7%C3%A3o/FeatureServer/11",
        "sourceDate": "Cadastro 2024, ICMS Ecológico 2025",
        "geometryMethod": "Polígono publicado pelo INEA. Marcador calculado como ponto interno do polígono.",
        "overlayColor": "#2f9966",
        "markerNumber": null
      },
      "geometry": {
        "type": "Polygon",
        "coordinates": [
          [
            [
              -43.34517686891729,
              -22.769009822270956
            ],
            [
              -43.34522354642945,
              -22.768985215920353
            ],
            [
              -43.34526116237271,
              -22.768932666734603
            ],
            [
              -43.34532484336677,
              -22.768918166965307
            ],
            [
              -43.34535983958489,
              -22.768900608601644
            ],
            [
              -43.345405261643464,
              -22.768914701877467
            ],
            [
              -43.34545403637463,
              -22.76896510168348
            ],
            [
              -43.34549241404358,
              -22.769040385730648
            ],
            [
              -43.34552344425152,
              -22.769101256343276
            ],
            [
              -43.345558930600134,
              -22.76917087016493
            ],
            [
              -43.34557743684917,
              -22.769207173098028
            ],
            [
              -43.345603329230244,
              -22.76925796500854
            ],
            [
              -43.34561748455923,
              -22.769329800155614
            ],
            [
              -43.34563628668519,
              -22.769373005385305
            ],
            [
              -43.345643283410716,
              -22.76943400999698
            ],
            [
              -43.34552270590808,
              -22.769497275504303
            ],
            [
              -43.34556035782413,
              -22.76958010216537
            ],
            [
              -43.345625276285425,
              -22.769645291322586
            ],
            [
              -43.34569355011717,
              -22.769697288324654
            ],
            [
              -43.34572402544337,
              -22.769789683772316
            ],
            [
              -43.345715561923505,
              -22.769850527405364
            ],
            [
              -43.345822342926745,
              -22.769969912406886
            ],
            [
              -43.345921697328436,
              -22.77006413167972
            ],
            [
              -43.34603286162723,
              -22.77014055246993
            ],
            [
              -43.34613703909303,
              -22.770194078319467
            ],
            [
              -43.346231830334546,
              -22.770307487326107
            ],
            [
              -43.34644284636016,
              -22.770462870390556
            ],
            [
              -43.3465631720527,
              -22.77064981965887
            ],
            [
              -43.34669255211952,
              -22.770777013473733
            ],
            [
              -43.346801897089854,
              -22.770897619754766
            ],
            [
              -43.346911126946914,
              -22.77102778313111
            ],
            [
              -43.34700145755119,
              -22.771229434516226
            ],
            [
              -43.347063969426586,
              -22.771387787141975
            ],
            [
              -43.34715316328782,
              -22.771469951902127
            ],
            [
              -43.3472166518269,
              -22.771547073264216
            ],
            [
              -43.347287899716775,
              -22.771621885167296
            ],
            [
              -43.34735419414067,
              -22.771679918418833
            ],
            [
              -43.34738728379608,
              -22.77171371404204
            ],
            [
              -43.347311532101465,
              -22.771798950886186
            ],
            [
              -43.34721774720118,
              -22.77188399977217
            ],
            [
              -43.34710404141834,
              -22.771911497443043
            ],
            [
              -43.34703616328819,
              -22.77198486773283
            ],
            [
              -43.34714055659134,
              -22.7720886953624
            ],
            [
              -43.34706474913878,
              -22.772178710304605
            ],
            [
              -43.34694893444572,
              -22.772222910184436
            ],
            [
              -43.34682448266369,
              -22.772231178551387
            ],
            [
              -43.34672279542065,
              -22.772330483490325
            ],
            [
              -43.34663047641533,
              -22.77229368503092
            ],
            [
              -43.34654264862422,
              -22.772311890906426
            ],
            [
              -43.34641562837851,
              -22.772375090763134
            ],
            [
              -43.34625027902706,
              -22.772411607734885
            ],
            [
              -43.34613662990148,
              -22.772434324609748
            ],
            [
              -43.345920442774165,
              -22.7724129684091
            ],
            [
              -43.345676377562654,
              -22.77235309154734
            ],
            [
              -43.3455300128997,
              -22.772310952913507
            ],
            [
              -43.345373832136545,
              -22.772228091178796
            ],
            [
              -43.34524558881276,
              -22.772178972007325
            ],
            [
              -43.34511949037215,
              -22.77216571689972
            ],
            [
              -43.345016289569976,
              -22.772176594199763
            ],
            [
              -43.34491818612531,
              -22.772192303557333
            ],
            [
              -43.344886306957456,
              -22.77205816247953
            ],
            [
              -43.34482591478406,
              -22.771938062516927
            ],
            [
              -43.34451890422401,
              -22.772183382282645
            ],
            [
              -43.34425528775125,
              -22.7724626046908
            ],
            [
              -43.34430806986148,
              -22.772501734193067
            ],
            [
              -43.344337011843606,
              -22.77252318931913
            ],
            [
              -43.344450414554956,
              -22.77262158594269
            ],
            [
              -43.34454811420409,
              -22.772752379743885
            ],
            [
              -43.34463699330258,
              -22.77286082719072
            ],
            [
              -43.34471770655688,
              -22.773005032581555
            ],
            [
              -43.34484569627181,
              -22.77317501434079
            ],
            [
              -43.34501224711744,
              -22.773366507883406
            ],
            [
              -43.34525805341632,
              -22.77354361047459
            ],
            [
              -43.34543196431366,
              -22.773695344989513
            ],
            [
              -43.34547946110814,
              -22.773736783950714
            ],
            [
              -43.345403367671175,
              -22.773838900170457
            ],
            [
              -43.345293861722325,
              -22.773945291767056
            ],
            [
              -43.34511902272465,
              -22.774127467433978
            ],
            [
              -43.34500670909233,
              -22.77425294444311
            ],
            [
              -43.34493769331982,
              -22.774206828107985
            ],
            [
              -43.34487935789588,
              -22.774129758906614
            ],
            [
              -43.34480401809088,
              -22.774059034422176
            ],
            [
              -43.34471882981012,
              -22.773979948041532
            ],
            [
              -43.344642604172755,
              -22.773890746985668
            ],
            [
              -43.34456374442124,
              -22.77380629704835
            ],
            [
              -43.344497102858895,
              -22.773776932384816
            ],
            [
              -43.344412283300194,
              -22.773759326357155
            ],
            [
              -43.34424999793902,
              -22.773755252428323
            ],
            [
              -43.34410548767801,
              -22.77377286924786
            ],
            [
              -43.344017976448356,
              -22.773764792436587
            ],
            [
              -43.34383539698587,
              -22.77373422358086
            ],
            [
              -43.34369155042464,
              -22.773696889125407
            ],
            [
              -43.343570891983006,
              -22.773659793889642
            ],
            [
              -43.3434604804168,
              -22.7736275855699
            ],
            [
              -43.34333901528322,
              -22.773599761445112
            ],
            [
              -43.3432136354009,
              -22.77358440192394
            ],
            [
              -43.34308739216931,
              -22.773583090712417
            ],
            [
              -43.34300245210136,
              -22.77283687015082
            ],
            [
              -43.34291933675786,
              -22.7727316692565
            ],
            [
              -43.342805280239475,
              -22.772619595743127
            ],
            [
              -43.34276732705047,
              -22.77256185477112
            ],
            [
              -43.34271918274396,
              -22.77249444788582
            ],
            [
              -43.342632480004916,
              -22.77241947500413
            ],
            [
              -43.34273428685781,
              -22.772310616567022
            ],
            [
              -43.342867067261295,
              -22.77219730108991
            ],
            [
              -43.34297070063724,
              -22.77211503560571
            ],
            [
              -43.34311430438157,
              -22.77199437356687
            ],
            [
              -43.34323952868124,
              -22.77186664375597
            ],
            [
              -43.343108571203565,
              -22.77174655548447
            ],
            [
              -43.34280318032245,
              -22.77151324976199
            ],
            [
              -43.3424377533995,
              -22.771212045225134
            ],
            [
              -43.34247258773962,
              -22.771189519905764
            ],
            [
              -43.342753502672,
              -22.77100787034227
            ],
            [
              -43.342722397820346,
              -22.770861927461425
            ],
            [
              -43.342708121082865,
              -22.770794939660114
            ],
            [
              -43.34267831215436,
              -22.770758075550166
            ],
            [
              -43.34266562182096,
              -22.77054285249604
            ],
            [
              -43.342777998405836,
              -22.77050463310778
            ],
            [
              -43.34276778840268,
              -22.770389831950553
            ],
            [
              -43.34276474689551,
              -22.770321701110984
            ],
            [
              -43.34277386062514,
              -22.7702071005027
            ],
            [
              -43.342794438012845,
              -22.77010337269795
            ],
            [
              -43.342647124565076,
              -22.77004918674599
            ],
            [
              -43.34270685393807,
              -22.76991632090686
            ],
            [
              -43.34286671382767,
              -22.76974015720791
            ],
            [
              -43.342970923669164,
              -22.76957115930702
            ],
            [
              -43.343041176908734,
              -22.769514541588233
            ],
            [
              -43.34311877041483,
              -22.76949025719499
            ],
            [
              -43.3432019001475,
              -22.7694523022074
            ],
            [
              -43.34318632658767,
              -22.769336838249885
            ],
            [
              -43.34321085379781,
              -22.76922598241862
            ],
            [
              -43.3433351239168,
              -22.76917709347356
            ],
            [
              -43.34340490141494,
              -22.769159896637344
            ],
            [
              -43.343523504905704,
              -22.769138753575977
            ],
            [
              -43.3436761072665,
              -22.76910536444649
            ],
            [
              -43.34378103476689,
              -22.769066541613093
            ],
            [
              -43.343847009931494,
              -22.769035454747836
            ],
            [
              -43.34392790484884,
              -22.7690577984041
            ],
            [
              -43.34400480587698,
              -22.76909085388518
            ],
            [
              -43.344101285146166,
              -22.769133776727806
            ],
            [
              -43.3442685221745,
              -22.769184956246185
            ],
            [
              -43.34438874804226,
              -22.76922175110838
            ],
            [
              -43.344419532735174,
              -22.769313793122475
            ],
            [
              -43.34447659292039,
              -22.769389653635013
            ],
            [
              -43.34456122272212,
              -22.769422789155833
            ],
            [
              -43.34463460470312,
              -22.76942713467997
            ],
            [
              -43.3446849298656,
              -22.769420488690056
            ],
            [
              -43.344727655756685,
              -22.769403010366023
            ],
            [
              -43.34477450503926,
              -22.769364069721465
            ],
            [
              -43.34479812393426,
              -22.76932847275627
            ],
            [
              -43.3448063716167,
              -22.769285548115022
            ],
            [
              -43.34479570925453,
              -22.76923003926032
            ],
            [
              -43.34481597457745,
              -22.76918098663861
            ],
            [
              -43.34480423572677,
              -22.769142157510032
            ],
            [
              -43.34479477126167,
              -22.769036045602487
            ],
            [
              -43.34482563329624,
              -22.76897033753648
            ],
            [
              -43.34497252676067,
              -22.76896827718963
            ],
            [
              -43.345029932285456,
              -22.769015467315402
            ],
            [
              -43.34513418709299,
              -22.76902371589722
            ],
            [
              -43.34517686891729,
              -22.769009822270956
            ]
          ]
        ]
      }
    },
    {
      "type": "Feature",
      "properties": {
        "id": "inea-uc-320",
        "name": "Área de Proteção Ambiental do Jardim Santo Antônio",
        "category": "Área de proteção ambiental",
        "legalAct": "DECRETO N. 4.969 DE 20/04/2010",
        "registeredAreaHa": 3.54283087,
        "sourceUrl": "https://geoportal.inea.rj.gov.br/server/rest/services/Unidades_de_Conserva%C3%A7%C3%A3o/FeatureServer/11",
        "sourceDate": "Cadastro 2024, ICMS Ecológico 2025",
        "geometryMethod": "Polígono publicado pelo INEA. Marcador calculado como ponto interno do polígono.",
        "overlayColor": "#2f9966",
        "markerNumber": null
      },
      "geometry": {
        "type": "Polygon",
        "coordinates": [
          [
            [
              -43.3454962217731,
              -22.78297412358203
            ],
            [
              -43.34525629973842,
              -22.78288971591266
            ],
            [
              -43.345056349870625,
              -22.78282061740273
            ],
            [
              -43.34488968930759,
              -22.782655051314663
            ],
            [
              -43.34477942163295,
              -22.78247517521427
            ],
            [
              -43.344719222813865,
              -22.7821394286169
            ],
            [
              -43.344697018552495,
              -22.78198280808525
            ],
            [
              -43.3447229064368,
              -22.781834133963272
            ],
            [
              -43.34477288625965,
              -22.781685708953482
            ],
            [
              -43.3449508099319,
              -22.78158329505816
            ],
            [
              -43.34507252058029,
              -22.781480297502856
            ],
            [
              -43.34509795970303,
              -22.78136885441427
            ],
            [
              -43.3450186457938,
              -22.781286113188745
            ],
            [
              -43.34511599740529,
              -22.78120520388223
            ],
            [
              -43.34535093989394,
              -22.781036356168002
            ],
            [
              -43.345599786800676,
              -22.78104638450822
            ],
            [
              -43.34575994166789,
              -22.78108528108595
            ],
            [
              -43.34604831287925,
              -22.781147846920714
            ],
            [
              -43.346248980406024,
              -22.781157376137063
            ],
            [
              -43.346447709893816,
              -22.781270572903793
            ],
            [
              -43.34659889941963,
              -22.781443994569884
            ],
            [
              -43.34652763983865,
              -22.781682499273074
            ],
            [
              -43.34659102495579,
              -22.78190182503425
            ],
            [
              -43.34664381965649,
              -22.782217255047346
            ],
            [
              -43.346707685910935,
              -22.782413252394775
            ],
            [
              -43.34672239971895,
              -22.782525112768816
            ],
            [
              -43.34668920214494,
              -22.782614133960266
            ],
            [
              -43.34657650809925,
              -22.782635307598493
            ],
            [
              -43.34647184410027,
              -22.78265656397437
            ],
            [
              -43.34639822469825,
              -22.782767509737795
            ],
            [
              -43.346340665389285,
              -22.782878619178085
            ],
            [
              -43.34621949343477,
              -22.782936940212732
            ],
            [
              -43.346041656996825,
              -22.78303190952012
            ],
            [
              -43.34590451218338,
              -22.78308261689438
            ],
            [
              -43.34567957375327,
              -22.7830877322382
            ],
            [
              -43.3454962217731,
              -22.78297412358203
            ]
          ]
        ]
      }
    },
    {
      "type": "Feature",
      "properties": {
        "id": "inea-uc-312",
        "name": "Área de Proteção Ambiental Limoeiro",
        "category": "Área de proteção ambiental",
        "legalAct": "DECRETO N. 4.969 DE 20/04/2010",
        "registeredAreaHa": 10.05560889,
        "sourceUrl": "https://geoportal.inea.rj.gov.br/server/rest/services/Unidades_de_Conserva%C3%A7%C3%A3o/FeatureServer/11",
        "sourceDate": "Cadastro 2024, ICMS Ecológico 2025",
        "geometryMethod": "Polígono publicado pelo INEA. Marcador calculado como ponto interno do polígono.",
        "overlayColor": "#2f9966",
        "markerNumber": 1.0
      },
      "geometry": {
        "type": "Point",
        "coordinates": [
          -43.33978234119304,
          -22.770027734418818
        ]
      }
    },
    {
      "type": "Feature",
      "properties": {
        "id": "inea-uc-314",
        "name": "Parque Natural Municipal Jardim Jurema",
        "category": "Parque natural municipal",
        "legalAct": "DECRETO N. 4.220 DE 25/03/2004",
        "registeredAreaHa": 14.82052884,
        "sourceUrl": "https://geoportal.inea.rj.gov.br/server/rest/services/Unidades_de_Conserva%C3%A7%C3%A3o/FeatureServer/11",
        "sourceDate": "Cadastro 2024, ICMS Ecológico 2025",
        "geometryMethod": "Polígono publicado pelo INEA. Marcador calculado como ponto interno do polígono.",
        "overlayColor": "#dfb845",
        "markerNumber": 2.0
      },
      "geometry": {
        "type": "Point",
        "coordinates": [
          -43.343295837537255,
          -22.785949679084457
        ]
      }
    },
    {
      "type": "Feature",
      "properties": {
        "id": "inea-uc-315",
        "name": "Área de Proteção Ambiental do Parque Vitória",
        "category": "Área de proteção ambiental",
        "legalAct": "DECRETO N. 4.969 DE 20/04/2010",
        "registeredAreaHa": 2.90649725,
        "sourceUrl": "https://geoportal.inea.rj.gov.br/server/rest/services/Unidades_de_Conserva%C3%A7%C3%A3o/FeatureServer/11",
        "sourceDate": "Cadastro 2024, ICMS Ecológico 2025",
        "geometryMethod": "Polígono publicado pelo INEA. Marcador calculado como ponto interno do polígono.",
        "overlayColor": "#2f9966",
        "markerNumber": 3.0
      },
      "geometry": {
        "type": "Point",
        "coordinates": [
          -43.34291876313001,
          -22.780601518487362
        ]
      }
    },
    {
      "type": "Feature",
      "properties": {
        "id": "inea-uc-316",
        "name": "Área de Proteção Ambiental Aeronáutica",
        "category": "Área de proteção ambiental",
        "legalAct": "DECRETO N. 4.969 DE 20/04/2010",
        "registeredAreaHa": 11.63673816,
        "sourceUrl": "https://geoportal.inea.rj.gov.br/server/rest/services/Unidades_de_Conserva%C3%A7%C3%A3o/FeatureServer/11",
        "sourceDate": "Cadastro 2024, ICMS Ecológico 2025",
        "geometryMethod": "Polígono publicado pelo INEA. Marcador calculado como ponto interno do polígono.",
        "overlayColor": "#2f9966",
        "markerNumber": 4.0
      },
      "geometry": {
        "type": "Point",
        "coordinates": [
          -43.333201287282826,
          -22.77670358079374
        ]
      }
    },
    {
      "type": "Feature",
      "properties": {
        "id": "inea-uc-319",
        "name": "Área de Proteção Ambiental Andorinhas",
        "category": "Área de proteção ambiental",
        "legalAct": "DECRETO N. 4.969 DE 20/04/2010",
        "registeredAreaHa": 16.22114195,
        "sourceUrl": "https://geoportal.inea.rj.gov.br/server/rest/services/Unidades_de_Conserva%C3%A7%C3%A3o/FeatureServer/11",
        "sourceDate": "Cadastro 2024, ICMS Ecológico 2025",
        "geometryMethod": "Polígono publicado pelo INEA. Marcador calculado como ponto interno do polígono.",
        "overlayColor": "#2f9966",
        "markerNumber": 5.0
      },
      "geometry": {
        "type": "Point",
        "coordinates": [
          -43.34505121010573,
          -22.77156764199545
        ]
      }
    },
    {
      "type": "Feature",
      "properties": {
        "id": "inea-uc-320",
        "name": "Área de Proteção Ambiental do Jardim Santo Antônio",
        "category": "Área de proteção ambiental",
        "legalAct": "DECRETO N. 4.969 DE 20/04/2010",
        "registeredAreaHa": 3.54283087,
        "sourceUrl": "https://geoportal.inea.rj.gov.br/server/rest/services/Unidades_de_Conserva%C3%A7%C3%A3o/FeatureServer/11",
        "sourceDate": "Cadastro 2024, ICMS Ecológico 2025",
        "geometryMethod": "Polígono publicado pelo INEA. Marcador calculado como ponto interno do polígono.",
        "overlayColor": "#2f9966",
        "markerNumber": 6.0
      },
      "geometry": {
        "type": "Point",
        "coordinates": [
          -43.3456645634201,
          -22.78207103987046
        ]
      }
    }
  ]
}
