{
"type": "FeatureCollection",
"name": "chmv2-imagery-dates",
"crs": { "type": "name", "properties": { "name": "urn:ogc:def:crs:OGC:1.3:CRS84" } },
"features": [
{ "type": "Feature", "properties": { "acq_date": "2019-09-16" }, "geometry": { "type": "Polygon", "coordinates": [ [ [ -43.396779299999935, -22.80702309999997 ], [ -43.396852099999933, -22.806948 ], [ -43.397243399999979, -22.80654409999994 ], [ -43.397282799999971, -22.806503499999955 ], [ -43.398902099999923, -22.804832399999949 ], [ -43.398926499999959, -22.804804899999969 ], [ -43.400147899999972, -22.803424599999964 ], [ -43.400378799999935, -22.803163699999967 ], [ -43.40063559999993, -22.802873499999972 ], [ -43.401047599999963, -22.802407899999935 ], [ -43.401487299999978, -22.80191109999992 ], [ -43.40155249999998, -22.801837399999961 ], [ -43.401634499999943, -22.801744699999961 ], [ -43.40186719999997, -22.801481699999947 ], [ -43.402914, -22.800304299999919 ], [ -43.403771799999959, -22.799348299999963 ], [ -43.404236899999944, -22.79884189999995 ], [ -43.405564799999972, -22.797395699999988 ], [ -43.4056303, -22.797324399999972 ], [ -43.406931899999961, -22.795906899999981 ], [ -43.406976699999973, -22.795856699999948 ], [ -43.408368599999953, -22.794296799999927 ], [ -43.40837369999997, -22.794291 ], [ -43.410222, -22.79221959999995 ], [ -43.410239199999971, -22.792200299999926 ], [ -43.410342299999968, -22.792084799999937 ], [ -43.410560499999967, -22.791840199999957 ], [ -43.410708, -22.791674899999961 ], [ -43.410345699999944, -22.791473299999947 ], [ -43.410292299999981, -22.791419699999942 ], [ -43.410067299999973, -22.791368199999965 ], [ -43.409633899999967, -22.7906551 ], [ -43.40960739999997, -22.790611399999921 ], [ -43.409424499999943, -22.79031649999996 ], [ -43.409161899999958, -22.790002499999961 ], [ -43.408748499999945, -22.789836499999979 ], [ -43.408725499999939, -22.789827199999927 ], [ -43.408659199999931, -22.78980289999992 ], [ -43.408272099999969, -22.789660899999951 ], [ -43.408254499999941, -22.78965149999993 ], [ -43.408156599999977, -22.789599599999971 ], [ -43.408145099999956, -22.78959349999997 ], [ -43.40813849999995, -22.789589899999946 ], [ -43.408101, -22.789541499999924 ], [ -43.407804699999978, -22.789158199999971 ], [ -43.407439399999923, -22.788685799999936 ], [ -43.407407799999923, -22.78860769999995 ], [ -43.407360499999974, -22.788497299999957 ], [ -43.407347499999958, -22.788466899999943 ], [ -43.407296199999955, -22.788347099999957 ], [ -43.406927899999971, -22.787476799999968 ], [ -43.406835, -22.787257299999965 ], [ -43.406821299999933, -22.78722479999993 ], [ -43.4067151, -22.787032699999934 ], [ -43.406545599999959, -22.786726 ], [ -43.406528199999968, -22.786694499999957 ], [ -43.406507099999942, -22.786659099999952 ], [ -43.406420399999945, -22.786513199999945 ], [ -43.406324599999941, -22.786351899999936 ], [ -43.40616279999994, -22.786237499999963 ], [ -43.406012699999962, -22.786131199999943 ], [ -43.405771899999927, -22.785960799999934 ], [ -43.405703699999947, -22.785912499999938 ], [ -43.405595799999958, -22.785873699999957 ], [ -43.405546399999928, -22.785856 ], [ -43.405422699999981, -22.785811599999928 ], [ -43.405033499999945, -22.785671799999935 ], [ -43.404991799999948, -22.785656799999963 ], [ -43.404467499999946, -22.785468499999979 ], [ -43.403987499999971, -22.785246499999957 ], [ -43.403923499999955, -22.785216899999966 ], [ -43.403873699999963, -22.785193899999971 ], [ -43.403771, -22.785146399999974 ], [ -43.403560899999938, -22.784972199999963 ], [ -43.403414099999956, -22.784850399999975 ], [ -43.403126799999932, -22.78451959999995 ], [ -43.403115199999938, -22.784500499999972 ], [ -43.402787299999936, -22.78396239999995 ], [ -43.402752499999963, -22.783509699999961 ], [ -43.40262459999996, -22.782795499999963 ], [ -43.402611399999948, -22.782721599999942 ], [ -43.402530499999955, -22.782607599999952 ], [ -43.402369199999946, -22.782622099999969 ], [ -43.402356699999977, -22.782618899999935 ], [ -43.402277499999968, -22.78259869999993 ], [ -43.402254699999958, -22.782592899999941 ], [ -43.402089199999978, -22.782445799999945 ], [ -43.401545899999974, -22.781868799999923 ], [ -43.401388299999951, -22.781711799999968 ], [ -43.400973599999929, -22.781298499999931 ], [ -43.400667799999951, -22.780993799999973 ], [ -43.400599799999952, -22.780926 ], [ -43.400064899999961, -22.780393 ], [ -43.39976479999995, -22.780094 ], [ -43.399256899999948, -22.77958789999996 ], [ -43.399031699999959, -22.779363499999931 ], [ -43.398799, -22.779131599999964 ], [ -43.398788699999955, -22.779122299999983 ], [ -43.398435399999975, -22.778802 ], [ -43.398399799999929, -22.778769799999953 ], [ -43.398312199999957, -22.778690299999941 ], [ -43.397415, -22.777848799999948 ], [ -43.397308, -22.777749099999944 ], [ -43.397281, -22.777723899999952 ], [ -43.397186899999951, -22.777636199999961 ], [ -43.397142299999985, -22.77759449999996 ], [ -43.397131699999932, -22.777584299999944 ], [ -43.395541299999927, -22.776041099999929 ], [ -43.39537439999998, -22.775908 ], [ -43.395207599999935, -22.775775 ], [ -43.394689699999965, -22.775492099999948 ], [ -43.394178899999986, -22.775047099999934 ], [ -43.393228599999929, -22.773965 ], [ -43.392867799999976, -22.773594499999941 ], [ -43.392727399999956, -22.773450399999941 ], [ -43.392379699999935, -22.773157499999964 ], [ -43.392238099999929, -22.77303819999997 ], [ -43.392236299999972, -22.773036699999977 ], [ -43.392234599999931, -22.773035299999943 ], [ -43.392195699999938, -22.773004199999935 ], [ -43.391921299999979, -22.772784899999973 ], [ -43.391780199999971, -22.772672199999928 ], [ -43.391760799999929, -22.772657 ], [ -43.391706899999967, -22.772613699999965 ], [ -43.391113499999953, -22.771996 ], [ -43.39085659999995, -22.771728599999953 ], [ -43.390576, -22.771365599999964 ], [ -43.390525899999943, -22.771300799999949 ], [ -43.390264899999977, -22.770956699999942 ], [ -43.390002699999975, -22.770718799999944 ], [ -43.389130699999946, -22.76985059999992 ], [ -43.3883891, -22.769191399999944 ], [ -43.387059699999945, -22.767999399999944 ], [ -43.385630499999934, -22.766758299999939 ], [ -43.385590299999926, -22.766726899999984 ], [ -43.385384299999934, -22.766565699999944 ], [ -43.385188399999954, -22.766472399999937 ], [ -43.38515359999996, -22.766455799999953 ], [ -43.384839799999952, -22.766380799999983 ], [ -43.38401, -22.766250899999928 ], [ -43.38387339999997, -22.766229599999981 ], [ -43.382709899999952, -22.766047499999953 ], [ -43.381778899999972, -22.765901799999924 ], [ -43.381440499999933, -22.76584859999997 ], [ -43.381154599999938, -22.765846099999973 ], [ -43.380984399999932, -22.765881499999974 ], [ -43.380821399999945, -22.765895499999942 ], [ -43.380620899999947, -22.765889699999946 ], [ -43.380450099999962, -22.765850099999966 ], [ -43.379132199999958, -22.765543899999958 ], [ -43.378966299999945, -22.765510099999968 ], [ -43.377891599999941, -22.765291299999937 ], [ -43.37716539999996, -22.765169599999975 ], [ -43.375949799999937, -22.764965799999963 ], [ -43.375643299999972, -22.764897899999944 ], [ -43.375596099999946, -22.764887399999957 ], [ -43.373998599999929, -22.764533299999972 ], [ -43.373964699999924, -22.764516 ], [ -43.373856799999942, -22.764460599999953 ], [ -43.373700399999962, -22.764362899999984 ], [ -43.373414699999948, -22.764264099999931 ], [ -43.373195, -22.764236599999936 ], [ -43.372946399999933, -22.764239299999936 ], [ -43.372669, -22.764220199999947 ], [ -43.372569199999923, -22.764184499999939 ], [ -43.372530599999948, -22.764170699999958 ], [ -43.372453399999976, -22.764143199999971 ], [ -43.372134799999969, -22.76407179999994 ], [ -43.371898599999952, -22.764055299999935 ], [ -43.371618499999947, -22.764082799999983 ], [ -43.37150639999993, -22.764121899999967 ], [ -43.371394, -22.764161199999929 ], [ -43.371280899999924, -22.764167299999944 ], [ -43.371205499999967, -22.764171399999956 ], [ -43.370485799999983, -22.764020799999969 ], [ -43.369539199999963, -22.763822799999954 ], [ -43.368407199999979, -22.763586 ], [ -43.367418399999963, -22.763379199999967 ], [ -43.366675799999939, -22.763223799999935 ], [ -43.365811899999983, -22.763043099999933 ], [ -43.365608899999984, -22.763000599999938 ], [ -43.36556, -22.762992399999973 ], [ -43.364988499999974, -22.762896699999946 ], [ -43.363607799999961, -22.762665199999955 ], [ -43.363176199999934, -22.762592899999948 ], [ -43.362354199999963, -22.762490799999963 ], [ -43.362302099999958, -22.762484299999979 ], [ -43.362196199999971, -22.762463499999964 ], [ -43.358450899999973, -22.761727699999927 ], [ -43.35547959999996, -22.761144 ], [ -43.355470699999948, -22.761142399999983 ], [ -43.35351229999997, -22.760799 ], [ -43.353459499999978, -22.760789699999982 ], [ -43.353315199999933, -22.760764399999964 ], [ -43.351259, -22.760403799999953 ], [ -43.349621799999959, -22.760116699999962 ], [ -43.349590899999953, -22.760111199999972 ], [ -43.347371599999974, -22.759675099999978 ], [ -43.343547299999955, -22.758923499999984 ], [ -43.341988399999934, -22.758617099999977 ], [ -43.338336299999973, -22.757948899999974 ], [ -43.337019, -22.757707799999931 ], [ -43.336168899999954, -22.757552299999922 ], [ -43.335330699999979, -22.757312299999953 ], [ -43.334336399999977, -22.75702409999997 ], [ -43.333836499999954, -22.756885199999935 ], [ -43.333743099999928, -22.756859299999963 ], [ -43.332132899999969, -22.756510899999963 ], [ -43.331256099999962, -22.756321199999935 ], [ -43.330071199999963, -22.756068899999953 ], [ -43.329290299999961, -22.755902599999949 ], [ -43.329290499999956, -22.755907099999934 ], [ -43.329291199999943, -22.755923899999981 ], [ -43.32930419999996, -22.756250499999972 ], [ -43.329306399999943, -22.756305199999925 ], [ -43.329306799999976, -22.756315 ], [ -43.329307599999943, -22.756334099999954 ], [ -43.32930829999998, -22.756353199999982 ], [ -43.329308799999978, -22.756363899999933 ], [ -43.32931, -22.756395299999951 ], [ -43.32932, -22.756646 ], [ -43.329320099999961, -22.756647399999959 ], [ -43.329326799999926, -22.756814199999951 ], [ -43.329329699999953, -22.756887899999988 ], [ -43.329460699999963, -22.760164099999947 ], [ -43.329599399999957, -22.763632399999949 ], [ -43.329601799999971, -22.76368 ], [ -43.329601699999948, -22.763689499999938 ], [ -43.329601899999943, -22.763693599999957 ], [ -43.329603, -22.763721199999953 ], [ -43.329638399999965, -22.764607299999973 ], [ -43.329669299999971, -22.765380099999955 ], [ -43.329670299999975, -22.765405599999948 ], [ -43.329671599999976, -22.765438799999966 ], [ -43.329672199999941, -22.765453099999945 ], [ -43.329672299999963, -22.765454499999976 ], [ -43.329684299999933, -22.765755699999946 ], [ -43.329701099999966, -22.766339799999969 ], [ -43.329763399999933, -22.768504299999954 ], [ -43.329812899999979, -22.770223499999926 ], [ -43.329812899999979, -22.770225899999954 ], [ -43.329845799999923, -22.771369399999973 ], [ -43.329874099999984, -22.772350599999982 ], [ -43.329824899999942, -22.773536299999925 ], [ -43.329777, -22.774690299999978 ], [ -43.329767199999935, -22.774927299999941 ], [ -43.329623399999939, -22.778391799999952 ], [ -43.329615399999966, -22.778585699999947 ], [ -43.329604599999975, -22.778845699999977 ], [ -43.329566599999957, -22.779763299999953 ], [ -43.329543, -22.780042299999931 ], [ -43.329310599999985, -22.782789599999941 ], [ -43.329303899999957, -22.782931199999936 ], [ -43.329301199999975, -22.782989599999933 ], [ -43.329299199999973, -22.783032399999964 ], [ -43.32929189999993, -22.783187399999971 ], [ -43.329287599999923, -22.783279 ], [ -43.329285299999974, -22.783329299999934 ], [ -43.329284799999975, -22.783339299999973 ], [ -43.329284499999972, -22.783345 ], [ -43.329284, -22.78335589999994 ], [ -43.329282099999944, -22.783397 ], [ -43.329281499999972, -22.783409499999948 ], [ -43.329280399999959, -22.783431899999979 ], [ -43.329273899999976, -22.783570799999953 ], [ -43.329271499999948, -22.783622399999956 ], [ -43.329269699999934, -22.78366079999995 ], [ -43.329267199999947, -22.78371339999995 ], [ -43.329264399999943, -22.783772899999974 ], [ -43.329243699999942, -22.784214299999974 ], [ -43.329241799999977, -22.784253799999927 ], [ -43.329241099999933, -22.784270399999961 ], [ -43.329240299999974, -22.784287 ], [ -43.329240199999951, -22.784288599999968 ], [ -43.329239899999948, -22.784294899999953 ], [ -43.329238199999963, -22.784330899999933 ], [ -43.329236799999933, -22.784361599999954 ], [ -43.329203299999961, -22.785074 ], [ -43.329201299999966, -22.785117799999956 ], [ -43.329200199999939, -22.785141199999941 ], [ -43.329200199999939, -22.785148 ], [ -43.329200299999961, -22.78515479999993 ], [ -43.329200599999979, -22.785180399999938 ], [ -43.329201199999943, -22.785235699999923 ], [ -43.329213299999935, -22.786371199999966 ], [ -43.329258899999957, -22.78692859999995 ], [ -43.329262299999982, -22.78696919999992 ], [ -43.329263599999926, -22.786985499999947 ], [ -43.329265, -22.787002199999964 ], [ -43.329265699999944, -22.787010699999939 ], [ -43.329268199999937, -22.787042 ], [ -43.329270399999977, -22.787068799999922 ], [ -43.32927259999996, -22.787095599999923 ], [ -43.329435899999964, -22.789088399999958 ], [ -43.329437399999954, -22.789106299999958 ], [ -43.329442, -22.789162399999952 ], [ -43.329445499999963, -22.789205499999969 ], [ -43.329453799999953, -22.789306499999956 ], [ -43.329481199999968, -22.789640599999927 ], [ -43.329483399999951, -22.789667799999965 ], [ -43.329485, -22.789687699999938 ], [ -43.329486399999951, -22.789704099999931 ], [ -43.329486599999939, -22.789706399999933 ], [ -43.329489699999961, -22.789744299999931 ], [ -43.329566599999957, -22.790682699999934 ], [ -43.329750499999925, -22.792169099999967 ], [ -43.329754699999967, -22.792203399999945 ], [ -43.329755699999964, -22.792211199999944 ], [ -43.329758099999928, -22.792230299999972 ], [ -43.329758299999973, -22.792232499999958 ], [ -43.329761, -22.792253699999939 ], [ -43.32977, -22.792326299999964 ], [ -43.329771099999952, -22.792335899999944 ], [ -43.329861, -22.793061799999968 ], [ -43.330094299999985, -22.794946799999931 ], [ -43.330096499999968, -22.794964799999939 ], [ -43.330097799999969, -22.794979899999923 ], [ -43.330100099999974, -22.795005599999968 ], [ -43.330149599999977, -22.795559899999944 ], [ -43.330236099999972, -22.796527899999933 ], [ -43.330287599999963, -22.797105 ], [ -43.330514799999946, -22.798988299999952 ], [ -43.330686399999934, -22.800410699999926 ], [ -43.33080949999993, -22.801430799999935 ], [ -43.330863899999933, -22.80207049999995 ], [ -43.330873399999966, -22.802182699999953 ], [ -43.330874399999963, -22.802195099999942 ], [ -43.330914499999942, -22.802665799999946 ], [ -43.33166389999996, -22.802720699999945 ], [ -43.33221919999994, -22.802761299999926 ], [ -43.333837099999982, -22.802879599999976 ], [ -43.333921, -22.802885799999949 ], [ -43.334440699999959, -22.802923799999967 ], [ -43.33479049999994, -22.802941199999964 ], [ -43.337326, -22.803067699999922 ], [ -43.338103499999932, -22.80309949999997 ], [ -43.340035099999966, -22.803178499999937 ], [ -43.341538799999967, -22.803292299999956 ], [ -43.34250359999993, -22.803365399999965 ], [ -43.345240899999958, -22.803555199999948 ], [ -43.34541459999997, -22.803567299999937 ], [ -43.345441199999982, -22.803567599999948 ], [ -43.346295799999943, -22.803578 ], [ -43.346744699999924, -22.803616299999931 ], [ -43.346816, -22.803622299999976 ], [ -43.346907499999929, -22.80363009999996 ], [ -43.346962899999937, -22.803634799999937 ], [ -43.347009499999949, -22.803638799999934 ], [ -43.347070099999932, -22.803643899999944 ], [ -43.347218299999945, -22.803656599999957 ], [ -43.347404099999942, -22.803673399999973 ], [ -43.347632299999923, -22.803694 ], [ -43.34824969999994, -22.803749799999942 ], [ -43.348357299999968, -22.803759599999974 ], [ -43.348411, -22.803764399999967 ], [ -43.348458799999939, -22.803768699999985 ], [ -43.348464799999931, -22.803769299999939 ], [ -43.348564499999952, -22.80365729999993 ], [ -43.348664199999966, -22.803545299999939 ], [ -43.348711799999926, -22.803515599999965 ], [ -43.348925899999983, -22.803381799999951 ], [ -43.349030799999987, -22.803340699999975 ], [ -43.34922679999994, -22.803264 ], [ -43.349586699999968, -22.803192 ], [ -43.349868799999967, -22.803140099999954 ], [ -43.350048099999988, -22.803107199999943 ], [ -43.350155899999947, -22.803087399999985 ], [ -43.350219399999958, -22.803079599999926 ], [ -43.350870799999939, -22.802999899999971 ], [ -43.351144899999944, -22.802966399999939 ], [ -43.351654099999962, -22.802904199999951 ], [ -43.352094099999924, -22.802805299999935 ], [ -43.352245499999974, -22.802771299999957 ], [ -43.352396899999974, -22.802737199999971 ], [ -43.352818699999943, -22.802642499999934 ], [ -43.353564499999941, -22.802459299999949 ], [ -43.353757499999972, -22.802426599999926 ], [ -43.353950499999939, -22.802393799999937 ], [ -43.354010099999982, -22.802398299999929 ], [ -43.354388899999947, -22.80242659999994 ], [ -43.35469379999995, -22.802491899999957 ], [ -43.354755299999965, -22.802505099999962 ], [ -43.354757899999974, -22.802505399999973 ], [ -43.354806899999971, -22.802511 ], [ -43.355108199999954, -22.802545699999939 ], [ -43.355404299999975, -22.802579699999967 ], [ -43.355409399999985, -22.802580299999935 ], [ -43.355419899999958, -22.802581699999962 ], [ -43.355885, -22.802645399999957 ], [ -43.355959099999943, -22.80265549999995 ], [ -43.355998, -22.802660499999941 ], [ -43.356186299999933, -22.802684699999922 ], [ -43.356315699999982, -22.80270129999996 ], [ -43.356521699999973, -22.802711199999976 ], [ -43.356680399999959, -22.802693199999961 ], [ -43.356839099999945, -22.80267519999995 ], [ -43.357087, -22.802646499999977 ], [ -43.357405, -22.802609799999967 ], [ -43.357614299999959, -22.802619599999954 ], [ -43.357951299999961, -22.802675199999957 ], [ -43.358285, -22.802739 ], [ -43.35852929999993, -22.802785699999948 ], [ -43.358616499999982, -22.802802399999958 ], [ -43.358618599999943, -22.802802799999938 ], [ -43.358630599999962, -22.80280519999997 ], [ -43.359065799999932, -22.802892499999921 ], [ -43.359300099999977, -22.802939399999961 ], [ -43.359301499999958, -22.802939899999952 ], [ -43.359511699999977, -22.803005599999949 ], [ -43.359692, -22.803084 ], [ -43.359737399999979, -22.803103699999944 ], [ -43.359936899999973, -22.803221499999946 ], [ -43.360493299999973, -22.803617199999966 ], [ -43.36056039999994, -22.803664899999937 ], [ -43.360975799999942, -22.803960399999937 ], [ -43.361477699999959, -22.804317399999942 ], [ -43.361501299999929, -22.804334499999985 ], [ -43.361615099999938, -22.804417599999958 ], [ -43.361634699999961, -22.804431799999971 ], [ -43.361739399999976, -22.804451499999967 ], [ -43.36190949999996, -22.804428599999937 ], [ -43.361995, -22.804418099999953 ], [ -43.362514599999933, -22.804354299999929 ], [ -43.363119699999963, -22.804280099999971 ], [ -43.363668899999936, -22.804212699999933 ], [ -43.363797, -22.804197 ], [ -43.363877799999948, -22.804187099999965 ], [ -43.363966199999943, -22.804176199999969 ], [ -43.364218299999948, -22.804145299999949 ], [ -43.364361899999942, -22.804127699999974 ], [ -43.364468799999941, -22.804114599999942 ], [ -43.364575599999959, -22.804101399999968 ], [ -43.364859699999947, -22.804078199999932 ], [ -43.364921199999969, -22.804073199999948 ], [ -43.365055899999966, -22.80406209999995 ], [ -43.365135, -22.804055599999977 ], [ -43.36515229999997, -22.804055599999963 ], [ -43.365314099999978, -22.804055599999963 ], [ -43.365318599999966, -22.804055599999966 ], [ -43.365324199999982, -22.804055599999963 ], [ -43.365329599999939, -22.804055599999966 ], [ -43.365331399999945, -22.804055699999932 ], [ -43.365334699999948, -22.804055899999987 ], [ -43.365364399999969, -22.804057899999975 ], [ -43.365395299999925, -22.80406 ], [ -43.365435899999959, -22.804062799999933 ], [ -43.365439099999946, -22.804063 ], [ -43.365475199999928, -22.804065499999972 ], [ -43.36550109999996, -22.804072099999921 ], [ -43.365512799999976, -22.804075099999981 ], [ -43.365555799999974, -22.804086099999946 ], [ -43.365559799999964, -22.804087099999936 ], [ -43.365573299999937, -22.804090599999927 ], [ -43.365583799999968, -22.804093199999954 ], [ -43.365591099999961, -22.804095099999923 ], [ -43.365601599999934, -22.804097799999965 ], [ -43.365606399999926, -22.804099 ], [ -43.365609899999974, -22.804099899999986 ], [ -43.365612499999934, -22.804100599999973 ], [ -43.365614199999975, -22.804101 ], [ -43.365616299999935, -22.804101599999967 ], [ -43.365620599999943, -22.804103099999971 ], [ -43.365667, -22.804118899999935 ], [ -43.365710599999936, -22.804133699999955 ], [ -43.365749299999948, -22.804146899999967 ], [ -43.365769599999965, -22.804153799999938 ], [ -43.365781199999951, -22.804159 ], [ -43.365814, -22.804173499999937 ], [ -43.365881499999936, -22.804203499999968 ], [ -43.366012099999971, -22.804261599999961 ], [ -43.366299499999961, -22.804389299999961 ], [ -43.366321199999952, -22.804400199999975 ], [ -43.366877399999957, -22.804678199999955 ], [ -43.366924099999956, -22.804701599999934 ], [ -43.3672481, -22.804863599999972 ], [ -43.367327899999964, -22.80490349999997 ], [ -43.367352899999965, -22.804916 ], [ -43.367448, -22.804954399999918 ], [ -43.367471099999932, -22.804963799999936 ], [ -43.367543199999943, -22.804992899999938 ], [ -43.367637099999968, -22.805011499999978 ], [ -43.367776799999945, -22.80503919999995 ], [ -43.36779, -22.805041799999966 ], [ -43.367811299999971, -22.80504429999996 ], [ -43.367817499999944, -22.805045 ], [ -43.368064399999973, -22.805074199999975 ], [ -43.368649499999947, -22.805112599999966 ], [ -43.36892859999994, -22.805131 ], [ -43.36963929999996, -22.805222 ], [ -43.369922899999949, -22.805271599999973 ], [ -43.369986799999936, -22.805282799999933 ], [ -43.370205199999923, -22.805354799999975 ], [ -43.370242, -22.805367 ], [ -43.370272799999945, -22.805388499999932 ], [ -43.370307799999978, -22.805413 ], [ -43.370412599999952, -22.805486399999946 ], [ -43.37043339999996, -22.805505499999981 ], [ -43.370685299999927, -22.805736 ], [ -43.370850299999979, -22.805887199999965 ], [ -43.370919099999973, -22.805949099999964 ], [ -43.370941099999982, -22.805968899999979 ], [ -43.371003399999942, -22.806025 ], [ -43.371189099999981, -22.806192299999964 ], [ -43.371342899999945, -22.806330799999955 ], [ -43.371622699999932, -22.806582799999941 ], [ -43.37173729999995, -22.806686 ], [ -43.371871299999952, -22.806794799999974 ], [ -43.371986199999981, -22.806888099999984 ], [ -43.372064799999968, -22.806951899999948 ], [ -43.372186799999959, -22.807050899999972 ], [ -43.372266099999941, -22.807115299999968 ], [ -43.37234, -22.807183499999951 ], [ -43.372576799999933, -22.807248299999966 ], [ -43.37261, -22.807257399999973 ], [ -43.372612099999962, -22.80725769999998 ], [ -43.37281959999995, -22.807289699999952 ], [ -43.373029199999962, -22.807322099999961 ], [ -43.373219399999975, -22.807351399999952 ], [ -43.373292299999946, -22.807362599999969 ], [ -43.373373599999972, -22.807376899999941 ], [ -43.373689699999943, -22.807432599999974 ], [ -43.373700599999943, -22.807434199999925 ], [ -43.373838799999923, -22.807454699999937 ], [ -43.373961, -22.807472699999952 ], [ -43.374129299999936, -22.807494799999962 ], [ -43.374219899999957, -22.807518899999923 ], [ -43.374284399999958, -22.807536 ], [ -43.374509, -22.807641199999967 ], [ -43.374574699999982, -22.80768589999996 ], [ -43.374847299999935, -22.807871499999969 ], [ -43.374850199999962, -22.807873599999937 ], [ -43.375104499999964, -22.808067299999948 ], [ -43.375149199999946, -22.808101199999953 ], [ -43.375351099999932, -22.808247599999959 ], [ -43.375354199999947, -22.808249599999947 ], [ -43.375535299999967, -22.808366099999944 ], [ -43.375607699999932, -22.808408099999944 ], [ -43.375765499999943, -22.80849969999997 ], [ -43.375845099999935, -22.808570799999927 ], [ -43.375924699999977, -22.808641899999937 ], [ -43.376129599999956, -22.808914099999978 ], [ -43.376183, -22.808984899999928 ], [ -43.376266199999968, -22.809095499999959 ], [ -43.376322699999939, -22.809170599999955 ], [ -43.37635679999994, -22.809278699999933 ], [ -43.376447799999937, -22.80990689999993 ], [ -43.376512499999933, -22.810322899999957 ], [ -43.37651319999997, -22.81032759999993 ], [ -43.376546, -22.810484899999949 ], [ -43.376632599999937, -22.810623299999978 ], [ -43.376734899999974, -22.810739799999965 ], [ -43.376767599999937, -22.810763699999931 ], [ -43.376771799999965, -22.810766799999953 ], [ -43.376840099999974, -22.810816599999942 ], [ -43.376887, -22.81083789999996 ], [ -43.376933899999976, -22.810859199999971 ], [ -43.376996499999954, -22.810870599999927 ], [ -43.377169899999949, -22.810887699999963 ], [ -43.377866099999949, -22.81083429999995 ], [ -43.377950899999973, -22.810825799999975 ], [ -43.378548599999924, -22.810765399999983 ], [ -43.378663, -22.810749 ], [ -43.379435799999953, -22.810638 ], [ -43.379518, -22.810626099999972 ], [ -43.379606199999955, -22.810629 ], [ -43.379654499999965, -22.810647499999952 ], [ -43.37971239999996, -22.810675799999956 ], [ -43.379812099999988, -22.810750499999973 ], [ -43.379852599999936, -22.810783699999945 ], [ -43.379932499999938, -22.810862699999969 ], [ -43.380018399999976, -22.810947399999975 ], [ -43.380089399999967, -22.810994299999944 ], [ -43.380125, -22.811007799999977 ], [ -43.380160499999924, -22.811021299999929 ], [ -43.380302599999936, -22.811055399999926 ], [ -43.380574099999926, -22.811095199999958 ], [ -43.380763199999926, -22.811144099999975 ], [ -43.38095219999996, -22.811160599999941 ], [ -43.381094299999965, -22.811181 ], [ -43.381266, -22.81128979999994 ], [ -43.381434099999979, -22.811396 ], [ -43.381636599999972, -22.811506 ], [ -43.382038699999953, -22.811709399999923 ], [ -43.382066599999973, -22.811723499999971 ], [ -43.382147799999977, -22.811742 ], [ -43.382187199999969, -22.811751 ], [ -43.382228599999955, -22.811760399999955 ], [ -43.382352399999945, -22.811783599999952 ], [ -43.38259249999993, -22.811828599999949 ], [ -43.382845199999963, -22.811875099999945 ], [ -43.382871099999932, -22.811879799999932 ], [ -43.383001899999954, -22.811933799999959 ], [ -43.383158699999974, -22.812030799999938 ], [ -43.38325669999994, -22.812103599999936 ], [ -43.38342259999996, -22.812226599999981 ], [ -43.383570399999932, -22.812317599999979 ], [ -43.383709699999933, -22.812417099999955 ], [ -43.383721899999948, -22.812426899999931 ], [ -43.383774299999963, -22.812469099999934 ], [ -43.383826299999946, -22.812510899999946 ], [ -43.383974099999932, -22.812695699999949 ], [ -43.384078799999934, -22.812886699999968 ], [ -43.384087799999975, -22.812903199999941 ], [ -43.384292499999965, -22.813281299999964 ], [ -43.384309599999938, -22.813324299999966 ], [ -43.384392, -22.813531499999939 ], [ -43.384483, -22.81371339999998 ], [ -43.384484, -22.813714699999931 ], [ -43.384512199999961, -22.813748 ], [ -43.384559699999954, -22.813804099999963 ], [ -43.38460809999998, -22.813861199999955 ], [ -43.384718899999932, -22.813938 ], [ -43.384785699999952, -22.813967799999933 ], [ -43.384852499999965, -22.813997699999948 ], [ -43.38485449999996, -22.813998 ], [ -43.384946299999967, -22.814013799999938 ], [ -43.385035499999958, -22.814029099999956 ], [ -43.38516089999996, -22.814050699999939 ], [ -43.385180899999966, -22.814054099999957 ], [ -43.385246, -22.814065299999978 ], [ -43.385273899999952, -22.814070099999974 ], [ -43.385438899999933, -22.814098499999933 ], [ -43.385641699999951, -22.814133399999942 ], [ -43.385680499999978, -22.81414 ], [ -43.385842699999955, -22.814167899999973 ], [ -43.386013899999959, -22.814197299999933 ], [ -43.386087699999955, -22.81421 ], [ -43.386208599999975, -22.814230799999955 ], [ -43.386249099999922, -22.81424249999997 ], [ -43.386272599999977, -22.814249299999975 ], [ -43.386321799999962, -22.814263499999985 ], [ -43.386331199999972, -22.814266299999922 ], [ -43.386347099999966, -22.81427089999994 ], [ -43.386359899999945, -22.814274599999973 ], [ -43.386361399999949, -22.814275 ], [ -43.386364399999934, -22.81427589999992 ], [ -43.386367199999938, -22.814276799999949 ], [ -43.386593399999988, -22.814348099999961 ], [ -43.387005899999956, -22.814535799999931 ], [ -43.38719779999996, -22.814623099999938 ], [ -43.387381499999947, -22.81470279999996 ], [ -43.387584499999946, -22.814790799999969 ], [ -43.387701, -22.814805 ], [ -43.387804299999971, -22.814799499999925 ], [ -43.387806199999936, -22.814799399999956 ], [ -43.387832899999978, -22.814792499999943 ], [ -43.387905699999969, -22.814773799999958 ], [ -43.387985799999967, -22.814717399999946 ], [ -43.388262299999951, -22.81454059999993 ], [ -43.388351799999953, -22.814483399999965 ], [ -43.388369799999964, -22.814471899999944 ], [ -43.388511199999975, -22.814381499999968 ], [ -43.388545699999952, -22.814358899999942 ], [ -43.388657099999925, -22.814285899999959 ], [ -43.38884939999997, -22.814159799999967 ], [ -43.388852599999943, -22.814157399999939 ], [ -43.388862099999976, -22.814150499999979 ], [ -43.389119599999951, -22.813960699999939 ], [ -43.389189599999945, -22.813924599999943 ], [ -43.389259699999968, -22.813888399999939 ], [ -43.389382499999954, -22.813824299999954 ], [ -43.389655399999981, -22.813736199999941 ], [ -43.389869099999942, -22.813671899999978 ], [ -43.390005099999939, -22.813631 ], [ -43.390121699999952, -22.813636699999947 ], [ -43.39023769999995, -22.813661 ], [ -43.390453199999968, -22.813768899999957 ], [ -43.390555899999988, -22.81382039999993 ], [ -43.391032299999942, -22.81329189999996 ], [ -43.391207199999933, -22.813097199999962 ], [ -43.391233899999968, -22.813068299999944 ], [ -43.392027299999938, -22.812188199999969 ], [ -43.392095099999956, -22.812112899999931 ], [ -43.393498599999923, -22.810556 ], [ -43.394735, -22.809184499999951 ], [ -43.394814899999972, -22.809095899999928 ], [ -43.395403899999963, -22.80844239999993 ], [ -43.396285199999959, -22.807533 ], [ -43.396779299999935, -22.80702309999997 ] ] ] } }
]
}
